[{"no":"1","location":"Akauntan Negeri","postcode":"01594","postOffice":"Kangar","state":"Perlis"},{"no":"2","location":"Al Marhom Kayang","postcode":"02000","postOffice":"Kuala Perlis","state":"Perlis"},{"no":"3","location":"Alor Redeh","postcode":"01000","postOffice":"Kangar","state":"Perlis"},{"no":"4","location":"Alor Tok Terang","postcode":"01000","postOffice":"Kangar","state":"Perlis"},{"no":"5","location":"Amanah Raya Berhad","postcode":"01508","postOffice":"Kangar","state":"Perlis"},{"no":"6","location":"Arau","postcode":"02600","postOffice":"Arau","state":"Perlis"},{"no":"7","location":"Arau - Beg berkunci","postcode":"02609","postOffice":"Arau","state":"Perlis"},{"no":"8","location":"Arau - Peti surat","postcode":"02607","postOffice":"Arau","state":"Perlis"},{"no":"9","location":"Bahagian Perlesenan - Kementerian Penerangan","postcode":"01610","postOffice":"Kangar","state":"Perlis"},{"no":"10","location":"Beseri","postcode":"02400","postOffice":"Kangar","state":"Perlis"},{"no":"11","location":"Beseri Dalam","postcode":"02400","postOffice":"Kangar","state":"Perlis"},{"no":"12","location":"Bilal Uduh","postcode":"02400","postOffice":"Kangar","state":"Perlis"},{"no":"13","location":"Biro Bantuan Guaman","postcode":"01504","postOffice":"Kangar","state":"Perlis"},{"no":"14","location":"Biro Pengaduan Awam","postcode":"01505","postOffice":"Kangar","state":"Perlis"},{"no":"15","location":"Bohor Gelam","postcode":"01000","postOffice":"Kangar","state":"Perlis"},{"no":"16","location":"Bohor Lateh","postcode":"02000","postOffice":"Kuala Perlis","state":"Perlis"},{"no":"17","location":"Bohor Madi","postcode":"02400","postOffice":"Kangar","state":"Perlis"},{"no":"18","location":"Bohor Mali","postcode":"02000","postOffice":"Kuala Perlis","state":"Perlis"},{"no":"19","location":"Bohor Mali","postcode":"02700","postOffice":"Simpang Ampat","state":"Perlis"},{"no":"20","location":"Bukit Cabang","postcode":"02100","postOffice":"Padang Besar","state":"Perlis"},{"no":"21","location":"Bukit Chuping","postcode":"02500","postOffice":"Kangar","state":"Perlis"},{"no":"22","location":"Bukit Keteri","postcode":"02400","postOffice":"Kangar","state":"Perlis"},{"no":"23","location":"Bukit Keteri","postcode":"02450","postOffice":"Kangar","state":"Perlis"},{"no":"24","location":"Bukit Puteh","postcode":"02000","postOffice":"Kuala Perlis","state":"Perlis"},{"no":"25","location":"Bukit Tok Po","postcode":"02000","postOffice":"Kuala Perlis","state":"Perlis"},{"no":"26","location":"Dewan Undangan Negeri","postcode":"01680","postOffice":"Kangar","state":"Perlis"},{"no":"27","location":"DYMM Tuanku Raja Perlis","postcode":"01500","postOffice":"Kangar","state":"Perlis"},{"no":"28","location":"Emas Kerajang","postcode":"02100","postOffice":"Padang Besar","state":"Perlis"},{"no":"29","location":"Empangan Timah Tassoh JPS","postcode":"02400","postOffice":"Kangar","state":"Perlis"},{"no":"30","location":"Felcra Lubuk Sireh","postcode":"02100","postOffice":"Padang Besar","state":"Perlis"},{"no":"31","location":"Felda Chuping","postcode":"02500","postOffice":"Kangar","state":"Perlis"},{"no":"32","location":"Felda Mata Ayer","postcode":"02100","postOffice":"Padang Besar","state":"Perlis"},{"no":"33","location":"Felda Rimba Mas","postcode":"02100","postOffice":"Padang Besar","state":"Perlis"},{"no":"34","location":"Gapura Square","postcode":"02100","postOffice":"Padang Besar","state":"Perlis"},{"no":"35","location":"Guar Panji","postcode":"02400","postOffice":"Kangar","state":"Perlis"},{"no":"36","location":"Guar Panji","postcode":"02450","postOffice":"Kangar","state":"Perlis"},{"no":"37","location":"Guar Sanji","postcode":"02600","postOffice":"Arau","state":"Perlis"},{"no":"38","location":"Hospital Kangar","postcode":"01586","postOffice":"Kangar","state":"Perlis"},{"no":"39","location":"Institut Kemahiran Mara","postcode":"02400","postOffice":"Kangar","state":"Perlis"},{"no":"40","location":"Jabatan Agama Islam Perlis","postcode":"01676","postOffice":"Kangar","state":"Perlis"},{"no":"41","location":"Jabatan Audit Negeri","postcode":"01518","postOffice":"Kangar","state":"Perlis"},{"no":"42","location":"Jabatan Belia \u0026 Sukan","postcode":"01570","postOffice":"Kangar","state":"Perlis"},{"no":"43","location":"Jabatan Bomba \u0026 Penyelamat","postcode":"01648","postOffice":"Kangar","state":"Perlis"},{"no":"44","location":"Jabatan Haiwan","postcode":"01630","postOffice":"Kangar","state":"Perlis"},{"no":"45","location":"Jabatan Imigresen","postcode":"01550","postOffice":"Kangar","state":"Perlis"},{"no":"46","location":"Jabatan Kastam \u0026 Eksais Di Raja","postcode":"01596","postOffice":"Kangar","state":"Perlis"},{"no":"47","location":"Jabatan Kebajikan Masyarakat","postcode":"01564","postOffice":"Kangar","state":"Perlis"},{"no":"48","location":"Jabatan KeBudayaan \u0026 Kesenian","postcode":"01694","postOffice":"Kangar","state":"Perlis"},{"no":"49","location":"Jabatan Kemajuan Masyarakat (Kemas)","postcode":"01606","postOffice":"Kangar","state":"Perlis"},{"no":"50","location":"Jabatan Kerja Raya","postcode":"01582","postOffice":"Kangar","state":"Perlis"},{"no":"51","location":"Jabatan Keselamatan Sosial (Perkeso)","postcode":"01538","postOffice":"Kangar","state":"Perlis"},{"no":"52","location":"Jabatan Kesihatan","postcode":"01590","postOffice":"Kangar","state":"Perlis"},{"no":"53","location":"Jabatan Pembangunan Koperasi","postcode":"01608","postOffice":"Kangar","state":"Perlis"},{"no":"54","location":"Jabatan Pemegang Harta","postcode":"01516","postOffice":"Kangar","state":"Perlis"},{"no":"55","location":"Jabatan Pendaftaran Negara","postcode":"01551","postOffice":"Kangar","state":"Perlis"},{"no":"56","location":"Jabatan Pendidikan","postcode":"01604","postOffice":"Kangar","state":"Perlis"},{"no":"57","location":"Jabatan Penerangan","postcode":"01612","postOffice":"Kangar","state":"Perlis"},{"no":"58","location":"Jabatan Pengairan \u0026 Saliran","postcode":"01626","postOffice":"Kangar","state":"Perlis"},{"no":"59","location":"Jabatan Pengangkutan Jalan","postcode":"01620","postOffice":"Kangar","state":"Perlis"},{"no":"60","location":"Jabatan Penyiaran","postcode":"01614","postOffice":"Kangar","state":"Perlis"},{"no":"61","location":"Jabatan Perancang Bandar \u0026 Desa","postcode":"01646","postOffice":"Kangar","state":"Perlis"},{"no":"62","location":"Jabatan Perangkaan","postcode":"01514","postOffice":"Kangar","state":"Perlis"},{"no":"63","location":"Jabatan Perhilitan","postcode":"01664","postOffice":"Kangar","state":"Perlis"},{"no":"64","location":"Jabatan Perhutanan","postcode":"01660","postOffice":"Kangar","state":"Perlis"},{"no":"65","location":"Jabatan Perikanan","postcode":"01628","postOffice":"Kangar","state":"Perlis"},{"no":"66","location":"Jabatan Perpaduan Negara","postcode":"01517","postOffice":"Kangar","state":"Perlis"},{"no":"67","location":"Jabatan Pertahanan Awam","postcode":"01556","postOffice":"Kangar","state":"Perlis"},{"no":"68","location":"Jabatan Pertanian","postcode":"01632","postOffice":"Kangar","state":"Perlis"},{"no":"69","location":"Jabatan Pertanian Bukit Temiang","postcode":"02400","postOffice":"Kangar","state":"Perlis"},{"no":"70","location":"Jabatan Sumber Manusia","postcode":"01532","postOffice":"Kangar","state":"Perlis"},{"no":"71","location":"Jabatan Tanah \u0026 Galian","postcode":"01576","postOffice":"Kangar","state":"Perlis"},{"no":"72","location":"Jabatan Tenaga Rakyat","postcode":"01540","postOffice":"Kangar","state":"Perlis"},{"no":"73","location":"Jabatan Ukur \u0026 Pemetaan","postcode":"01578","postOffice":"Kangar","state":"Perlis"},{"no":"74","location":"Jalan Abi Tok Hashim","postcode":"01000","postOffice":"Kangar","state":"Perlis"},{"no":"75","location":"Jalan Alor Sena","postcode":"01000","postOffice":"Kangar","state":"Perlis"},{"no":"76","location":"Jalan Arau","postcode":"01000","postOffice":"Kangar","state":"Perlis"},{"no":"77","location":"Jalan Asam Paya","postcode":"02400","postOffice":"Kangar","state":"Perlis"},{"no":"78","location":"Jalan Besar","postcode":"02000","postOffice":"Kuala Perlis","state":"Perlis"},{"no":"79","location":"Jalan Besar Kangar","postcode":"01000","postOffice":"Kangar","state":"Perlis"},{"no":"80","location":"Jalan Beseri - Bukit Keteri","postcode":"02400","postOffice":"Kangar","state":"Perlis"},{"no":"81","location":"Jalan Bohor Guncar","postcode":"01000","postOffice":"Kangar","state":"Perlis"},{"no":"82","location":"Jalan Bukit Meranti","postcode":"01000","postOffice":"Kangar","state":"Perlis"},{"no":"83","location":"Jalan Home Guard","postcode":"01000","postOffice":"Kangar","state":"Perlis"},{"no":"84","location":"Jalan Hospital","postcode":"01000","postOffice":"Kangar","state":"Perlis"},{"no":"85","location":"Jalan Jubli Perak","postcode":"01000","postOffice":"Kangar","state":"Perlis"},{"no":"86","location":"Jalan Kaki Bukit (Batu 4 1/2)","postcode":"01000","postOffice":"Kangar","state":"Perlis"},{"no":"87","location":"Jalan Kaki Bukit (Batu 4 3/4 - 6 1/4)","postcode":"02400","postOffice":"Kangar","state":"Perlis"},{"no":"88","location":"Jalan Kampung Wan Abdullah","postcode":"01000","postOffice":"Kangar","state":"Perlis"},{"no":"89","location":"Jalan Kangar","postcode":"01000","postOffice":"Kangar","state":"Perlis"},{"no":"90","location":"Jalan Kurung Batang","postcode":"01000","postOffice":"Kangar","state":"Perlis"},{"no":"91","location":"Jalan Lama Kuala Perlis (Batu 4)","postcode":"02000","postOffice":"Kuala Perlis","state":"Perlis"},{"no":"92","location":"Jalan Masjid","postcode":"02000","postOffice":"Kuala Perlis","state":"Perlis"},{"no":"93","location":"Jalan Masjid Lama","postcode":"01000","postOffice":"Kangar","state":"Perlis"},{"no":"94","location":"Jalan Mata Ayer (Km 1.6 - 6)","postcode":"02500","postOffice":"Kangar","state":"Perlis"},{"no":"95","location":"Jalan Medan Kangar","postcode":"01000","postOffice":"Kangar","state":"Perlis"},{"no":"96","location":"Jalan Miri","postcode":"02000","postOffice":"Kuala Perlis","state":"Perlis"},{"no":"97","location":"Jalan Padang Besar (Batu 16)","postcode":"02200","postOffice":"Kaki Bukit","state":"Perlis"},{"no":"98","location":"Jalan Padang Besar (Km 19)","postcode":"02100","postOffice":"Padang Besar","state":"Perlis"},{"no":"99","location":"Jalan Padang Bohor","postcode":"01000","postOffice":"Kangar","state":"Perlis"},{"no":"100","location":"Jalan Panggong","postcode":"02000","postOffice":"Kuala Perlis","state":"Perlis"},{"no":"101","location":"Jalan Panglima","postcode":"01000","postOffice":"Kangar","state":"Perlis"},{"no":"102","location":"Jalan Pegawai","postcode":"01000","postOffice":"Kangar","state":"Perlis"},{"no":"103","location":"Jalan Penjara","postcode":"01000","postOffice":"Kangar","state":"Perlis"},{"no":"104","location":"Jalan Raja Muda","postcode":"01000","postOffice":"Kangar","state":"Perlis"},{"no":"105","location":"Jalan Raja Syed Alwi","postcode":"01000","postOffice":"Kangar","state":"Perlis"},{"no":"106","location":"Jalan Raja Syed Saffi","postcode":"01000","postOffice":"Kangar","state":"Perlis"},{"no":"107","location":"Jalan Santan (Batu 3 3/4 - 5)","postcode":"02400","postOffice":"Kangar","state":"Perlis"},{"no":"108","location":"Jalan Santan (Km 5)","postcode":"01000","postOffice":"Kangar","state":"Perlis"},{"no":"109","location":"Jalan Serawak","postcode":"02000","postOffice":"Kuala Perlis","state":"Perlis"},{"no":"110","location":"Jalan Seruling","postcode":"01000","postOffice":"Kangar","state":"Perlis"},{"no":"111","location":"Jalan Siakap","postcode":"02000","postOffice":"Kuala Perlis","state":"Perlis"},{"no":"112","location":"Jalan Simpang Empat (Batu 3 3/4 - 4 1/2)","postcode":"02000","postOffice":"Kuala Perlis","state":"Perlis"},{"no":"113","location":"Jalan Syed Omar","postcode":"01000","postOffice":"Kangar","state":"Perlis"},{"no":"114","location":"Jalan Taman Bunga Padi","postcode":"01000","postOffice":"Kangar","state":"Perlis"},{"no":"115","location":"Jalan Teluk Kacang","postcode":"01000","postOffice":"Kangar","state":"Perlis"},{"no":"116","location":"Jalan Tok Kandang","postcode":"01000","postOffice":"Kangar","state":"Perlis"},{"no":"117","location":"Jalan Tun Razak","postcode":"01000","postOffice":"Kangar","state":"Perlis"},{"no":"118","location":"Jejawi","postcode":"01000","postOffice":"Kangar","state":"Perlis"},{"no":"119","location":"JKR Bekalan Air Tassoh","postcode":"02400","postOffice":"Kangar","state":"Perlis"},{"no":"120","location":"Kaki Bukit","postcode":"02200","postOffice":"Kaki Bukit","state":"Perlis"},{"no":"121","location":"Kampung Abi Batas Paip","postcode":"01000","postOffice":"Kangar","state":"Perlis"},{"no":"122","location":"Kampung Abi Padang Machang","postcode":"01000","postOffice":"Kangar","state":"Perlis"},{"no":"123","location":"Kampung Abi Pokok Asam","postcode":"01000","postOffice":"Kangar","state":"Perlis"},{"no":"124","location":"Kampung Abi Tok Hashim","postcode":"01000","postOffice":"Kangar","state":"Perlis"},{"no":"125","location":"Kampung Alor","postcode":"01000","postOffice":"Kangar","state":"Perlis"},{"no":"126","location":"Kampung Alor Ara","postcode":"01000","postOffice":"Kangar","state":"Perlis"},{"no":"127","location":"Kampung Alor Dalam","postcode":"01000","postOffice":"Kangar","state":"Perlis"},{"no":"128","location":"Kampung Alor Dalam (Bukit Chabang)","postcode":"02100","postOffice":"Padang Besar","state":"Perlis"},{"no":"129","location":"Kampung Alor Kabong","postcode":"01000","postOffice":"Kangar","state":"Perlis"},{"no":"130","location":"Kampung Alor Kangar","postcode":"02400","postOffice":"Kangar","state":"Perlis"},{"no":"131","location":"Kampung Alor Lanchang","postcode":"01000","postOffice":"Kangar","state":"Perlis"},{"no":"132","location":"Kampung Alor Marus","postcode":"01000","postOffice":"Kangar","state":"Perlis"},{"no":"133","location":"Kampung Alor Merah","postcode":"02600","postOffice":"Arau","state":"Perlis"},{"no":"134","location":"Kampung Alor Pulai","postcode":"01000","postOffice":"Kangar","state":"Perlis"},{"no":"135","location":"Kampung Alor Redeh","postcode":"01000","postOffice":"Kangar","state":"Perlis"},{"no":"136","location":"Kampung Alor Sena","postcode":"01000","postOffice":"Kangar","state":"Perlis"},{"no":"137","location":"Kampung Alor Tampang","postcode":"02400","postOffice":"Kangar","state":"Perlis"},{"no":"138","location":"Kampung Aman","postcode":"01000","postOffice":"Kangar","state":"Perlis"},{"no":"139","location":"Kampung Asam 6","postcode":"01000","postOffice":"Kangar","state":"Perlis"},{"no":"140","location":"Kampung Asmara","postcode":"02100","postOffice":"Padang Besar","state":"Perlis"},{"no":"141","location":"Kampung Aur","postcode":"01000","postOffice":"Kangar","state":"Perlis"},{"no":"142","location":"Kampung Bahagia","postcode":"02000","postOffice":"Kuala Perlis","state":"Perlis"},{"no":"143","location":"Kampung Bakau","postcode":"01000","postOffice":"Kangar","state":"Perlis"},{"no":"144","location":"Kampung Bakong (Arau)","postcode":"02600","postOffice":"Arau","state":"Perlis"},{"no":"145","location":"Kampung Bakong (Jejawi)","postcode":"01000","postOffice":"Kangar","state":"Perlis"},{"no":"146","location":"Kampung Balai Baru","postcode":"02400","postOffice":"Kangar","state":"Perlis"},{"no":"147","location":"Kampung Balik Bukit","postcode":"02500","postOffice":"Kangar","state":"Perlis"},{"no":"148","location":"Kampung Balik Guar","postcode":"02500","postOffice":"Kangar","state":"Perlis"},{"no":"149","location":"Kampung Banat","postcode":"02600","postOffice":"Arau","state":"Perlis"},{"no":"150","location":"Kampung Banggol Sena","postcode":"02500","postOffice":"Kangar","state":"Perlis"},{"no":"151","location":"Kampung Bangsal Lebah","postcode":"02000","postOffice":"Kuala Perlis","state":"Perlis"},{"no":"152","location":"Kampung Banir Tembus","postcode":"02700","postOffice":"Simpang Ampat","state":"Perlis"},{"no":"153","location":"Kampung Baroh","postcode":"01000","postOffice":"Kangar","state":"Perlis"},{"no":"154","location":"Kampung Baru","postcode":"01000","postOffice":"Kangar","state":"Perlis"},{"no":"155","location":"Kampung Baru","postcode":"02100","postOffice":"Padang Besar","state":"Perlis"},{"no":"156","location":"Kampung Baru (Jalan Sarawak)","postcode":"02000","postOffice":"Kuala Perlis","state":"Perlis"},{"no":"157","location":"Kampung Baru Bukit Chabang","postcode":"02100","postOffice":"Padang Besar","state":"Perlis"},{"no":"158","location":"Kampung Baru Jalan Sahabat","postcode":"02100","postOffice":"Padang Besar","state":"Perlis"},{"no":"159","location":"Kampung Baru Jeti","postcode":"02000","postOffice":"Kuala Perlis","state":"Perlis"},{"no":"160","location":"Kampung Baru Ngulang","postcode":"02400","postOffice":"Kangar","state":"Perlis"},{"no":"161","location":"Kampung Baru Santan","postcode":"01000","postOffice":"Kangar","state":"Perlis"},{"no":"162","location":"Kampung Baru Tandiap","postcode":"02000","postOffice":"Kuala Perlis","state":"Perlis"},{"no":"163","location":"Kampung Baru Tok Kuning","postcode":"02000","postOffice":"Kuala Perlis","state":"Perlis"},{"no":"164","location":"Kampung Batas Lentang","postcode":"02700","postOffice":"Simpang Ampat","state":"Perlis"},{"no":"165","location":"Kampung Batas Liku","postcode":"02600","postOffice":"Arau","state":"Perlis"},{"no":"166","location":"Kampung Batu 3.5 (Jalan Kaki Bukit)","postcode":"01000","postOffice":"Kangar","state":"Perlis"},{"no":"167","location":"Kampung Batu Bertangkup","postcode":"02400","postOffice":"Kangar","state":"Perlis"},{"no":"168","location":"Kampung Batu Buaya","postcode":"02000","postOffice":"Kuala Perlis","state":"Perlis"},{"no":"169","location":"Kampung Batu Hampar (Beseri)","postcode":"02400","postOffice":"Kangar","state":"Perlis"},{"no":"170","location":"Kampung Batu Lima","postcode":"02000","postOffice":"Kuala Perlis","state":"Perlis"},{"no":"171","location":"Kampung Batu Pahat","postcode":"01000","postOffice":"Kangar","state":"Perlis"},{"no":"172","location":"Kampung Behor Cicar","postcode":"01000","postOffice":"Kangar","state":"Perlis"},{"no":"173","location":"Kampung Behor Empiang","postcode":"01000","postOffice":"Kangar","state":"Perlis"},{"no":"174","location":"Kampung Behor Inai","postcode":"01000","postOffice":"Kangar","state":"Perlis"},{"no":"175","location":"Kampung Behor Janggus","postcode":"01000","postOffice":"Kangar","state":"Perlis"},{"no":"176","location":"Kampung Behor Kebal","postcode":"01000","postOffice":"Kangar","state":"Perlis"},{"no":"177","location":"Kampung Behor Kulit Kerang","postcode":"02400","postOffice":"Kangar","state":"Perlis"},{"no":"178","location":"Kampung Behor Lateh","postcode":"02000","postOffice":"Kuala Perlis","state":"Perlis"},{"no":"179","location":"Kampung Behor Madi","postcode":"02400","postOffice":"Kangar","state":"Perlis"},{"no":"180","location":"Kampung Behor Pulai","postcode":"01000","postOffice":"Kangar","state":"Perlis"},{"no":"181","location":"Kampung Behor Temak","postcode":"01000","postOffice":"Kangar","state":"Perlis"},{"no":"182","location":"Kampung Belakang Kilang","postcode":"02000","postOffice":"Kuala Perlis","state":"Perlis"},{"no":"183","location":"Kampung Belangga Pudak","postcode":"01000","postOffice":"Kangar","state":"Perlis"},{"no":"184","location":"Kampung Belat Batu","postcode":"02600","postOffice":"Arau","state":"Perlis"},{"no":"185","location":"Kampung Belat Batu Beseri","postcode":"02400","postOffice":"Kangar","state":"Perlis"},{"no":"186","location":"Kampung Belat Raja","postcode":"02600","postOffice":"Arau","state":"Perlis"},{"no":"187","location":"Kampung Belat Santan","postcode":"01000","postOffice":"Kangar","state":"Perlis"},{"no":"188","location":"Kampung Belukar","postcode":"02600","postOffice":"Arau","state":"Perlis"},{"no":"189","location":"Kampung Belukar (Kangar)","postcode":"01000","postOffice":"Kangar","state":"Perlis"},{"no":"190","location":"Kampung Belukar (Mata Ayer)","postcode":"02500","postOffice":"Kangar","state":"Perlis"},{"no":"191","location":"Kampung Belukar Lengga","postcode":"02400","postOffice":"Kangar","state":"Perlis"},{"no":"192","location":"Kampung Belukar Lengga","postcode":"02450","postOffice":"Kangar","state":"Perlis"},{"no":"193","location":"Kampung Bendang Baru","postcode":"02700","postOffice":"Simpang Ampat","state":"Perlis"},{"no":"194","location":"Kampung Bendang Baru","postcode":"01000","postOffice":"Kangar","state":"Perlis"},{"no":"195","location":"Kampung Berjaya","postcode":"02700","postOffice":"Simpang Ampat","state":"Perlis"},{"no":"196","location":"Kampung Besar","postcode":"02000","postOffice":"Kuala Perlis","state":"Perlis"},{"no":"197","location":"Kampung Beseri Dalam","postcode":"02400","postOffice":"Kangar","state":"Perlis"},{"no":"198","location":"Kampung Beseri Jaya","postcode":"02400","postOffice":"Kangar","state":"Perlis"},{"no":"199","location":"Kampung Binjal","postcode":"01000","postOffice":"Kangar","state":"Perlis"},{"no":"200","location":"Kampung Bintong","postcode":"01000","postOffice":"Kangar","state":"Perlis"},{"no":"201","location":"Kampung Bohor Chichar","postcode":"01000","postOffice":"Kangar","state":"Perlis"},{"no":"202","location":"Kampung Bohor Gandil","postcode":"01000","postOffice":"Kangar","state":"Perlis"},{"no":"203","location":"Kampung Bohor Gelam","postcode":"01000","postOffice":"Kangar","state":"Perlis"},{"no":"204","location":"Kampung Bohor Goncar","postcode":"01000","postOffice":"Kangar","state":"Perlis"},{"no":"205","location":"Kampung Bohor Ibus","postcode":"02000","postOffice":"Kuala Perlis","state":"Perlis"},{"no":"206","location":"Kampung Bohor Inai","postcode":"01000","postOffice":"Kangar","state":"Perlis"},{"no":"207","location":"Kampung Bohor Lalang","postcode":"02700","postOffice":"Simpang Ampat","state":"Perlis"},{"no":"208","location":"Kampung Bohor Lateh","postcode":"02000","postOffice":"Kuala Perlis","state":"Perlis"},{"no":"209","location":"Kampung Bohor Luar","postcode":"02400","postOffice":"Kangar","state":"Perlis"},{"no":"210","location":"Kampung Bohor Mengkung","postcode":"02600","postOffice":"Arau","state":"Perlis"},{"no":"211","location":"Kampung Bohor Mentalun","postcode":"02600","postOffice":"Arau","state":"Perlis"},{"no":"212","location":"Kampung Bohor Mesjid","postcode":"02000","postOffice":"Kuala Perlis","state":"Perlis"},{"no":"213","location":"Kampung Bohor Rotan Pahit","postcode":"02000","postOffice":"Kuala Perlis","state":"Perlis"},{"no":"214","location":"Kampung Bohor Temak","postcode":"01000","postOffice":"Kangar","state":"Perlis"},{"no":"215","location":"Kampung Bohor Tui","postcode":"02000","postOffice":"Kuala Perlis","state":"Perlis"},{"no":"216","location":"Kampung Bonggor Kudong","postcode":"02700","postOffice":"Simpang Ampat","state":"Perlis"},{"no":"217","location":"Kampung Bongkok","postcode":"02400","postOffice":"Kangar","state":"Perlis"},{"no":"218","location":"Kampung Bukit Besi Hangit","postcode":"01000","postOffice":"Kangar","state":"Perlis"},{"no":"219","location":"Kampung Bukit Chabang","postcode":"02100","postOffice":"Padang Besar","state":"Perlis"},{"no":"220","location":"Kampung Bukit Chuping","postcode":"02500","postOffice":"Kangar","state":"Perlis"},{"no":"221","location":"Kampung Bukit Jernih","postcode":"02400","postOffice":"Kangar","state":"Perlis"},{"no":"222","location":"Kampung Bukit Jernih","postcode":"02450","postOffice":"Kangar","state":"Perlis"},{"no":"223","location":"Kampung Bukit Kecil","postcode":"01000","postOffice":"Kangar","state":"Perlis"},{"no":"224","location":"Kampung Bukit Kedak","postcode":"02400","postOffice":"Kangar","state":"Perlis"},{"no":"225","location":"Kampung Bukit Manek Barat","postcode":"02400","postOffice":"Kangar","state":"Perlis"},{"no":"226","location":"Kampung Bukit Merah","postcode":"02400","postOffice":"Kangar","state":"Perlis"},{"no":"227","location":"Kampung Bukit Merah Hilir","postcode":"02400","postOffice":"Kangar","state":"Perlis"},{"no":"228","location":"Kampung Bukit Merah Hulu","postcode":"02400","postOffice":"Kangar","state":"Perlis"},{"no":"229","location":"Kampung Bukit Papan","postcode":"02000","postOffice":"Kuala Perlis","state":"Perlis"},{"no":"230","location":"Kampung Bukit Temiang","postcode":"02400","postOffice":"Kangar","state":"Perlis"},{"no":"231","location":"Kampung Bunga Mas","postcode":"02700","postOffice":"Simpang Ampat","state":"Perlis"},{"no":"232","location":"Kampung Bunga Pudak","postcode":"01000","postOffice":"Kangar","state":"Perlis"},{"no":"233","location":"Kampung Changkat Jawi","postcode":"02600","postOffice":"Arau","state":"Perlis"},{"no":"234","location":"Kampung Changkat Kabu","postcode":"02600","postOffice":"Arau","state":"Perlis"},{"no":"235","location":"Kampung Changkat Lada","postcode":"02500","postOffice":"Kangar","state":"Perlis"},{"no":"236","location":"Kampung Chantek","postcode":"02100","postOffice":"Padang Besar","state":"Perlis"},{"no":"237","location":"Kampung Chantek Bangun","postcode":"02700","postOffice":"Simpang Ampat","state":"Perlis"},{"no":"238","location":"Kampung Che gu Ali","postcode":"02500","postOffice":"Kangar","state":"Perlis"},{"no":"239","location":"Kampung Che Ok","postcode":"02700","postOffice":"Simpang Ampat","state":"Perlis"},{"no":"240","location":"Kampung Chelong","postcode":"02500","postOffice":"Kangar","state":"Perlis"},{"no":"241","location":"Kampung Chemumar","postcode":"02700","postOffice":"Simpang Ampat","state":"Perlis"},{"no":"242","location":"Kampung Chermai","postcode":"02600","postOffice":"Arau","state":"Perlis"},{"no":"243","location":"Kampung Chichak Terbelit","postcode":"02400","postOffice":"Kangar","state":"Perlis"},{"no":"244","location":"Kampung Chuping","postcode":"02500","postOffice":"Kangar","state":"Perlis"},{"no":"245","location":"Kampung Dagang","postcode":"01000","postOffice":"Kangar","state":"Perlis"},{"no":"246","location":"Kampung Darat","postcode":"02400","postOffice":"Kangar","state":"Perlis"},{"no":"247","location":"Kampung Darat Selatan","postcode":"02400","postOffice":"Kangar","state":"Perlis"},{"no":"248","location":"Kampung Dasri","postcode":"01000","postOffice":"Kangar","state":"Perlis"},{"no":"249","location":"Kampung Datuk","postcode":"01000","postOffice":"Kangar","state":"Perlis"},{"no":"250","location":"Kampung Datuk Sheikh Ahmad","postcode":"02400","postOffice":"Kangar","state":"Perlis"},{"no":"251","location":"Kampung Guar Gajah","postcode":"02600","postOffice":"Arau","state":"Perlis"},{"no":"252","location":"Kampung Guar Halban","postcode":"02500","postOffice":"Kangar","state":"Perlis"},{"no":"253","location":"Kampung Guar Jentek","postcode":"02400","postOffice":"Kangar","state":"Perlis"},{"no":"254","location":"Kampung Guar Medan Gatal","postcode":"02400","postOffice":"Kangar","state":"Perlis"},{"no":"255","location":"Kampung Guar Musang","postcode":"02500","postOffice":"Kangar","state":"Perlis"},{"no":"256","location":"Kampung Guar Nangka","postcode":"02500","postOffice":"Kangar","state":"Perlis"},{"no":"257","location":"Kampung Guar Sanai","postcode":"02400","postOffice":"Kangar","state":"Perlis"},{"no":"258","location":"Kampung Guar Syed Alwi","postcode":"01000","postOffice":"Kangar","state":"Perlis"},{"no":"259","location":"Kampung Guar Tinggi (Titi Tinggi)","postcode":"02100","postOffice":"Padang Besar","state":"Perlis"},{"no":"260","location":"Kampung Guar Ujung Batu","postcode":"01000","postOffice":"Kangar","state":"Perlis"},{"no":"261","location":"Kampung Gunong","postcode":"01000","postOffice":"Kangar","state":"Perlis"},{"no":"262","location":"Kampung Guring","postcode":"02600","postOffice":"Arau","state":"Perlis"},{"no":"263","location":"Kampung Guru","postcode":"01000","postOffice":"Kangar","state":"Perlis"},{"no":"264","location":"Kampung Haji Daud","postcode":"01000","postOffice":"Kangar","state":"Perlis"},{"no":"265","location":"Kampung Hujung Tanjung","postcode":"02000","postOffice":"Kuala Perlis","state":"Perlis"},{"no":"266","location":"Kampung Hutan Buluh","postcode":"01000","postOffice":"Kangar","state":"Perlis"},{"no":"267","location":"Kampung Hutan Kandis","postcode":"02600","postOffice":"Arau","state":"Perlis"},{"no":"268","location":"Kampung Hutan Lembah","postcode":"02500","postOffice":"Kangar","state":"Perlis"},{"no":"269","location":"Kampung Hutan Melintang","postcode":"01000","postOffice":"Kangar","state":"Perlis"},{"no":"270","location":"Kampung Hutan Temin","postcode":"02500","postOffice":"Kangar","state":"Perlis"},{"no":"271","location":"Kampung Jarak","postcode":"01000","postOffice":"Kangar","state":"Perlis"},{"no":"272","location":"Kampung Jawi Endol","postcode":"02700","postOffice":"Simpang Ampat","state":"Perlis"},{"no":"273","location":"Kampung Jejawi Dalam","postcode":"01000","postOffice":"Kangar","state":"Perlis"},{"no":"274","location":"Kampung Jejawi Sematang","postcode":"01000","postOffice":"Kangar","state":"Perlis"},{"no":"275","location":"Kampung Jelempok","postcode":"02600","postOffice":"Arau","state":"Perlis"},{"no":"276","location":"Kampung Katong","postcode":"02600","postOffice":"Arau","state":"Perlis"},{"no":"277","location":"Kampung Kechor","postcode":"01000","postOffice":"Kangar","state":"Perlis"},{"no":"278","location":"Kampung Kelang Beseri","postcode":"02400","postOffice":"Kangar","state":"Perlis"},{"no":"279","location":"Kampung Kenangan","postcode":"02700","postOffice":"Simpang Ampat","state":"Perlis"},{"no":"280","location":"Kampung Kepala Batas Dato Kaya","postcode":"02450","postOffice":"Kangar","state":"Perlis"},{"no":"281","location":"Kampung Kepala Batas Dato Kayaman","postcode":"02400","postOffice":"Kangar","state":"Perlis"},{"no":"282","location":"Kampung Kepala Batas Pauh","postcode":"02800","postOffice":"Simpang Ampat","state":"Perlis"},{"no":"283","location":"Kampung Keranji","postcode":"01000","postOffice":"Kangar","state":"Perlis"},{"no":"284","location":"Kampung Kerbau Belaga","postcode":"02800","postOffice":"Simpang Ampat","state":"Perlis"},{"no":"285","location":"Kampung Kersek (Kangar)","postcode":"02500","postOffice":"Kangar","state":"Perlis"},{"no":"286","location":"Kampung Kersek (Mata Ayer)","postcode":"02500","postOffice":"Kangar","state":"Perlis"},{"no":"287","location":"Kampung Kok Mak","postcode":"02100","postOffice":"Padang Besar","state":"Perlis"},{"no":"288","location":"Kampung Kolam","postcode":"02100","postOffice":"Padang Besar","state":"Perlis"},{"no":"289","location":"Kampung Kolam Raja","postcode":"02000","postOffice":"Kuala Perlis","state":"Perlis"},{"no":"290","location":"Kampung Kota","postcode":"01000","postOffice":"Kangar","state":"Perlis"},{"no":"291","location":"Kampung Kota Kayang","postcode":"02000","postOffice":"Kuala Perlis","state":"Perlis"},{"no":"292","location":"Kampung Kota Keran","postcode":"01000","postOffice":"Kangar","state":"Perlis"},{"no":"293","location":"Kampung Kota Ulu","postcode":"01000","postOffice":"Kangar","state":"Perlis"},{"no":"294","location":"Kampung Kuala","postcode":"02000","postOffice":"Kuala Perlis","state":"Perlis"},{"no":"295","location":"Kampung Kuala Tunggang","postcode":"02600","postOffice":"Arau","state":"Perlis"},{"no":"296","location":"Kampung Kubang Arang","postcode":"01000","postOffice":"Kangar","state":"Perlis"},{"no":"297","location":"Kampung Kubang Badak","postcode":"01000","postOffice":"Kangar","state":"Perlis"},{"no":"298","location":"Kampung Kubang Cekuang","postcode":"01000","postOffice":"Kangar","state":"Perlis"},{"no":"299","location":"Kampung Kubang Gajah","postcode":"01000","postOffice":"Kangar","state":"Perlis"},{"no":"300","location":"Kampung Kubang Jeliti","postcode":"02400","postOffice":"Kangar","state":"Perlis"},{"no":"311","location":"Kampung Lin","postcode":"01000","postOffice":"Kangar","state":"Perlis"},{"no":"312","location":"Kampung Long Boh","postcode":"02700","postOffice":"Simpang Ampat","state":"Perlis"},{"no":"313","location":"Kampung Lubok Batu","postcode":"02400","postOffice":"Kangar","state":"Perlis"},{"no":"314","location":"Kampung Lubok Gajah","postcode":"02400","postOffice":"Kangar","state":"Perlis"},{"no":"315","location":"Kampung Lubok Hitam Manis","postcode":"02400","postOffice":"Kangar","state":"Perlis"},{"no":"316","location":"Kampung Lubuk Machang","postcode":"02400","postOffice":"Kangar","state":"Perlis"},{"no":"317","location":"Kampung Masjid","postcode":"02100","postOffice":"Padang Besar","state":"Perlis"},{"no":"318","location":"Kampung Masjid (Beseri)","postcode":"02450","postOffice":"Kangar","state":"Perlis"},{"no":"319","location":"Kampung Masjid (Kangar)","postcode":"01000","postOffice":"Kangar","state":"Perlis"},{"no":"320","location":"Kampung Masjid Beseri","postcode":"02400","postOffice":"Kangar","state":"Perlis"},{"no":"321","location":"Kampung Matang Keriang","postcode":"02800","postOffice":"Simpang Ampat","state":"Perlis"},{"no":"322","location":"Kampung Matang Kersek","postcode":"02700","postOffice":"Simpang Ampat","state":"Perlis"},{"no":"323","location":"Kampung Melayu","postcode":"02100","postOffice":"Padang Besar","state":"Perlis"},{"no":"324","location":"Kampung Melintang","postcode":"02700","postOffice":"Simpang Ampat","state":"Perlis"},{"no":"325","location":"Kampung Mempelas","postcode":"02400","postOffice":"Kangar","state":"Perlis"},{"no":"326","location":"Kampung Mengkuang Layar","postcode":"01000","postOffice":"Kangar","state":"Perlis"},{"no":"327","location":"Kampung Mua","postcode":"02700","postOffice":"Simpang Ampat","state":"Perlis"},{"no":"328","location":"Kampung Nelayan","postcode":"02000","postOffice":"Kuala Perlis","state":"Perlis"},{"no":"329","location":"Kampung Ngulang","postcode":"02400","postOffice":"Kangar","state":"Perlis"},{"no":"330","location":"Kampung Nissam","postcode":"01000","postOffice":"Kangar","state":"Perlis"},{"no":"331","location":"Kampung Nyak Adam","postcode":"01000","postOffice":"Kangar","state":"Perlis"},{"no":"332","location":"Kampung Oran","postcode":"02500","postOffice":"Kangar","state":"Perlis"},{"no":"333","location":"Kampung Padang Behor","postcode":"01000","postOffice":"Kangar","state":"Perlis"},{"no":"334","location":"Kampung Padang Benta","postcode":"02700","postOffice":"Simpang Ampat","state":"Perlis"},{"no":"335","location":"Kampung Padang Besar Selatan","postcode":"02000","postOffice":"Kuala Perlis","state":"Perlis"},{"no":"336","location":"Kampung Padang Biak","postcode":"02600","postOffice":"Arau","state":"Perlis"},{"no":"337","location":"Kampung Padang Cina","postcode":"02000","postOffice":"Kuala Perlis","state":"Perlis"},{"no":"338","location":"Kampung Padang Gelam","postcode":"02400","postOffice":"Kangar","state":"Perlis"},{"no":"339","location":"Kampung Padang Gelam","postcode":"02800","postOffice":"Simpang Ampat","state":"Perlis"},{"no":"340","location":"Kampung Padang Gelam","postcode":"02450","postOffice":"Kangar","state":"Perlis"},{"no":"341","location":"Kampung Padang Jamil","postcode":"02000","postOffice":"Kuala Perlis","state":"Perlis"},{"no":"342","location":"Kampung Padang Jawa Seriab","postcode":"01000","postOffice":"Kangar","state":"Perlis"},{"no":"343","location":"Kampung Padang Jelutong","postcode":"02400","postOffice":"Kangar","state":"Perlis"},{"no":"344","location":"Kampung Padang Jelutong","postcode":"02450","postOffice":"Kangar","state":"Perlis"},{"no":"345","location":"Kampung Padang Katong","postcode":"01000","postOffice":"Kangar","state":"Perlis"},{"no":"346","location":"Kampung Padang Kedepiang","postcode":"01000","postOffice":"Kangar","state":"Perlis"},{"no":"347","location":"Kampung Padang Keria","postcode":"02800","postOffice":"Simpang Ampat","state":"Perlis"},{"no":"348","location":"Kampung Padang Lati","postcode":"02400","postOffice":"Kangar","state":"Perlis"},{"no":"349","location":"Kampung Padang Machang","postcode":"01000","postOffice":"Kangar","state":"Perlis"},{"no":"350","location":"Kampung Padang Malau","postcode":"02400","postOffice":"Kangar","state":"Perlis"},{"no":"351","location":"Kampung Padang Mawa","postcode":"02100","postOffice":"Padang Besar","state":"Perlis"},{"no":"352","location":"Kampung Padang Melangit","postcode":"02400","postOffice":"Kangar","state":"Perlis"},{"no":"353","location":"Kampung Padang Nyaring","postcode":"01000","postOffice":"Kangar","state":"Perlis"},{"no":"354","location":"Kampung Padang Nyu","postcode":"02500","postOffice":"Kangar","state":"Perlis"},{"no":"355","location":"Kampung Padang Pauh","postcode":"01000","postOffice":"Kangar","state":"Perlis"},{"no":"356","location":"Kampung Padang Petani","postcode":"01000","postOffice":"Kangar","state":"Perlis"},{"no":"357","location":"Kampung Padang Petani","postcode":"02700","postOffice":"Simpang Ampat","state":"Perlis"},{"no":"358","location":"Kampung Padang Seberang","postcode":"01000","postOffice":"Kangar","state":"Perlis"},{"no":"359","location":"Kampung Padang Siding","postcode":"02600","postOffice":"Arau","state":"Perlis"},{"no":"360","location":"Kampung Padang Telela","postcode":"02600","postOffice":"Arau","state":"Perlis"},{"no":"361","location":"Kampung Pak Lengah","postcode":"02000","postOffice":"Kuala Perlis","state":"Perlis"},{"no":"362","location":"Kampung Paloh","postcode":"02600","postOffice":"Arau","state":"Perlis"},{"no":"363","location":"Kampung Panggas","postcode":"02500","postOffice":"Kangar","state":"Perlis"},{"no":"364","location":"Kampung Panggas Besar","postcode":"02500","postOffice":"Kangar","state":"Perlis"},{"no":"365","location":"Kampung Panggas Kechil","postcode":"02500","postOffice":"Kangar","state":"Perlis"},{"no":"366","location":"Kampung Panggau","postcode":"01000","postOffice":"Kangar","state":"Perlis"},{"no":"367","location":"Kampung Parit Jari","postcode":"01000","postOffice":"Kangar","state":"Perlis"},{"no":"368","location":"Kampung Pauh","postcode":"02600","postOffice":"Arau","state":"Perlis"},{"no":"369","location":"Kampung Pauh Tiga Beradek","postcode":"02700","postOffice":"Simpang Ampat","state":"Perlis"},{"no":"370","location":"Kampung Paya","postcode":"02400","postOffice":"Kangar","state":"Perlis"},{"no":"371","location":"Kampung Paya Burma","postcode":"02500","postOffice":"Kangar","state":"Perlis"},{"no":"372","location":"Kampung Paya Kelubi","postcode":"02400","postOffice":"Kangar","state":"Perlis"},{"no":"373","location":"Kampung Paya Kelubi","postcode":"02450","postOffice":"Kangar","state":"Perlis"},{"no":"374","location":"Kampung Paya Senduk","postcode":"02400","postOffice":"Kangar","state":"Perlis"},{"no":"375","location":"Kampung Paya Ulu","postcode":"02400","postOffice":"Kangar","state":"Perlis"},{"no":"376","location":"Kampung Peladang","postcode":"02000","postOffice":"Kuala Perlis","state":"Perlis"},{"no":"377","location":"Kampung Penghulu Bakar","postcode":"01000","postOffice":"Kangar","state":"Perlis"},{"no":"378","location":"Kampung Penghulu Jaafar","postcode":"02400","postOffice":"Kangar","state":"Perlis"},{"no":"379","location":"Kampung Pengkalan Asam","postcode":"01000","postOffice":"Kangar","state":"Perlis"},{"no":"380","location":"Kampung Perak","postcode":"02000","postOffice":"Kuala Perlis","state":"Perlis"},{"no":"381","location":"Kampung Perawah","postcode":"02400","postOffice":"Kangar","state":"Perlis"},{"no":"382","location":"Kampung Perawah","postcode":"02450","postOffice":"Kangar","state":"Perlis"},{"no":"383","location":"Kampung Perik","postcode":"02500","postOffice":"Kangar","state":"Perlis"},{"no":"384","location":"Kampung Permatang Bongor","postcode":"02700","postOffice":"Simpang Ampat","state":"Perlis"},{"no":"385","location":"Kampung Permatang Limau Manis","postcode":"02700","postOffice":"Simpang Ampat","state":"Perlis"},{"no":"386","location":"Kampung Permatang Pauh","postcode":"02700","postOffice":"Simpang Ampat","state":"Perlis"},{"no":"387","location":"Kampung Permatang Pelangu","postcode":"02800","postOffice":"Simpang Ampat","state":"Perlis"},{"no":"388","location":"Kampung Peseri","postcode":"01000","postOffice":"Kangar","state":"Perlis"},{"no":"389","location":"Kampung Petai","postcode":"01000","postOffice":"Kangar","state":"Perlis"},{"no":"390","location":"Kampung Petai Hilir","postcode":"01000","postOffice":"Kangar","state":"Perlis"},{"no":"391","location":"Kampung Pida 3 Lama","postcode":"02600","postOffice":"Arau","state":"Perlis"},{"no":"392","location":"Kampung Pokok Asam","postcode":"02000","postOffice":"Kuala Perlis","state":"Perlis"},{"no":"393","location":"Kampung Pokok Jawi","postcode":"01000","postOffice":"Kangar","state":"Perlis"},{"no":"394","location":"Kampung Pokok Petai","postcode":"02500","postOffice":"Kangar","state":"Perlis"},{"no":"395","location":"Kampung Pokok Sena","postcode":"02500","postOffice":"Kangar","state":"Perlis"},{"no":"396","location":"Kampung Pondok","postcode":"01000","postOffice":"Kangar","state":"Perlis"},{"no":"397","location":"Kampung Puju","postcode":"02000","postOffice":"Kuala Perlis","state":"Perlis"},{"no":"398","location":"Kampung Pulau","postcode":"02000","postOffice":"Kuala Perlis","state":"Perlis"},{"no":"399","location":"Kampung Pulau","postcode":"01000","postOffice":"Kangar","state":"Perlis"},{"no":"400","location":"Kampung Pulau","postcode":"02700","postOffice":"Simpang Ampat","state":"Perlis"},{"no":"401","location":"Kampung Pulau Ketam","postcode":"02000","postOffice":"Kuala Perlis","state":"Perlis"},{"no":"402","location":"Kampung Pulau Pichai","postcode":"02600","postOffice":"Arau","state":"Perlis"},{"no":"403","location":"Kampung Raja Conggah","postcode":"02400","postOffice":"Kangar","state":"Perlis"},{"no":"404","location":"Kampung Rama","postcode":"02800","postOffice":"Simpang Ampat","state":"Perlis"},{"no":"405","location":"Kampung Repoh","postcode":"01000","postOffice":"Kangar","state":"Perlis"},{"no":"406","location":"Kampung Repoh Dagang","postcode":"01000","postOffice":"Kangar","state":"Perlis"},{"no":"407","location":"Kampung Sahabat","postcode":"02100","postOffice":"Padang Besar","state":"Perlis"},{"no":"408","location":"Kampung Saikla","postcode":"02500","postOffice":"Kangar","state":"Perlis"},{"no":"409","location":"Kampung Salang","postcode":"01000","postOffice":"Kangar","state":"Perlis"},{"no":"410","location":"Kampung Santan","postcode":"01000","postOffice":"Kangar","state":"Perlis"},{"no":"411","location":"Kampung Santan Aur","postcode":"01000","postOffice":"Kangar","state":"Perlis"},{"no":"412","location":"Kampung Santan Belat","postcode":"01000","postOffice":"Kangar","state":"Perlis"},{"no":"413","location":"Kampung Santan Enam","postcode":"01000","postOffice":"Kangar","state":"Perlis"},{"no":"414","location":"Kampung Santan Masjid","postcode":"01000","postOffice":"Kangar","state":"Perlis"},{"no":"415","location":"Kampung Seberang Alor","postcode":"02000","postOffice":"Kuala Perlis","state":"Perlis"},{"no":"416","location":"Kampung Seberang Jaya","postcode":"02000","postOffice":"Kuala Perlis","state":"Perlis"},{"no":"417","location":"Kampung Seberang Tok PI","postcode":"02000","postOffice":"Kuala Perlis","state":"Perlis"},{"no":"418","location":"Kampung Semadong","postcode":"02400","postOffice":"Kangar","state":"Perlis"},{"no":"419","location":"Kampung Sematang Serdang","postcode":"02700","postOffice":"Simpang Ampat","state":"Perlis"},{"no":"420","location":"Kampung Sempering","postcode":"01000","postOffice":"Kangar","state":"Perlis"},{"no":"421","location":"Kampung Sena","postcode":"01000","postOffice":"Kangar","state":"Perlis"},{"no":"422","location":"Kampung Sena","postcode":"02100","postOffice":"Padang Besar","state":"Perlis"},{"no":"423","location":"Kampung Sena","postcode":"02600","postOffice":"Arau","state":"Perlis"},{"no":"424","location":"Kampung Sena Rendang","postcode":"02400","postOffice":"Kangar","state":"Perlis"},{"no":"425","location":"Kampung Sena Sematang","postcode":"01000","postOffice":"Kangar","state":"Perlis"},{"no":"426","location":"Kampung Sentang","postcode":"01000","postOffice":"Kangar","state":"Perlis"},{"no":"427","location":"Kampung Sentua","postcode":"01000","postOffice":"Kangar","state":"Perlis"},{"no":"428","location":"Kampung Serdang","postcode":"02700","postOffice":"Simpang Ampat","state":"Perlis"},{"no":"429","location":"Kampung Seriab","postcode":"01000","postOffice":"Kangar","state":"Perlis"},{"no":"430","location":"Kampung Simpang 3 Kilang Gula","postcode":"02400","postOffice":"Kangar","state":"Perlis"},{"no":"431","location":"Kampung Simpang 3 Panggas","postcode":"02400","postOffice":"Kangar","state":"Perlis"},{"no":"432","location":"Kampung Simpang Geti","postcode":"02500","postOffice":"Kangar","state":"Perlis"},{"no":"433","location":"Kampung Simpang Sanglang","postcode":"02800","postOffice":"Simpang Ampat","state":"Perlis"},{"no":"434","location":"Kampung Songla","postcode":"02450","postOffice":"Kangar","state":"Perlis"},{"no":"435","location":"Kampung Songla","postcode":"02400","postOffice":"Kangar","state":"Perlis"},{"no":"436","location":"Kampung Stesen","postcode":"02600","postOffice":"Arau","state":"Perlis"},{"no":"437","location":"Kampung Sungai Bakong","postcode":"01000","postOffice":"Kangar","state":"Perlis"},{"no":"438","location":"Kampung Sungai Baru","postcode":"01000","postOffice":"Kangar","state":"Perlis"},{"no":"439","location":"Kampung Sungai Baru","postcode":"02700","postOffice":"Simpang Ampat","state":"Perlis"},{"no":"440","location":"Kampung Sungai Belati","postcode":"02700","postOffice":"Simpang Ampat","state":"Perlis"},{"no":"441","location":"Kampung Sungai Bugis","postcode":"02700","postOffice":"Simpang Ampat","state":"Perlis"},{"no":"442","location":"Kampung Sungai Buloh","postcode":"02450","postOffice":"Kangar","state":"Perlis"},{"no":"443","location":"Kampung Sungai Buloh","postcode":"02400","postOffice":"Kangar","state":"Perlis"},{"no":"444","location":"Kampung Sungai Chuchuh","postcode":"02100","postOffice":"Padang Besar","state":"Perlis"},{"no":"445","location":"Kampung Sungai Jerneh","postcode":"02400","postOffice":"Kangar","state":"Perlis"},{"no":"446","location":"Kampung Sungai Mati","postcode":"02500","postOffice":"Kangar","state":"Perlis"},{"no":"447","location":"Kampung Sungai Mati","postcode":"02000","postOffice":"Kuala Perlis","state":"Perlis"},{"no":"448","location":"Kampung Sungai Padang","postcode":"02700","postOffice":"Simpang Ampat","state":"Perlis"},{"no":"449","location":"Kampung Sungai Paya","postcode":"02400","postOffice":"Kangar","state":"Perlis"},{"no":"450","location":"Kampung Sungai Santan","postcode":"01000","postOffice":"Kangar","state":"Perlis"},{"no":"451","location":"Kampung Sungai Serai","postcode":"02400","postOffice":"Kangar","state":"Perlis"},{"no":"452","location":"Kampung Sungai Siran","postcode":"01000","postOffice":"Kangar","state":"Perlis"},{"no":"453","location":"Kampung Surau","postcode":"01000","postOffice":"Kangar","state":"Perlis"},{"no":"454","location":"Kampung Syed Abdan","postcode":"02100","postOffice":"Padang Besar","state":"Perlis"},{"no":"455","location":"Kampung Syed Umar","postcode":"01000","postOffice":"Kangar","state":"Perlis"},{"no":"456","location":"Kampung Tambun Tulang","postcode":"02600","postOffice":"Arau","state":"Perlis"},{"no":"457","location":"Kampung Tanah Timbul","postcode":"02800","postOffice":"Simpang Ampat","state":"Perlis"},{"no":"458","location":"Kampung Tandiap","postcode":"02000","postOffice":"Kuala Perlis","state":"Perlis"},{"no":"459","location":"Kampung Tanjong","postcode":"02400","postOffice":"Kangar","state":"Perlis"},{"no":"460","location":"Kampung Tanjung","postcode":"01000","postOffice":"Kangar","state":"Perlis"},{"no":"461","location":"Kampung Tanjung Buluh","postcode":"01000","postOffice":"Kangar","state":"Perlis"},{"no":"462","location":"Kampung Tanjung Gelam","postcode":"02000","postOffice":"Kuala Perlis","state":"Perlis"},{"no":"463","location":"Kampung Tanjung Gorah","postcode":"01000","postOffice":"Kangar","state":"Perlis"},{"no":"464","location":"Kampung Tanjung Sila","postcode":"01000","postOffice":"Kangar","state":"Perlis"},{"no":"465","location":"Kampung Tassoh","postcode":"02200","postOffice":"Kaki Bukit","state":"Perlis"},{"no":"466","location":"Kampung Tebing Tinggi","postcode":"01000","postOffice":"Kangar","state":"Perlis"},{"no":"467","location":"Kampung Tebuk","postcode":"02700","postOffice":"Simpang Ampat","state":"Perlis"},{"no":"468","location":"Kampung Telaga Haji Latif","postcode":"02600","postOffice":"Arau","state":"Perlis"},{"no":"469","location":"Kampung Telaga Idi","postcode":"01000","postOffice":"Kangar","state":"Perlis"},{"no":"470","location":"Kampung Telaga Nyiur Manis","postcode":"01000","postOffice":"Kangar","state":"Perlis"},{"no":"471","location":"Kampung Telok","postcode":"02000","postOffice":"Kuala Perlis","state":"Perlis"},{"no":"472","location":"Kampung Telok","postcode":"02600","postOffice":"Arau","state":"Perlis"},{"no":"473","location":"Kampung Telok Epa","postcode":"01000","postOffice":"Kangar","state":"Perlis"},{"no":"474","location":"Kampung Telok Gelam","postcode":"01000","postOffice":"Kangar","state":"Perlis"},{"no":"475","location":"Kampung Telok Jambu","postcode":"01000","postOffice":"Kangar","state":"Perlis"},{"no":"476","location":"Kampung Telok Kacang","postcode":"01000","postOffice":"Kangar","state":"Perlis"},{"no":"477","location":"Kampung Telok Tui","postcode":"01000","postOffice":"Kangar","state":"Perlis"},{"no":"478","location":"Kampung Temak","postcode":"01000","postOffice":"Kangar","state":"Perlis"},{"no":"479","location":"Kampung Tengah","postcode":"02000","postOffice":"Kuala Perlis","state":"Perlis"},{"no":"480","location":"Kampung Tengah Abi","postcode":"01000","postOffice":"Kangar","state":"Perlis"},{"no":"481","location":"Kampung Tengah Bohor Lateh","postcode":"02000","postOffice":"Kuala Perlis","state":"Perlis"},{"no":"482","location":"Kampung Terus Teritip","postcode":"02000","postOffice":"Kuala Perlis","state":"Perlis"},{"no":"483","location":"Kampung Titi Beratap","postcode":"02700","postOffice":"Simpang Ampat","state":"Perlis"},{"no":"484","location":"Kampung Titi Besi","postcode":"02600","postOffice":"Arau","state":"Perlis"},{"no":"485","location":"Kampung Titi Serong","postcode":"02000","postOffice":"Kuala Perlis","state":"Perlis"},{"no":"486","location":"Kampung Titi Tampang","postcode":"02400","postOffice":"Kangar","state":"Perlis"},{"no":"487","location":"Kampung Titi Teras","postcode":"01000","postOffice":"Kangar","state":"Perlis"},{"no":"488","location":"Kampung Titi Tinggi","postcode":"02100","postOffice":"Padang Besar","state":"Perlis"},{"no":"489","location":"Kampung Titi Tinggi Hilir","postcode":"02100","postOffice":"Padang Besar","state":"Perlis"},{"no":"490","location":"Kampung Titi Tinggi Ulu","postcode":"02100","postOffice":"Padang Besar","state":"Perlis"},{"no":"491","location":"Kampung Titi Tok Bandar","postcode":"01000","postOffice":"Kangar","state":"Perlis"},{"no":"492","location":"Kampung Tok Dewa","postcode":"01000","postOffice":"Kangar","state":"Perlis"},{"no":"493","location":"Kampung Tok Gong","postcode":"01000","postOffice":"Kangar","state":"Perlis"},{"no":"494","location":"Kampung Tok Jawa","postcode":"01000","postOffice":"Kangar","state":"Perlis"},{"no":"495","location":"Kampung Tok Jepun","postcode":"01000","postOffice":"Kangar","state":"Perlis"},{"no":"496","location":"Kampung Tok Kandang","postcode":"01000","postOffice":"Kangar","state":"Perlis"},{"no":"497","location":"Kampung Tok Kaya","postcode":"02000","postOffice":"Kuala Perlis","state":"Perlis"},{"no":"498","location":"Kampung Tok Kembong","postcode":"01000","postOffice":"Kangar","state":"Perlis"},{"no":"499","location":"Kampung Tok Kuning","postcode":"02000","postOffice":"Kuala Perlis","state":"Perlis"},{"no":"500","location":"Kampung Tok Larak","postcode":"01000","postOffice":"Kangar","state":"Perlis"},{"no":"501","location":"Kampung Tok Peduka","postcode":"01000","postOffice":"Kangar","state":"Perlis"},{"no":"502","location":"Kampung Tok Pong","postcode":"01000","postOffice":"Kangar","state":"Perlis"},{"no":"503","location":"Kampung Tok Pulau","postcode":"02700","postOffice":"Simpang Ampat","state":"Perlis"},{"no":"504","location":"Kampung Tok Sumbing","postcode":"01000","postOffice":"Kangar","state":"Perlis"},{"no":"505","location":"Kampung Tok Wan Nik","postcode":"02100","postOffice":"Padang Besar","state":"Perlis"},{"no":"506","location":"Kampung Tunjong Beseri","postcode":"02400","postOffice":"Kangar","state":"Perlis"},{"no":"507","location":"Kampung Ujung Bukit","postcode":"01000","postOffice":"Kangar","state":"Perlis"},{"no":"508","location":"Kampung Ulu Pauh","postcode":"02600","postOffice":"Arau","state":"Perlis"},{"no":"509","location":"Kampung Utan Aji","postcode":"01000","postOffice":"Kangar","state":"Perlis"},{"no":"510","location":"Kampung Utan Ibus","postcode":"02000","postOffice":"Kuala Perlis","state":"Perlis"},{"no":"521","location":"Kangar","postcode":"01000","postOffice":"Kangar","state":"Perlis"},{"no":"522","location":"Kangar - Beg berkunci","postcode":"01009","postOffice":"Kangar","state":"Perlis"},{"no":"523","location":"Kangar - Peti surat","postcode":"01007","postOffice":"Kangar","state":"Perlis"},{"no":"524","location":"Kawasan Perindustrian Kuala Perlis","postcode":"02000","postOffice":"Kuala Perlis","state":"Perlis"},{"no":"525","location":"Ketua Polis Negeri","postcode":"01560","postOffice":"Kangar","state":"Perlis"},{"no":"526","location":"Kilang Gula","postcode":"02400","postOffice":"Kangar","state":"Perlis"},{"no":"527","location":"Kok Klang","postcode":"02500","postOffice":"Kangar","state":"Perlis"},{"no":"528","location":"Kuala Perlis","postcode":"02000","postOffice":"Kuala Perlis","state":"Perlis"},{"no":"529","location":"Kubang Arang","postcode":"01000","postOffice":"Kangar","state":"Perlis"},{"no":"530","location":"Kumpulan Wang Simpanan Pekerja","postcode":"01598","postOffice":"Kangar","state":"Perlis"},{"no":"531","location":"Lembaga Hasil Dalam Negeri","postcode":"01600","postOffice":"Kangar","state":"Perlis"},{"no":"532","location":"Lembaga Pertubuhan Peladang","postcode":"02400","postOffice":"Kangar","state":"Perlis"},{"no":"533","location":"Lembaga Tembakau Negara","postcode":"02400","postOffice":"Kangar","state":"Perlis"},{"no":"534","location":"Lorong Haji Seman","postcode":"01000","postOffice":"Kangar","state":"Perlis"},{"no":"535","location":"Lorong Kampung Sena","postcode":"01000","postOffice":"Kangar","state":"Perlis"},{"no":"536","location":"Lorong Nisam","postcode":"01000","postOffice":"Kangar","state":"Perlis"},{"no":"537","location":"Lorong Sekolah","postcode":"01000","postOffice":"Kangar","state":"Perlis"},{"no":"538","location":"Lubuk Besar","postcode":"02400","postOffice":"Kangar","state":"Perlis"},{"no":"539","location":"Lubuk Besar","postcode":"02500","postOffice":"Kangar","state":"Perlis"},{"no":"540","location":"Lukuk Gajah","postcode":"01000","postOffice":"Kangar","state":"Perlis"},{"no":"541","location":"Mahkamah Sesyen","postcode":"01506","postOffice":"Kangar","state":"Perlis"},{"no":"542","location":"Mahkamah Tinggi","postcode":"01506","postOffice":"Kangar","state":"Perlis"},{"no":"543","location":"Majlis Perbandaran Kangar","postcode":"01644","postOffice":"Kangar","state":"Perlis"},{"no":"544","location":"Maktab Rendah Sains Mara","postcode":"02400","postOffice":"Kangar","state":"Perlis"},{"no":"545","location":"Mata Ayer","postcode":"02500","postOffice":"Kangar","state":"Perlis"},{"no":"546","location":"Mengkuang Layar","postcode":"01000","postOffice":"Kangar","state":"Perlis"},{"no":"547","location":"Padang Besar","postcode":"02100","postOffice":"Padang Besar","state":"Perlis"},{"no":"548","location":"Padang Bohor","postcode":"01000","postOffice":"Kangar","state":"Perlis"},{"no":"549","location":"Panglima Markas 12 Briged","postcode":"01634","postOffice":"Kangar","state":"Perlis"},{"no":"550","location":"Pauh","postcode":"02600","postOffice":"Arau","state":"Perlis"},{"no":"551","location":"Paya Pauh Gembol","postcode":"02400","postOffice":"Kangar","state":"Perlis"},{"no":"552","location":"Pegawai Kemajuan Negeri","postcode":"01674","postOffice":"Kangar","state":"Perlis"},{"no":"553","location":"Pegawai Kewangan Negeri","postcode":"01592","postOffice":"Kangar","state":"Perlis"},{"no":"554","location":"Pejabat Mara Negeri","postcode":"01609","postOffice":"Kangar","state":"Perlis"},{"no":"555","location":"Pejabat Rela Negeri","postcode":"01546","postOffice":"Kangar","state":"Perlis"},{"no":"556","location":"Penasihat Undang-Undang Negeri","postcode":"01512","postOffice":"Kangar","state":"Perlis"},{"no":"557","location":"Pengkalan Asam","postcode":"01000","postOffice":"Kangar","state":"Perlis"},{"no":"558","location":"Perpustakaan Awam Negeri","postcode":"01572","postOffice":"Kangar","state":"Perlis"},{"no":"559","location":"Persiaran Putra Timur 1","postcode":"02000","postOffice":"Kuala Perlis","state":"Perlis"},{"no":"560","location":"Perumahan Awam Bohor Lateh","postcode":"01000","postOffice":"Kangar","state":"Perlis"},{"no":"561","location":"Perumahan Awam Santan","postcode":"01000","postOffice":"Kangar","state":"Perlis"},{"no":"562","location":"Perumahan Kilang Gula","postcode":"02400","postOffice":"Kangar","state":"Perlis"},{"no":"563","location":"Perumahan Perlis Plantation","postcode":"02400","postOffice":"Kangar","state":"Perlis"},{"no":"564","location":"Pos Malaysia Berhad","postcode":"01670","postOffice":"Kangar","state":"Perlis"},{"no":"565","location":"PPRT Tok Kuning","postcode":"02000","postOffice":"Kuala Perlis","state":"Perlis"},{"no":"566","location":"Pusat Haiwan Bukit Temiang","postcode":"02400","postOffice":"Kangar","state":"Perlis"},{"no":"567","location":"Pusat Serenti Bukit Cabang","postcode":"02100","postOffice":"Padang Besar","state":"Perlis"},{"no":"568","location":"Rancangan Perumahan Awam 2 KPS","postcode":"02000","postOffice":"Kuala Perlis","state":"Perlis"},{"no":"569","location":"Rani Estate","postcode":"02600","postOffice":"Arau","state":"Perlis"},{"no":"570","location":"Repoh","postcode":"01000","postOffice":"Kangar","state":"Perlis"},{"no":"571","location":"RPA Batu 8","postcode":"02400","postOffice":"Kangar","state":"Perlis"},{"no":"572","location":"RPA Bukit Keteri","postcode":"02400","postOffice":"Kangar","state":"Perlis"},{"no":"573","location":"RPA Chuping","postcode":"02400","postOffice":"Kangar","state":"Perlis"},{"no":"574","location":"Sena Rendang","postcode":"01000","postOffice":"Kangar","state":"Perlis"},{"no":"575","location":"Setiausaha Kerajaan Negeri","postcode":"01503","postOffice":"Kangar","state":"Perlis"},{"no":"576","location":"Setiausaha Keselamatan Negeri","postcode":"01524","postOffice":"Kangar","state":"Perlis"},{"no":"577","location":"Simpang Ampat","postcode":"02700","postOffice":"Simpang Ampat","state":"Perlis"},{"no":"578","location":"Simpang Ampat - Beg berkunci","postcode":"02709","postOffice":"Simpang Ampat","state":"Perlis"},{"no":"579","location":"Simpang Ampat - Peti surat","postcode":"02707","postOffice":"Simpang Ampat","state":"Perlis"},{"no":"580","location":"Sungai Berembang","postcode":"02000","postOffice":"Kuala Perlis","state":"Perlis"},{"no":"581","location":"Sungai Manor","postcode":"02000","postOffice":"Kuala Perlis","state":"Perlis"},{"no":"582","location":"Sungai Siput","postcode":"02000","postOffice":"Kuala Perlis","state":"Perlis"},{"no":"583","location":"Taman Abu Bakar Munir","postcode":"01000","postOffice":"Kangar","state":"Perlis"},{"no":"584","location":"Taman Aman","postcode":"01000","postOffice":"Kangar","state":"Perlis"},{"no":"585","location":"Taman Angsana","postcode":"02400","postOffice":"Kangar","state":"Perlis"},{"no":"586","location":"Taman Bahagia","postcode":"02400","postOffice":"Kangar","state":"Perlis"},{"no":"587","location":"Taman Bakau Emas","postcode":"01000","postOffice":"Kangar","state":"Perlis"},{"no":"588","location":"Taman Behor Indah","postcode":"01000","postOffice":"Kangar","state":"Perlis"},{"no":"589","location":"Taman Berlian","postcode":"02000","postOffice":"Kuala Perlis","state":"Perlis"},{"no":"590","location":"Taman Beseri Indah","postcode":"02400","postOffice":"Kangar","state":"Perlis"},{"no":"591","location":"Taman Beseri Jaya","postcode":"02400","postOffice":"Kangar","state":"Perlis"},{"no":"592","location":"Taman Beseri Murni","postcode":"02400","postOffice":"Kangar","state":"Perlis"},{"no":"593","location":"Taman Beseri Paya","postcode":"02400","postOffice":"Kangar","state":"Perlis"},{"no":"594","location":"Taman Bintong Maju","postcode":"01000","postOffice":"Kangar","state":"Perlis"},{"no":"595","location":"Taman Bintong Setia","postcode":"01000","postOffice":"Kangar","state":"Perlis"},{"no":"596","location":"Taman Bintong Utama","postcode":"01000","postOffice":"Kangar","state":"Perlis"},{"no":"597","location":"Taman Bukit Kaya","postcode":"01000","postOffice":"Kangar","state":"Perlis"},{"no":"598","location":"Taman Bukit Kayangan","postcode":"01000","postOffice":"Kangar","state":"Perlis"},{"no":"599","location":"Taman Bukit Kubu","postcode":"02000","postOffice":"Kuala Perlis","state":"Perlis"},{"no":"600","location":"Taman Bumita","postcode":"01000","postOffice":"Kangar","state":"Perlis"},{"no":"601","location":"Taman Bunga Kemboja RPA","postcode":"01000","postOffice":"Kangar","state":"Perlis"},{"no":"602","location":"Taman Bunga Raya","postcode":"01000","postOffice":"Kangar","state":"Perlis"},{"no":"603","location":"Taman Cahaya","postcode":"01000","postOffice":"Kangar","state":"Perlis"},{"no":"604","location":"Taman Cendera Wasih","postcode":"02700","postOffice":"Simpang Ampat","state":"Perlis"},{"no":"605","location":"Taman Cergas","postcode":"01000","postOffice":"Kangar","state":"Perlis"},{"no":"606","location":"Taman Ceria","postcode":"01000","postOffice":"Kangar","state":"Perlis"},{"no":"607","location":"Taman Che Long","postcode":"02400","postOffice":"Kangar","state":"Perlis"},{"no":"608","location":"Taman Choo Kee","postcode":"01000","postOffice":"Kangar","state":"Perlis"},{"no":"609","location":"Taman Datuk Jaafar Hassan","postcode":"01000","postOffice":"Kangar","state":"Perlis"},{"no":"610","location":"Taman Datuk Setia","postcode":"01000","postOffice":"Kangar","state":"Perlis"},{"no":"611","location":"Taman Datuk Wan Ahmad","postcode":"01000","postOffice":"Kangar","state":"Perlis"},{"no":"612","location":"Taman Desa Bintong","postcode":"01000","postOffice":"Kangar","state":"Perlis"},{"no":"613","location":"Taman Desa Jarak","postcode":"01000","postOffice":"Kangar","state":"Perlis"},{"no":"614","location":"Taman Desa Katong","postcode":"01000","postOffice":"Kangar","state":"Perlis"},{"no":"615","location":"Taman Desa Kayangan","postcode":"01000","postOffice":"Kangar","state":"Perlis"},{"no":"616","location":"Taman Desa Pauh","postcode":"02600","postOffice":"Arau","state":"Perlis"},{"no":"617","location":"Taman Desa Pulai","postcode":"01000","postOffice":"Kangar","state":"Perlis"},{"no":"618","location":"Taman Desa Putra","postcode":"01000","postOffice":"Kangar","state":"Perlis"},{"no":"619","location":"Taman Desa Sentua","postcode":"01000","postOffice":"Kangar","state":"Perlis"},{"no":"620","location":"Taman Dua Puluh","postcode":"02400","postOffice":"Kangar","state":"Perlis"},{"no":"621","location":"Taman Fauziah","postcode":"01000","postOffice":"Kangar","state":"Perlis"},{"no":"622","location":"Taman Firdaus","postcode":"01000","postOffice":"Kangar","state":"Perlis"},{"no":"623","location":"Taman Gasing","postcode":"01000","postOffice":"Kangar","state":"Perlis"},{"no":"624","location":"Taman Gembira","postcode":"01000","postOffice":"Kangar","state":"Perlis"},{"no":"625","location":"Taman Geti","postcode":"02400","postOffice":"Kangar","state":"Perlis"},{"no":"626","location":"Taman Guru","postcode":"01000","postOffice":"Kangar","state":"Perlis"},{"no":"627","location":"Taman Guru Jaya","postcode":"01000","postOffice":"Kangar","state":"Perlis"},{"no":"628","location":"Taman Haji Ali (RPA)","postcode":"02500","postOffice":"Kangar","state":"Perlis"},{"no":"629","location":"Taman Has Melati","postcode":"02400","postOffice":"Kangar","state":"Perlis"},{"no":"630","location":"Taman Hijrah","postcode":"01000","postOffice":"Kangar","state":"Perlis"},{"no":"631","location":"Taman Idaman","postcode":"01000","postOffice":"Kangar","state":"Perlis"},{"no":"632","location":"Taman Indera","postcode":"01000","postOffice":"Kangar","state":"Perlis"},{"no":"633","location":"Taman Indera Indah","postcode":"02000","postOffice":"Kuala Perlis","state":"Perlis"},{"no":"634","location":"Taman Intan","postcode":"01000","postOffice":"Kangar","state":"Perlis"},{"no":"635","location":"Taman Ira","postcode":"01000","postOffice":"Kangar","state":"Perlis"},{"no":"636","location":"Taman Jali","postcode":"01000","postOffice":"Kangar","state":"Perlis"},{"no":"637","location":"Taman Jarak","postcode":"01000","postOffice":"Kangar","state":"Perlis"},{"no":"638","location":"Taman Jawi Matang","postcode":"01000","postOffice":"Kangar","state":"Perlis"},{"no":"639","location":"Taman Jaya ","postcode":"01000","postOffice":"Kangar","state":"Perlis"},{"no":"640","location":"Taman Jaya Diri","postcode":"01000","postOffice":"Kangar","state":"Perlis"},{"no":"641","location":"Taman Jejawi","postcode":"01000","postOffice":"Kangar","state":"Perlis"},{"no":"642","location":"Taman Jelati","postcode":"01000","postOffice":"Kangar","state":"Perlis"},{"no":"643","location":"Taman Kangar","postcode":"01000","postOffice":"Kangar","state":"Perlis"},{"no":"644","location":"Taman Kastam ","postcode":"01000","postOffice":"Kangar","state":"Perlis"},{"no":"645","location":"Taman Kastam Baru","postcode":"02100","postOffice":"Padang Besar","state":"Perlis"},{"no":"646","location":"Taman Kayangan Indah","postcode":"01000","postOffice":"Kangar","state":"Perlis"},{"no":"647","location":"Taman Kechor Indah","postcode":"01000","postOffice":"Kangar","state":"Perlis"},{"no":"648","location":"Taman Kechor Jaya","postcode":"01000","postOffice":"Kangar","state":"Perlis"},{"no":"649","location":"Taman Kecor Indah","postcode":"01000","postOffice":"Kangar","state":"Perlis"},{"no":"650","location":"Taman Kemajuan","postcode":"01000","postOffice":"Kangar","state":"Perlis"},{"no":"651","location":"Taman Kenanga","postcode":"01000","postOffice":"Kangar","state":"Perlis"},{"no":"652","location":"Taman Kim","postcode":"02100","postOffice":"Padang Besar","state":"Perlis"},{"no":"653","location":"Taman Kim 2","postcode":"02100","postOffice":"Padang Besar","state":"Perlis"},{"no":"654","location":"Taman Koperasi","postcode":"01000","postOffice":"Kangar","state":"Perlis"},{"no":"655","location":"Taman Kuala Perlis","postcode":"02000","postOffice":"Kuala Perlis","state":"Perlis"},{"no":"656","location":"Taman Lewata","postcode":"01000","postOffice":"Kangar","state":"Perlis"},{"no":"657","location":"Taman Lima Naleh","postcode":"01000","postOffice":"Kangar","state":"Perlis"},{"no":"658","location":"Taman Mada Sepakat","postcode":"01000","postOffice":"Kangar","state":"Perlis"},{"no":"659","location":"Taman Mas (Beseri)","postcode":"02400","postOffice":"Kangar","state":"Perlis"},{"no":"660","location":"Taman Mas Muda","postcode":"01000","postOffice":"Kangar","state":"Perlis"},{"no":"661","location":"Taman Mas Putra","postcode":"01000","postOffice":"Kangar","state":"Perlis"},{"no":"662","location":"Taman Mas Ria","postcode":"01000","postOffice":"Kangar","state":"Perlis"},{"no":"663","location":"Taman Mata Air 2 (RPA)","postcode":"02500","postOffice":"Kangar","state":"Perlis"},{"no":"664","location":"Taman Mata Air 3 (RPA)","postcode":"02500","postOffice":"Kangar","state":"Perlis"},{"no":"665","location":"Taman Medan Sepakat","postcode":"01000","postOffice":"Kangar","state":"Perlis"},{"no":"666","location":"Taman Melati Indah (Beseri)","postcode":"02400","postOffice":"Kangar","state":"Perlis"},{"no":"667","location":"Taman Merpati","postcode":"01000","postOffice":"Kangar","state":"Perlis"},{"no":"668","location":"Taman Mesra ","postcode":"01000","postOffice":"Kangar","state":"Perlis"},{"no":"669","location":"Taman Mesra Jejawi","postcode":"01000","postOffice":"Kangar","state":"Perlis"},{"no":"670","location":"Taman Mewah","postcode":"01000","postOffice":"Kangar","state":"Perlis"},{"no":"671","location":"Taman Muda Sepakat","postcode":"01000","postOffice":"Kangar","state":"Perlis"},{"no":"672","location":"Taman Murni","postcode":"01000","postOffice":"Kangar","state":"Perlis"},{"no":"673","location":"Taman Mutiara","postcode":"01000","postOffice":"Kangar","state":"Perlis"},{"no":"674","location":"Taman Norma","postcode":"01000","postOffice":"Kangar","state":"Perlis"},{"no":"675","location":"Taman Pauh Indah","postcode":"02600","postOffice":"Arau","state":"Perlis"},{"no":"676","location":"Taman Peduka","postcode":"01000","postOffice":"Kangar","state":"Perlis"},{"no":"677","location":"Taman Pekeliling","postcode":"01000","postOffice":"Kangar","state":"Perlis"},{"no":"678","location":"Taman Peladang Jaya","postcode":"02000","postOffice":"Kuala Perlis","state":"Perlis"},{"no":"679","location":"Taman Pelangi","postcode":"02700","postOffice":"Simpang Ampat","state":"Perlis"},{"no":"680","location":"Taman Pengkalan Assam","postcode":"01000","postOffice":"Kangar","state":"Perlis"},{"no":"681","location":"Taman Pengkalan Indah","postcode":"01000","postOffice":"Kangar","state":"Perlis"},{"no":"682","location":"Taman Perlis","postcode":"01000","postOffice":"Kangar","state":"Perlis"},{"no":"683","location":"Taman Permai","postcode":"01000","postOffice":"Kangar","state":"Perlis"},{"no":"684","location":"Taman Permai","postcode":"02400","postOffice":"Kangar","state":"Perlis"},{"no":"685","location":"Taman Pertama","postcode":"01000","postOffice":"Kangar","state":"Perlis"},{"no":"686","location":"Taman Pertiwi Indah","postcode":"01000","postOffice":"Kangar","state":"Perlis"},{"no":"687","location":"Taman Pertiwi Seriab","postcode":"01000","postOffice":"Kangar","state":"Perlis"},{"no":"688","location":"Taman Perumahan Awam","postcode":"02100","postOffice":"Padang Besar","state":"Perlis"},{"no":"689","location":"Taman Putera","postcode":"01000","postOffice":"Kangar","state":"Perlis"},{"no":"690","location":"Taman Putra Putri","postcode":"01000","postOffice":"Kangar","state":"Perlis"},{"no":"691","location":"Taman Rasa Sayang","postcode":"01000","postOffice":"Kangar","state":"Perlis"},{"no":"692","location":"Taman Repoh","postcode":"01000","postOffice":"Kangar","state":"Perlis"},{"no":"693","location":"Taman Repoh Indah","postcode":"01000","postOffice":"Kangar","state":"Perlis"},{"no":"694","location":"Taman Repoh Jaya","postcode":"01000","postOffice":"Kangar","state":"Perlis"},{"no":"695","location":"Taman Ria","postcode":"02500","postOffice":"Kangar","state":"Perlis"},{"no":"696","location":"Taman Semarak","postcode":"02000","postOffice":"Kuala Perlis","state":"Perlis"},{"no":"697","location":"Taman Sempurna Jaya","postcode":"02400","postOffice":"Kangar","state":"Perlis"},{"no":"698","location":"Taman Sena","postcode":"01000","postOffice":"Kangar","state":"Perlis"},{"no":"699","location":"Taman Sena Indah","postcode":"01000","postOffice":"Kangar","state":"Perlis"},{"no":"700","location":"Taman Sena Permai","postcode":"01000","postOffice":"Kangar","state":"Perlis"},{"no":"701","location":"Taman Sentosa","postcode":"02000","postOffice":"Kuala Perlis","state":"Perlis"},{"no":"702","location":"Taman Sentua","postcode":"01000","postOffice":"Kangar","state":"Perlis"},{"no":"703","location":"Taman Sepadu","postcode":"01000","postOffice":"Kangar","state":"Perlis"},{"no":"704","location":"Taman Sepadu 1","postcode":"01000","postOffice":"Kangar","state":"Perlis"},{"no":"705","location":"Taman Seri Bahagia","postcode":"01000","postOffice":"Kangar","state":"Perlis"},{"no":"706","location":"Taman Seri Bayu","postcode":"02000","postOffice":"Kuala Perlis","state":"Perlis"},{"no":"707","location":"Taman Seri Embun","postcode":"01000","postOffice":"Kangar","state":"Perlis"},{"no":"708","location":"Taman Seri Idaman","postcode":"01000","postOffice":"Kangar","state":"Perlis"},{"no":"709","location":"Taman Seri Idaman","postcode":"02600","postOffice":"Arau","state":"Perlis"},{"no":"710","location":"Taman Seri Intan","postcode":"01000","postOffice":"Kangar","state":"Perlis"},{"no":"711","location":"Taman Seri Manis","postcode":"01000","postOffice":"Kangar","state":"Perlis"},{"no":"712","location":"Taman Seri Medan","postcode":"01000","postOffice":"Kangar","state":"Perlis"},{"no":"713","location":"Taman Seri Murni","postcode":"01000","postOffice":"Kangar","state":"Perlis"},{"no":"714","location":"Taman Seri Pilihan","postcode":"01000","postOffice":"Kangar","state":"Perlis"},{"no":"715","location":"Taman Seri Puchong","postcode":"01000","postOffice":"Kangar","state":"Perlis"},{"no":"716","location":"Taman Seri Pulai 4","postcode":"01000","postOffice":"Kangar","state":"Perlis"},{"no":"717","location":"Taman Seri Semarak","postcode":"02000","postOffice":"Kuala Perlis","state":"Perlis"},{"no":"718","location":"Taman Seri Tanjung","postcode":"01000","postOffice":"Kangar","state":"Perlis"},{"no":"719","location":"Taman Seri Wangi","postcode":"02600","postOffice":"Arau","state":"Perlis"},{"no":"720","location":"Taman Seriab","postcode":"01000","postOffice":"Kangar","state":"Perlis"},{"no":"721","location":"Taman Setia Utama","postcode":"01000","postOffice":"Kangar","state":"Perlis"},{"no":"722","location":"Taman Simpang Tiga","postcode":"01000","postOffice":"Kangar","state":"Perlis"},{"no":"723","location":"Taman Singgahsana","postcode":"02200","postOffice":"Kaki Bukit","state":"Perlis"},{"no":"724","location":"Taman Sri Guar Syed Alwi","postcode":"01000","postOffice":"Kangar","state":"Perlis"},{"no":"725","location":"Taman Sri Pauh","postcode":"02600","postOffice":"Arau","state":"Perlis"},{"no":"726","location":"Taman Suria","postcode":"02000","postOffice":"Kuala Perlis","state":"Perlis"},{"no":"727","location":"Taman Suriani","postcode":"01000","postOffice":"Kangar","state":"Perlis"},{"no":"728","location":"Taman Syed Alwi","postcode":"01000","postOffice":"Kangar","state":"Perlis"},{"no":"729","location":"Taman Ten","postcode":"01000","postOffice":"Kangar","state":"Perlis"},{"no":"730","location":"Taman Teratai","postcode":"01000","postOffice":"Kangar","state":"Perlis"},{"no":"731","location":"Taman Tok Peduka","postcode":"01000","postOffice":"Kangar","state":"Perlis"},{"no":"732","location":"Taman Tunjung","postcode":"02450","postOffice":"Kangar","state":"Perlis"},{"no":"733","location":"Taman Utama","postcode":"01000","postOffice":"Kangar","state":"Perlis"},{"no":"734","location":"Taman Utama Indah","postcode":"01000","postOffice":"Kangar","state":"Perlis"},{"no":"735","location":"Taman Utara","postcode":"01000","postOffice":"Kangar","state":"Perlis"},{"no":"736","location":"Taman Utara Guar Sanji","postcode":"02600","postOffice":"Arau","state":"Perlis"},{"no":"737","location":"Taman Utara Jaya (Fasa 1 - 3)","postcode":"02100","postOffice":"Padang Besar","state":"Perlis"},{"no":"738","location":"Taman Wira","postcode":"01000","postOffice":"Kangar","state":"Perlis"},{"no":"739","location":"Telekom Malaysia Berhad","postcode":"01672","postOffice":"Kangar","state":"Perlis"},{"no":"740","location":"Tenaga Nasional Berhad","postcode":"01673","postOffice":"Kangar","state":"Perlis"},{"no":"741","location":"Titi Chai","postcode":"01000","postOffice":"Kangar","state":"Perlis"},{"no":"742","location":"Titi Midin","postcode":"01000","postOffice":"Kangar","state":"Perlis"},{"no":"743","location":"Tok Peduka","postcode":"01000","postOffice":"Kangar","state":"Perlis"},{"no":"744","location":"UiTM Arau","postcode":"02600","postOffice":"Arau","state":"Perlis"},{"no":"745","location":"Ujung Batu","postcode":"01000","postOffice":"Kangar","state":"Perlis"},{"no":"746","location":"Unit Pencegah Penyeludupan","postcode":"01546","postOffice":"Kangar","state":"Perlis"},{"no":"747","location":"Unit Penguatkuasa Kem. Perdagangan \u0026 Perindustrian","postcode":"01622","postOffice":"Kangar","state":"Perlis"},{"no":"748","location":"Unit Penyelidikan Sosio Ekonomi","postcode":"01529","postOffice":"Kangar","state":"Perlis"},{"no":"749","location":"YAB Menteri Besar Perlis","postcode":"01502","postOffice":"Kangar","state":"Perlis"}]