[{"no":"1","location":"Ajil","postcode":"21800","postOffice":"Ajil","state":"Terengganu"},{"no":"2","location":"Akauntan Negeri","postcode":"20596","postOffice":"Kuala Terengganu","state":"Terengganu"},{"no":"3","location":"Al Muktafi Billah Shah","postcode":"23400","postOffice":"Al Muktatfi Billah Shah","state":"Terengganu"},{"no":"4","location":"Alor Gali","postcode":"21600","postOffice":"Marang","state":"Terengganu"},{"no":"5","location":"Alor Lik","postcode":"21500","postOffice":"Sungai Tong","state":"Terengganu"},{"no":"6","location":"Alor Lintah","postcode":"22000","postOffice":"Jerteh","state":"Terengganu"},{"no":"7","location":"Alor Lintang","postcode":"22200","postOffice":"Kampung Raja","state":"Terengganu"},{"no":"8","location":"Alor Pak Ndok","postcode":"22300","postOffice":"Kuala Besut","state":"Terengganu"},{"no":"9","location":"Alor Peroi","postcode":"22300","postOffice":"Kuala Besut","state":"Terengganu"},{"no":"10","location":"Alor Pisang","postcode":"22300","postOffice":"Kuala Besut","state":"Terengganu"},{"no":"11","location":"Alor Rekan Bemban","postcode":"23000","postOffice":"Dungun","state":"Terengganu"},{"no":"12","location":"Alor Teratai","postcode":"22300","postOffice":"Kuala Besut","state":"Terengganu"},{"no":"13","location":"Alor Tuman","postcode":"21600","postOffice":"Marang","state":"Terengganu"},{"no":"14","location":"Amanah Raya Berhad","postcode":"20508","postOffice":"Kuala Terengganu","state":"Terengganu"},{"no":"15","location":"Apal","postcode":"22020","postOffice":"Jerteh","state":"Terengganu"},{"no":"16","location":"Arkid Mara","postcode":"24050","postOffice":"Ayer Puteh","state":"Terengganu"},{"no":"17","location":"Asing","postcode":"21600","postOffice":"Marang","state":"Terengganu"},{"no":"18","location":"Atas Tol","postcode":"21070","postOffice":"Kuala Terengganu","state":"Terengganu"},{"no":"19","location":"Ayer Jerneh","postcode":"24200","postOffice":"Kemasek","state":"Terengganu"},{"no":"20","location":"Ayer Puteh","postcode":"24050","postOffice":"Ayer Puteh","state":"Terengganu"},{"no":"21","location":"Bahagian Pelesenan - Kementerian Penerangan","postcode":"20610","postOffice":"Kuala Terengganu","state":"Terengganu"},{"no":"22","location":"Bakau Tinggi","postcode":"24000","postOffice":"Cukai","state":"Terengganu"},{"no":"23","location":"Balik Bukit","postcode":"22000","postOffice":"Jerteh","state":"Terengganu"},{"no":"24","location":"Balik Bukit","postcode":"22100","postOffice":"Permaisuri","state":"Terengganu"},{"no":"25","location":"Bandar Baru","postcode":"24300","postOffice":"Kerteh","state":"Terengganu"},{"no":"26","location":"Bandar D","postcode":"24200","postOffice":"Kemasek","state":"Terengganu"},{"no":"27","location":"Bandar Ketengah Jaya","postcode":"23300","postOffice":"Ketengah Jaya","state":"Terengganu"},{"no":"28","location":"Bangunan Abdullah Osman","postcode":"23000","postOffice":"Dungun","state":"Terengganu"},{"no":"29","location":"Bangunan Haji Wahab","postcode":"23000","postOffice":"Dungun","state":"Terengganu"},{"no":"30","location":"Bangunan Maidam","postcode":"23000","postOffice":"Dungun","state":"Terengganu"},{"no":"31","location":"Bangunan Yayasan Islam","postcode":"23000","postOffice":"Dungun","state":"Terengganu"},{"no":"32","location":"Barat","postcode":"21600","postOffice":"Marang","state":"Terengganu"},{"no":"33","location":"Batalion 104 Infanteri","postcode":"21300","postOffice":"Kuala Terengganu","state":"Terengganu"},{"no":"34","location":"Batalion 18 RAMD","postcode":"21300","postOffice":"Kuala Terengganu","state":"Terengganu"},{"no":"35","location":"Batu 12 (Jalan Gong Badak)","postcode":"21300","postOffice":"Kuala Terengganu","state":"Terengganu"},{"no":"36","location":"Batu Enam","postcode":"21200","postOffice":"Kuala Terengganu","state":"Terengganu"},{"no":"37","location":"Belara","postcode":"21200","postOffice":"Kuala Terengganu","state":"Terengganu"},{"no":"38","location":"Beris Alor Peroi","postcode":"22300","postOffice":"Kuala Besut","state":"Terengganu"},{"no":"39","location":"Beris Alor Pisang","postcode":"22300","postOffice":"Kuala Besut","state":"Terengganu"},{"no":"40","location":"Beris Cawat","postcode":"22300","postOffice":"Kuala Besut","state":"Terengganu"},{"no":"41","location":"Besut","postcode":"22200","postOffice":"Kampung Raja","state":"Terengganu"},{"no":"42","location":"Binjai","postcode":"24000","postOffice":"Cukai","state":"Terengganu"},{"no":"43","location":"Binjai Kertas","postcode":"21700","postOffice":"Kuala Berang","state":"Terengganu"},{"no":"44","location":"Binjai Manis","postcode":"21200","postOffice":"Kuala Terengganu","state":"Terengganu"},{"no":"45","location":"Biro Bantuan Guaman","postcode":"20504","postOffice":"Kuala Terengganu","state":"Terengganu"},{"no":"46","location":"Biro Pengaduan Awam","postcode":"20505","postOffice":"Kuala Terengganu","state":"Terengganu"},{"no":"47","location":"Biro Tata Negara Terengganu","postcode":"20502","postOffice":"Kuala Terengganu","state":"Terengganu"},{"no":"48","location":"Bukit Baharu","postcode":"21600","postOffice":"Marang","state":"Terengganu"},{"no":"49","location":"Bukit Besar","postcode":"21100","postOffice":"Kuala Terengganu","state":"Terengganu"},{"no":"50","location":"Bukit Besi","postcode":"23200","postOffice":"Bukit Besi","state":"Terengganu"},{"no":"51","location":"Bukit Gegading","postcode":"21600","postOffice":"Marang","state":"Terengganu"},{"no":"52","location":"Bukit Jabar","postcode":"21800","postOffice":"Ajil","state":"Terengganu"},{"no":"53","location":"Bukit Jejulong","postcode":"21600","postOffice":"Marang","state":"Terengganu"},{"no":"54","location":"Bukit Jerok","postcode":"22020","postOffice":"Jerteh","state":"Terengganu"},{"no":"55","location":"Bukit Kemudu","postcode":"22100","postOffice":"Permaisuri","state":"Terengganu"},{"no":"56","location":"Bukit Kenak","postcode":"22000","postOffice":"Jerteh","state":"Terengganu"},{"no":"57","location":"Bukit Kuang","postcode":"24000","postOffice":"Cukai","state":"Terengganu"},{"no":"58","location":"Bukit Kulim","postcode":"21600","postOffice":"Marang","state":"Terengganu"},{"no":"59","location":"Bukit Pachat","postcode":"21800","postOffice":"Ajil","state":"Terengganu"},{"no":"60","location":"Bukit Pari","postcode":"22100","postOffice":"Permaisuri","state":"Terengganu"},{"no":"61","location":"Bukit Parit","postcode":"21600","postOffice":"Marang","state":"Terengganu"},{"no":"62","location":"Bukit Payong","postcode":"21400","postOffice":"Bukit Payong","state":"Terengganu"},{"no":"63","location":"Bukit Payong (Jerteh)","postcode":"22010","postOffice":"Jerteh","state":"Terengganu"},{"no":"64","location":"Bukit Pelong","postcode":"22100","postOffice":"Permaisuri","state":"Terengganu"},{"no":"65","location":"Bukit Puteri","postcode":"22000","postOffice":"Jerteh","state":"Terengganu"},{"no":"66","location":"Bukit Tanah","postcode":"22200","postOffice":"Kampung Raja","state":"Terengganu"},{"no":"67","location":"Bukit Tok Bilal","postcode":"23000","postOffice":"Dungun","state":"Terengganu"},{"no":"68","location":"Ceneh","postcode":"24050","postOffice":"Ceneh","state":"Terengganu"},{"no":"69","location":"Ceneh Baru","postcode":"24050","postOffice":"Ceneh","state":"Terengganu"},{"no":"70","location":"Cerul Baru","postcode":"24050","postOffice":"Ceneh","state":"Terengganu"},{"no":"71","location":"Chabang Tiga","postcode":"21000","postOffice":"Kuala Terengganu","state":"Terengganu"},{"no":"72","location":"Chabang Tiga - Beg berkunci","postcode":"21009","postOffice":"Kuala Terengganu","state":"Terengganu"},{"no":"73","location":"Chalok","postcode":"21450","postOffice":"Chalok","state":"Terengganu"},{"no":"74","location":"Chendering","postcode":"21080","postOffice":"Kuala Terengganu","state":"Terengganu"},{"no":"75","location":"Cherang Nibong","postcode":"21800","postOffice":"Ajil","state":"Terengganu"},{"no":"76","location":"Cukai","postcode":"24000","postOffice":"Cukai","state":"Terengganu"},{"no":"77","location":"Cukai - Beg berkunci","postcode":"24009","postOffice":"Cukai","state":"Terengganu"},{"no":"78","location":"Cukai - Peti surat","postcode":"24007","postOffice":"Cukai","state":"Terengganu"},{"no":"79","location":"Dadong","postcode":"24050","postOffice":"Ayer Puteh","state":"Terengganu"},{"no":"80","location":"Dendang","postcode":"23200","postOffice":"Bukit Besi","state":"Terengganu"},{"no":"81","location":"Desa Darul Iman","postcode":"24000","postOffice":"Cukai","state":"Terengganu"},{"no":"82","location":"Dewan Undangan Negeri","postcode":"20680","postOffice":"Kuala Terengganu","state":"Terengganu"},{"no":"83","location":"Dungun","postcode":"23000","postOffice":"Dungun","state":"Terengganu"},{"no":"84","location":"Dungun - Beg berkunci","postcode":"23009","postOffice":"Dungun","state":"Terengganu"},{"no":"85","location":"Dungun - Peti surat","postcode":"23007","postOffice":"Dungun","state":"Terengganu"},{"no":"86","location":"Dungun (Batu 48)","postcode":"23000","postOffice":"Dungun","state":"Terengganu"},{"no":"87","location":"Dungun Beach Resort","postcode":"23000","postOffice":"Dungun","state":"Terengganu"},{"no":"88","location":"Durian Kassim","postcode":"21800","postOffice":"Ajil","state":"Terengganu"},{"no":"89","location":"Durian Penjara","postcode":"21600","postOffice":"Marang","state":"Terengganu"},{"no":"90","location":"Dusun Nyior","postcode":"24000","postOffice":"Cukai","state":"Terengganu"},{"no":"91","location":"DYMM Sultan Terengganu","postcode":"20500","postOffice":"Kuala Terengganu","state":"Terengganu"},{"no":"92","location":"EstateTengah / Petronas","postcode":"24300","postOffice":"Kerteh","state":"Terengganu"},{"no":"93","location":"Felcra Keruak","postcode":"22010","postOffice":"Jerteh","state":"Terengganu"},{"no":"94","location":"Felda Bukit Bading","postcode":"21800","postOffice":"Ajil","state":"Terengganu"},{"no":"95","location":"Felda Chalok","postcode":"21450","postOffice":"Chalok","state":"Terengganu"},{"no":"96","location":"Felda Chalok Barat","postcode":"21450","postOffice":"Chalok","state":"Terengganu"},{"no":"97","location":"Felda Jerangau Barat","postcode":"21820","postOffice":"Ajil","state":"Terengganu"},{"no":"98","location":"Felda Kerteh (1 - 6)","postcode":"23300","postOffice":"Ketengah Jaya","state":"Terengganu"},{"no":"99","location":"Felda Mengkawang","postcode":"21800","postOffice":"Ajil","state":"Terengganu"},{"no":"100","location":"Felda Selaseh","postcode":"22000","postOffice":"Jerteh","state":"Terengganu"},{"no":"101","location":"Felda Tersat","postcode":"21800","postOffice":"Ajil","state":"Terengganu"},{"no":"102","location":"Geliga Permai","postcode":"24000","postOffice":"Cukai","state":"Terengganu"},{"no":"103","location":"Gong Bayor","postcode":"22200","postOffice":"Kampung Raja","state":"Terengganu"},{"no":"104","location":"Gong Beris","postcode":"21600","postOffice":"Marang","state":"Terengganu"},{"no":"105","location":"Gong Jelutong","postcode":"22200","postOffice":"Kampung Raja","state":"Terengganu"},{"no":"106","location":"Gong Kapas","postcode":"21100","postOffice":"Kuala Terengganu","state":"Terengganu"},{"no":"107","location":"Gong Kapas - Beg berkunci","postcode":"21109","postOffice":"Kuala Terengganu","state":"Terengganu"},{"no":"108","location":"Gong Manok","postcode":"22300","postOffice":"Kuala Besut","state":"Terengganu"},{"no":"109","location":"Gong Medang","postcode":"22200","postOffice":"Kampung Raja","state":"Terengganu"},{"no":"110","location":"Gong Nering","postcode":"22000","postOffice":"Jerteh","state":"Terengganu"},{"no":"111","location":"Gong Nering","postcode":"22300","postOffice":"Kuala Besut","state":"Terengganu"},{"no":"112","location":"Gong Surau","postcode":"22300","postOffice":"Kuala Besut","state":"Terengganu"},{"no":"113","location":"Hospital Kuala Terengganu","postcode":"20586","postOffice":"Kuala Terengganu","state":"Terengganu"},{"no":"114","location":"IBN PGA 9 Kubang Badak","postcode":"21300","postOffice":"Kuala Terengganu","state":"Terengganu"},{"no":"115","location":"Institut Latihan Perikanan","postcode":"21080","postOffice":"Kuala Terengganu","state":"Terengganu"},{"no":"116","location":"Institut Piawaian Malaysia (SIRIM)","postcode":"21080","postOffice":"Kuala Terengganu","state":"Terengganu"},{"no":"117","location":"Jabatan Agama Islam Terengganu","postcode":"20676","postOffice":"Kuala Terengganu","state":"Terengganu"},{"no":"118","location":"Jabatan Alam Sekitar Negeri","postcode":"20662","postOffice":"Kuala Terengganu","state":"Terengganu"},{"no":"119","location":"Jabatan Arkib Negara","postcode":"20568","postOffice":"Kuala Terengganu","state":"Terengganu"},{"no":"120","location":"Jabatan Bekalan Air","postcode":"20200","postOffice":"Kuala Terengganu","state":"Terengganu"},{"no":"121","location":"Jabatan Belia \u0026 Sukan","postcode":"20570","postOffice":"Kuala Terengganu","state":"Terengganu"},{"no":"122","location":"Jabatan Bomba \u0026 Penyelamat","postcode":"20648","postOffice":"Kuala Terengganu","state":"Terengganu"},{"no":"123","location":"Jabatan Galian","postcode":"20656","postOffice":"Kuala Terengganu","state":"Terengganu"},{"no":"124","location":"Jabatan Haiwan","postcode":"20630","postOffice":"Kuala Terengganu","state":"Terengganu"},{"no":"125","location":"Jabatan Hal Ehwal Kesatuan Sekerja","postcode":"20200","postOffice":"Kuala Terengganu","state":"Terengganu"},{"no":"126","location":"Jabatan Hal Ehwal Orang Asli","postcode":"20548","postOffice":"Kuala Terengganu","state":"Terengganu"},{"no":"127","location":"Jabatan Hutan Daerah Terengganu Utara","postcode":"20200","postOffice":"Kuala Terengganu","state":"Terengganu"},{"no":"128","location":"Jabatan Imigresen","postcode":"20550","postOffice":"Kuala Terengganu","state":"Terengganu"},{"no":"129","location":"Jabatan Kajibumi","postcode":"20658","postOffice":"Kuala Terengganu","state":"Terengganu"},{"no":"130","location":"Jabatan Kajicuaca","postcode":"20662","postOffice":"Kuala Terengganu","state":"Terengganu"},{"no":"131","location":"Jabatan Kastam \u0026 Eksais Di Raja","postcode":"20596","postOffice":"Kuala Terengganu","state":"Terengganu"},{"no":"132","location":"Jabatan Kebajikan Masyarakat","postcode":"20564","postOffice":"Kuala Terengganu","state":"Terengganu"},{"no":"133","location":"Jabatan Kemajuan Masyarakat (Kemas)","postcode":"20606","postOffice":"Kuala Terengganu","state":"Terengganu"},{"no":"134","location":"Jabatan Kerja Raya","postcode":"20582","postOffice":"Kuala Terengganu","state":"Terengganu"},{"no":"135","location":"Jabatan Keselamatan Sosial (Perkeso)","postcode":"20538","postOffice":"Kuala Terengganu","state":"Terengganu"},{"no":"136","location":"Jabatan Kesihatan","postcode":"20590","postOffice":"Kuala Terengganu","state":"Terengganu"},{"no":"137","location":"Jabatan Kilang \u0026 Jentera","postcode":"20534","postOffice":"Kuala Terengganu","state":"Terengganu"},{"no":"138","location":"Jabatan Kimia","postcode":"20662","postOffice":"Kuala Terengganu","state":"Terengganu"},{"no":"139","location":"Jabatan Muzium","postcode":"20566","postOffice":"Kuala Terengganu","state":"Terengganu"},{"no":"140","location":"Jabatan Pembangunan Koperasi","postcode":"20608","postOffice":"Kuala Terengganu","state":"Terengganu"},{"no":"141","location":"Jabatan Pemegang Harta","postcode":"20516","postOffice":"Kuala Terengganu","state":"Terengganu"},{"no":"142","location":"Jabatan Pendaftar Pertubuhan","postcode":"20552","postOffice":"Kuala Terengganu","state":"Terengganu"},{"no":"143","location":"Jabatan Pendaftaran Negara","postcode":"20551","postOffice":"Kuala Terengganu","state":"Terengganu"},{"no":"144","location":"Jabatan Pendidikan","postcode":"20604","postOffice":"Kuala Terengganu","state":"Terengganu"},{"no":"145","location":"Jabatan Penerangan","postcode":"20612","postOffice":"Kuala Terengganu","state":"Terengganu"},{"no":"146","location":"Jabatan Penerbangan Awam","postcode":"20618","postOffice":"Kuala Terengganu","state":"Terengganu"},{"no":"147","location":"Jabatan Pengairan \u0026 Saliran","postcode":"20626","postOffice":"Kuala Terengganu","state":"Terengganu"},{"no":"148","location":"Jabatan Pengangkutan Jalan","postcode":"20620","postOffice":"Kuala Terengganu","state":"Terengganu"},{"no":"149","location":"Jabatan Penilaian Harta","postcode":"20592","postOffice":"Kuala Terengganu","state":"Terengganu"},{"no":"150","location":"Jabatan Penjara","postcode":"21600","postOffice":"Marang","state":"Terengganu"},{"no":"151","location":"Jabatan Penyiaran","postcode":"20614","postOffice":"Kuala Terengganu","state":"Terengganu"},{"no":"152","location":"Jabatan Perancang Bandar \u0026 Desa","postcode":"20646","postOffice":"Kuala Terengganu","state":"Terengganu"},{"no":"153","location":"Jabatan Perangkaan","postcode":"20514","postOffice":"Kuala Terengganu","state":"Terengganu"},{"no":"154","location":"Jabatan Perhilitan","postcode":"20664","postOffice":"Kuala Terengganu","state":"Terengganu"},{"no":"155","location":"Jabatan Perhubungan Perusahaan","postcode":"20536","postOffice":"Kuala Terengganu","state":"Terengganu"},{"no":"156","location":"Jabatan Perhutanan","postcode":"20660","postOffice":"Kuala Terengganu","state":"Terengganu"},{"no":"157","location":"Jabatan Perikanan","postcode":"20628","postOffice":"Kuala Terengganu","state":"Terengganu"},{"no":"158","location":"Jabatan Perpaduan Negara","postcode":"20517","postOffice":"Kuala Terengganu","state":"Terengganu"},{"no":"159","location":"Jabatan Pertahanan Awam","postcode":"20556","postOffice":"Kuala Terengganu","state":"Terengganu"},{"no":"160","location":"Jabatan Pertanian","postcode":"20632","postOffice":"Kuala Terengganu","state":"Terengganu"},{"no":"161","location":"Jabatan Pertanian Daerah","postcode":"20300","postOffice":"Kuala Terengganu","state":"Terengganu"},{"no":"162","location":"Jabatan Sumber Manusia","postcode":"20532","postOffice":"Kuala Terengganu","state":"Terengganu"},{"no":"163","location":"Jabatan Tanah \u0026 Galian","postcode":"20576","postOffice":"Kuala Terengganu","state":"Terengganu"},{"no":"164","location":"Jabatan Telekom Timur","postcode":"20668","postOffice":"Kuala Terengganu","state":"Terengganu"},{"no":"165","location":"Jabatan Tenaga Rakyat","postcode":"20540","postOffice":"Kuala Terengganu","state":"Terengganu"},{"no":"166","location":"Jabatan Ukur \u0026 Pemetaan","postcode":"20578","postOffice":"Kuala Terengganu","state":"Terengganu"},{"no":"167","location":"Jabi","postcode":"22020","postOffice":"Jerteh","state":"Terengganu"},{"no":"168","location":"Jalan Abdul Rahman","postcode":"24000","postOffice":"Cukai","state":"Terengganu"},{"no":"169","location":"Jalan Air Jernih","postcode":"20300","postOffice":"Kuala Terengganu","state":"Terengganu"},{"no":"170","location":"Jalan Air Puteh","postcode":"24000","postOffice":"Cukai","state":"Terengganu"},{"no":"171","location":"Jalan Aman","postcode":"22120","postOffice":"Permaisuri","state":"Terengganu"},{"no":"172","location":"Jalan Aman Rhu Sepuluh Penarek","postcode":"22120","postOffice":"Permaisuri","state":"Terengganu"},{"no":"173","location":"Jalan Bahagia","postcode":"22120","postOffice":"Permaisuri","state":"Terengganu"},{"no":"174","location":"Jalan Bahagia Rhu Sepuluh Penarek","postcode":"22120","postOffice":"Permaisuri","state":"Terengganu"},{"no":"175","location":"Jalan Bakti Simpang Tiga Kubang Badak","postcode":"21030","postOffice":"Kuala Terengganu","state":"Terengganu"},{"no":"176","location":"Jalan Bandar","postcode":"20100","postOffice":"Kuala Terengganu","state":"Terengganu"},{"no":"177","location":"Jalan Banggol","postcode":"20100","postOffice":"Kuala Terengganu","state":"Terengganu"},{"no":"178","location":"Jalan Batas Baru","postcode":"20300","postOffice":"Kuala Terengganu","state":"Terengganu"},{"no":"179","location":"Jalan Batu Rakit","postcode":"21020","postOffice":"Kuala Terengganu","state":"Terengganu"},{"no":"180","location":"Jalan Belakang Kampung China","postcode":"20100","postOffice":"Kuala Terengganu","state":"Terengganu"},{"no":"181","location":"Jalan Besar","postcode":"24300","postOffice":"Kerteh","state":"Terengganu"},{"no":"182","location":"Jalan Besar Paka","postcode":"23100","postOffice":"Paka","state":"Terengganu"},{"no":"183","location":"Jalan Bukit Kechil","postcode":"21100","postOffice":"Kuala Terengganu","state":"Terengganu"},{"no":"184","location":"Jalan Chabang","postcode":"24300","postOffice":"Kerteh","state":"Terengganu"},{"no":"185","location":"Jalan Che Teng","postcode":"24000","postOffice":"Cukai","state":"Terengganu"},{"no":"186","location":"Jalan Cherong Lanjut","postcode":"20300","postOffice":"Kuala Terengganu","state":"Terengganu"},{"no":"187","location":"Jalan Da Omar","postcode":"24000","postOffice":"Cukai","state":"Terengganu"},{"no":"188","location":"Jalan Dato Amar","postcode":"20400","postOffice":"Kuala Terengganu","state":"Terengganu"},{"no":"189","location":"Jalan Dato Bentara Setia","postcode":"21100","postOffice":"Kuala Terengganu","state":"Terengganu"},{"no":"190","location":"Jalan Datok","postcode":"24000","postOffice":"Cukai","state":"Terengganu"},{"no":"191","location":"Jalan Federal","postcode":"24300","postOffice":"Kerteh","state":"Terengganu"},{"no":"192","location":"Jalan Feri Lama","postcode":"24000","postOffice":"Cukai","state":"Terengganu"},{"no":"193","location":"Jalan Gong Penaga","postcode":"21100","postOffice":"Kuala Terengganu","state":"Terengganu"},{"no":"194","location":"Jalan Haji Busu","postcode":"20400","postOffice":"Kuala Terengganu","state":"Terengganu"},{"no":"195","location":"Jalan Hilir","postcode":"20300","postOffice":"Kuala Terengganu","state":"Terengganu"},{"no":"196","location":"Jalan Hiliran Masjid","postcode":"21000","postOffice":"Kuala Terengganu","state":"Terengganu"},{"no":"197","location":"Jalan Hospital","postcode":"20400","postOffice":"Kuala Terengganu","state":"Terengganu"},{"no":"198","location":"Jalan Hospital","postcode":"24000","postOffice":"Cukai","state":"Terengganu"},{"no":"199","location":"Jalan Ibrahim","postcode":"21100","postOffice":"Kuala Terengganu","state":"Terengganu"},{"no":"200","location":"Jalan Injin Gergaji","postcode":"24000","postOffice":"Cukai","state":"Terengganu"},{"no":"201","location":"Jalan Istana Kolam","postcode":"20000","postOffice":"Kuala Terengganu","state":"Terengganu"},{"no":"202","location":"Jalan Jail","postcode":"20100","postOffice":"Kuala Terengganu","state":"Terengganu"},{"no":"203","location":"Jalan Jakar","postcode":"24000","postOffice":"Cukai","state":"Terengganu"},{"no":"204","location":"Jalan Kamaruddin","postcode":"20400","postOffice":"Kuala Terengganu","state":"Terengganu"},{"no":"205","location":"Jalan Kampung Dalam","postcode":"20100","postOffice":"Kuala Terengganu","state":"Terengganu"},{"no":"206","location":"Jalan Kampung Tiong","postcode":"20100","postOffice":"Kuala Terengganu","state":"Terengganu"},{"no":"207","location":"Jalan Kelantan (Hingga Km 6)","postcode":"20050","postOffice":"Kuala Terengganu","state":"Terengganu"},{"no":"208","location":"Jalan Kelantan (Km 7 - 13)","postcode":"21200","postOffice":"Kuala Terengganu","state":"Terengganu"},{"no":"209","location":"Jalan Kenanga","postcode":"20400","postOffice":"Kuala Terengganu","state":"Terengganu"},{"no":"210","location":"Jalan Kenanga","postcode":"24000","postOffice":"Cukai","state":"Terengganu"},{"no":"211","location":"Jalan Klinik","postcode":"23100","postOffice":"Paka","state":"Terengganu"},{"no":"212","location":"Jalan Kosong Ferry","postcode":"21000","postOffice":"Kuala Terengganu","state":"Terengganu"},{"no":"213","location":"Jalan Kota","postcode":"20000","postOffice":"Kuala Terengganu","state":"Terengganu"},{"no":"214","location":"Jalan Kota Lama","postcode":"20300","postOffice":"Kuala Terengganu","state":"Terengganu"},{"no":"215","location":"Jalan Kuala Hiliran","postcode":"21000","postOffice":"Kuala Terengganu","state":"Terengganu"},{"no":"216","location":"Jalan Kubang Kurus","postcode":"24000","postOffice":"Cukai","state":"Terengganu"},{"no":"217","location":"Jalan Kubor","postcode":"20100","postOffice":"Kuala Terengganu","state":"Terengganu"},{"no":"218","location":"Jalan Ladang Sekolah","postcode":"20000","postOffice":"Kuala Terengganu","state":"Terengganu"},{"no":"219","location":"Jalan Losong Masjid","postcode":"21000","postOffice":"Kuala Terengganu","state":"Terengganu"},{"no":"220","location":"Jalan Mak Dayang","postcode":"24000","postOffice":"Cukai","state":"Terengganu"},{"no":"221","location":"Jalan Makmur","postcode":"22120","postOffice":"Permaisuri","state":"Terengganu"},{"no":"222","location":"Jalan Makmur Rhu Sepuluh Penarek","postcode":"22120","postOffice":"Permaisuri","state":"Terengganu"},{"no":"223","location":"Jalan Masjid Abidin","postcode":"20100","postOffice":"Kuala Terengganu","state":"Terengganu"},{"no":"224","location":"Jalan Masjid Lama","postcode":"24000","postOffice":"Cukai","state":"Terengganu"},{"no":"225","location":"Jalan Maskayu @ Jalan Tok Jembal","postcode":"21300","postOffice":"Kuala Terengganu","state":"Terengganu"},{"no":"226","location":"Jalan Mengadang Akar","postcode":"20300","postOffice":"Kuala Terengganu","state":"Terengganu"},{"no":"227","location":"Jalan Merang","postcode":"21020","postOffice":"Kuala Terengganu","state":"Terengganu"},{"no":"228","location":"Jalan Nesan Empat","postcode":"20000","postOffice":"Kuala Terengganu","state":"Terengganu"},{"no":"229","location":"Jalan Pak Yusof","postcode":"21300","postOffice":"Kuala Terengganu","state":"Terengganu"},{"no":"230","location":"Jalan Panji Alam","postcode":"21100","postOffice":"Kuala Terengganu","state":"Terengganu"},{"no":"231","location":"Jalan Pantai","postcode":"20100","postOffice":"Kuala Terengganu","state":"Terengganu"},{"no":"232","location":"Jalan Pasar","postcode":"24000","postOffice":"Cukai","state":"Terengganu"},{"no":"233","location":"Jalan Pejabat","postcode":"20200","postOffice":"Kuala Terengganu","state":"Terengganu"},{"no":"234","location":"Jalan Penarek","postcode":"22100","postOffice":"Permaisuri","state":"Terengganu"},{"no":"235","location":"Jalan Penghiburan","postcode":"24000","postOffice":"Cukai","state":"Terengganu"},{"no":"236","location":"Jalan Peranginan","postcode":"20400","postOffice":"Kuala Terengganu","state":"Terengganu"},{"no":"237","location":"Jalan Petani","postcode":"20000","postOffice":"Kuala Terengganu","state":"Terengganu"},{"no":"238","location":"Jalan Pintasan","postcode":"21100","postOffice":"Kuala Terengganu","state":"Terengganu"},{"no":"239","location":"Jalan Pulau Musang","postcode":"20050","postOffice":"Kuala Terengganu","state":"Terengganu"},{"no":"240","location":"Jalan Pusara","postcode":"20400","postOffice":"Kuala Terengganu","state":"Terengganu"},{"no":"241","location":"Jalan Santong","postcode":"23100","postOffice":"Paka","state":"Terengganu"},{"no":"242","location":"Jalan Seb Baroh Kanan","postcode":"21000","postOffice":"Kuala Terengganu","state":"Terengganu"},{"no":"243","location":"Jalan Sekolah Rendah Gong Badak","postcode":"21030","postOffice":"Kuala Terengganu","state":"Terengganu"},{"no":"244","location":"Jalan Siakap","postcode":"21000","postOffice":"Kuala Terengganu","state":"Terengganu"},{"no":"245","location":"Jalan Sulaiman","postcode":"24000","postOffice":"Cukai","state":"Terengganu"},{"no":"246","location":"Jalan Sultan Ismail","postcode":"20200","postOffice":"Kuala Terengganu","state":"Terengganu"},{"no":"247","location":"Jalan Sultan Mahmud","postcode":"20400","postOffice":"Kuala Terengganu","state":"Terengganu"},{"no":"248","location":"Jalan Sultan Mohamad","postcode":"21100","postOffice":"Kuala Terengganu","state":"Terengganu"},{"no":"249","location":"Jalan Sultan Omar","postcode":"20300","postOffice":"Kuala Terengganu","state":"Terengganu"},{"no":"250","location":"Jalan Sultan Sulaiman","postcode":"20000","postOffice":"Kuala Terengganu","state":"Terengganu"},{"no":"251","location":"Jalan Sultan Zainal Abidin","postcode":"20000","postOffice":"Kuala Terengganu","state":"Terengganu"},{"no":"252","location":"Jalan Syed Hussein","postcode":"20100","postOffice":"Kuala Terengganu","state":"Terengganu"},{"no":"253","location":"Jalan Syed Zain","postcode":"20300","postOffice":"Kuala Terengganu","state":"Terengganu"},{"no":"254","location":"Jalan Taha","postcode":"24000","postOffice":"Cukai","state":"Terengganu"},{"no":"255","location":"Jalan Tanah Lot Wakaf Tembusu","postcode":"21300","postOffice":"Kuala Terengganu","state":"Terengganu"},{"no":"256","location":"Jalan Tekukor","postcode":"20300","postOffice":"Kuala Terengganu","state":"Terengganu"},{"no":"257","location":"Jalan Teratai","postcode":"24000","postOffice":"Cukai","state":"Terengganu"},{"no":"258","location":"Jalan Tok Lam","postcode":"20100","postOffice":"Kuala Terengganu","state":"Terengganu"},{"no":"259","location":"Jalan Ulu Serdang","postcode":"22100","postOffice":"Permaisuri","state":"Terengganu"},{"no":"260","location":"Jambu Bongkok","postcode":"21610","postOffice":"Marang","state":"Terengganu"},{"no":"261","location":"Jawatankuasa Keselamatan Negeri","postcode":"20200","postOffice":"Kuala Terengganu","state":"Terengganu"},{"no":"262","location":"Jerangau","postcode":"23200","postOffice":"Bukit Besi","state":"Terengganu"},{"no":"263","location":"Jerteh","postcode":"22000","postOffice":"Jerteh","state":"Terengganu"},{"no":"264","location":"Jongok Batu","postcode":"23000","postOffice":"Dungun","state":"Terengganu"},{"no":"265","location":"Kampung Air","postcode":"24000","postOffice":"Cukai","state":"Terengganu"},{"no":"266","location":"Kampung Air Hitam","postcode":"23100","postOffice":"Paka","state":"Terengganu"},{"no":"267","location":"Kampung Ajal","postcode":"21800","postOffice":"Ajil","state":"Terengganu"},{"no":"268","location":"Kampung Alor","postcode":"21070","postOffice":"Kuala Terengganu","state":"Terengganu"},{"no":"269","location":"Kampung Alor Belanga","postcode":"22000","postOffice":"Jerteh","state":"Terengganu"},{"no":"270","location":"Kampung Alor Gemia","postcode":"21060","postOffice":"Kuala Terengganu","state":"Terengganu"},{"no":"271","location":"Kampung Alor Jejawi","postcode":"23000","postOffice":"Dungun","state":"Terengganu"},{"no":"272","location":"Kampung Alor Keladi","postcode":"22000","postOffice":"Jerteh","state":"Terengganu"},{"no":"273","location":"Kampung Alor Kiambang","postcode":"21700","postOffice":"Kuala Berang","state":"Terengganu"},{"no":"274","location":"Kampung Alor Kuda Bukit Tok Beng","postcode":"21300","postOffice":"Kuala Terengganu","state":"Terengganu"},{"no":"275","location":"Kampung Alor Limbat","postcode":"21400","postOffice":"Bukit Payong","state":"Terengganu"},{"no":"276","location":"Kampung Alor Pasir","postcode":"22100","postOffice":"Permaisuri","state":"Terengganu"},{"no":"277","location":"Kampung Alor Selising","postcode":"22000","postOffice":"Jerteh","state":"Terengganu"},{"no":"278","location":"Kampung Alor Serdang","postcode":"22100","postOffice":"Permaisuri","state":"Terengganu"},{"no":"279","location":"Kampung Alor Simpol","postcode":"22200","postOffice":"Kampung Raja","state":"Terengganu"},{"no":"280","location":"Kampung Alor Tembusu","postcode":"23000","postOffice":"Dungun","state":"Terengganu"},{"no":"281","location":"Kampung Alor Tempoyak","postcode":"21070","postOffice":"Kuala Terengganu","state":"Terengganu"},{"no":"282","location":"Kampung Amir","postcode":"22200","postOffice":"Kampung Raja","state":"Terengganu"},{"no":"283","location":"Kampung Anak Ikan","postcode":"22020","postOffice":"Jerteh","state":"Terengganu"},{"no":"284","location":"Kampung Anak Musang","postcode":"22020","postOffice":"Jerteh","state":"Terengganu"},{"no":"285","location":"Kampung Apek","postcode":"22100","postOffice":"Permaisuri","state":"Terengganu"},{"no":"286","location":"Kampung Api Rokok","postcode":"24300","postOffice":"Kerteh","state":"Terengganu"},{"no":"287","location":"Kampung Atas Tebing","postcode":"24100","postOffice":"Kijal","state":"Terengganu"},{"no":"288","location":"Kampung Atas Tol","postcode":"21070","postOffice":"Kuala Terengganu","state":"Terengganu"},{"no":"289","location":"Kampung Aur","postcode":"20000","postOffice":"Kuala Terengganu","state":"Terengganu"},{"no":"290","location":"Kampung Awek Darau","postcode":"22000","postOffice":"Jerteh","state":"Terengganu"},{"no":"291","location":"Kampung Ayer Tawar","postcode":"22200","postOffice":"Kampung Raja","state":"Terengganu"},{"no":"292","location":"Kampung Ayer Terjun","postcode":"22000","postOffice":"Jerteh","state":"Terengganu"},{"no":"293","location":"Kampung Bahagia","postcode":"22100","postOffice":"Permaisuri","state":"Terengganu"},{"no":"294","location":"Kampung Bahagia Tok Kah","postcode":"23000","postOffice":"Dungun","state":"Terengganu"},{"no":"295","location":"Kampung Bakat","postcode":"22020","postOffice":"Jerteh","state":"Terengganu"},{"no":"296","location":"Kampung Bakau Tinggi","postcode":"24000","postOffice":"Cukai","state":"Terengganu"},{"no":"297","location":"Kampung Balai Besar","postcode":"23000","postOffice":"Dungun","state":"Terengganu"},{"no":"298","location":"Kampung Balik Bukit","postcode":"20300","postOffice":"Kuala Terengganu","state":"Terengganu"},{"no":"299","location":"Kampung Banggol","postcode":"20100","postOffice":"Kuala Terengganu","state":"Terengganu"},{"no":"300","location":"Kampung Banggol","postcode":"22100","postOffice":"Permaisuri","state":"Terengganu"},{"no":"301","location":"Kampung Banggol Ayer Lilih","postcode":"21200","postOffice":"Kuala Terengganu","state":"Terengganu"},{"no":"302","location":"Kampung Banggol Buloh","postcode":"21300","postOffice":"Kuala Terengganu","state":"Terengganu"},{"no":"303","location":"Kampung Banggol Chempedak","postcode":"20050","postOffice":"Kuala Terengganu","state":"Terengganu"},{"no":"304","location":"Kampung Banggol Dama","postcode":"21200","postOffice":"Kuala Terengganu","state":"Terengganu"},{"no":"305","location":"Kampung Banggol Kanan","postcode":"24000","postOffice":"Cukai","state":"Terengganu"},{"no":"306","location":"Kampung Banggol Kapas","postcode":"21400","postOffice":"Bukit Payong","state":"Terengganu"},{"no":"307","location":"Kampung Banggol Katong","postcode":"20050","postOffice":"Kuala Terengganu","state":"Terengganu"},{"no":"308","location":"Kampung Banggol Kiri","postcode":"24000","postOffice":"Cukai","state":"Terengganu"},{"no":"309","location":"Kampung Banggol Lalang","postcode":"20050","postOffice":"Kuala Terengganu","state":"Terengganu"},{"no":"310","location":"Kampung Banggol Limau","postcode":"21200","postOffice":"Kuala Terengganu","state":"Terengganu"},{"no":"311","location":"Kampung Banggol Manir","postcode":"21200","postOffice":"Kuala Terengganu","state":"Terengganu"},{"no":"312","location":"Kampung Banggol Nyour","postcode":"21060","postOffice":"Kuala Terengganu","state":"Terengganu"},{"no":"313","location":"Kampung Banggol Pauh","postcode":"21300","postOffice":"Kuala Terengganu","state":"Terengganu"},{"no":"314","location":"Kampung Banggol Putat","postcode":"21300","postOffice":"Kuala Terengganu","state":"Terengganu"},{"no":"315","location":"Kampung Banggol Setor","postcode":"21500","postOffice":"Sungai Tong","state":"Terengganu"},{"no":"316","location":"Kampung Banggol Tasek","postcode":"21400","postOffice":"Bukit Payong","state":"Terengganu"},{"no":"317","location":"Kampung Banggol Tok Ku","postcode":"20050","postOffice":"Kuala Terengganu","state":"Terengganu"},{"no":"318","location":"Kampung Banggol Tok Mudin","postcode":"20400","postOffice":"Kuala Terengganu","state":"Terengganu"},{"no":"319","location":"Kampung Banggol Tuan Muda","postcode":"21200","postOffice":"Kuala Terengganu","state":"Terengganu"},{"no":"320","location":"Kampung Bangsal","postcode":"20000","postOffice":"Kuala Terengganu","state":"Terengganu"},{"no":"321","location":"Kampung Bangsal Arang","postcode":"24300","postOffice":"Kerteh","state":"Terengganu"},{"no":"322","location":"Kampung Baran","postcode":"24050","postOffice":"Ayer Puteh","state":"Terengganu"},{"no":"323","location":"Kampung Bari Besar","postcode":"21010","postOffice":"Kuala Terengganu","state":"Terengganu"},{"no":"324","location":"Kampung Bari Besar","postcode":"21020","postOffice":"Kuala Terengganu","state":"Terengganu"},{"no":"325","location":"Kampung Bari Kecil","postcode":"22100","postOffice":"Permaisuri","state":"Terengganu"},{"no":"326","location":"Kampung Bari Kecil","postcode":"22120","postOffice":"Permaisuri","state":"Terengganu"},{"no":"327","location":"Kampung Baru","postcode":"22300","postOffice":"Kuala Besut","state":"Terengganu"},{"no":"328","location":"Kampung Baru","postcode":"23200","postOffice":"Bukit Besi","state":"Terengganu"},{"no":"329","location":"Kampung Baru","postcode":"24300","postOffice":"Kerteh","state":"Terengganu"},{"no":"330","location":"Kampung Baru","postcode":"22000","postOffice":"Jerteh","state":"Terengganu"},{"no":"331","location":"Kampung Baru Ajil","postcode":"21800","postOffice":"Ajil","state":"Terengganu"},{"no":"332","location":"Kampung Baru Ayer Tawar","postcode":"22200","postOffice":"Kampung Raja","state":"Terengganu"},{"no":"333","location":"Kampung Baru Batu Tumboh","postcode":"22200","postOffice":"Kampung Raja","state":"Terengganu"},{"no":"334","location":"Kampung Baru Bukit Anak Dara","postcode":"24100","postOffice":"Kijal","state":"Terengganu"},{"no":"335","location":"Kampung Baru Chabang","postcode":"24300","postOffice":"Kerteh","state":"Terengganu"},{"no":"336","location":"Kampung Baru Gong Bayor","postcode":"22200","postOffice":"Kampung Raja","state":"Terengganu"},{"no":"337","location":"Kampung Baru Kanan","postcode":"24100","postOffice":"Kijal","state":"Terengganu"},{"no":"338","location":"Kampung Baru Kuala Abang","postcode":"23050","postOffice":"Dungun","state":"Terengganu"},{"no":"339","location":"Kampung Baru Mardi","postcode":"21820","postOffice":"Ajil","state":"Terengganu"},{"no":"340","location":"Kampung Baru Paka","postcode":"23100","postOffice":"Paka","state":"Terengganu"},{"no":"341","location":"Kampung Baru Penarek","postcode":"22120","postOffice":"Permaisuri","state":"Terengganu"},{"no":"342","location":"Kampung Baru Pusu Tiga","postcode":"21300","postOffice":"Kuala Terengganu","state":"Terengganu"},{"no":"343","location":"Kampung Baru Seberang Takir","postcode":"21300","postOffice":"Kuala Terengganu","state":"Terengganu"},{"no":"344","location":"Kampung Baru Semanyor","postcode":"24200","postOffice":"Kemasek","state":"Terengganu"},{"no":"345","location":"Kampung Baru Serada","postcode":"20050","postOffice":"Kuala Terengganu","state":"Terengganu"},{"no":"346","location":"Kampung Baru Sungai Binjai","postcode":"21810","postOffice":"Ajil","state":"Terengganu"},{"no":"347","location":"Kampung Baru Tebing Tembah","postcode":"23100","postOffice":"Paka","state":"Terengganu"},{"no":"348","location":"Kampung Baru Tetambah","postcode":"21200","postOffice":"Kuala Terengganu","state":"Terengganu"},{"no":"349","location":"Kampung Baru Titian Berayong","postcode":"24100","postOffice":"Kijal","state":"Terengganu"},{"no":"350","location":"Kampung Baru Tok Dor","postcode":"22020","postOffice":"Jerteh","state":"Terengganu"},{"no":"351","location":"Kampung Baru Tok Mer","postcode":"21300","postOffice":"Kuala Terengganu","state":"Terengganu"},{"no":"352","location":"Kampung Baruh Mesin","postcode":"22000","postOffice":"Jerteh","state":"Terengganu"},{"no":"353","location":"Kampung Basung","postcode":"21700","postOffice":"Kuala Berang","state":"Terengganu"},{"no":"354","location":"Kampung Batangan","postcode":"21600","postOffice":"Marang","state":"Terengganu"},{"no":"355","location":"Kampung Batas Baru","postcode":"20300","postOffice":"Kuala Terengganu","state":"Terengganu"},{"no":"356","location":"Kampung Batu 13 (Jalan Lapangan Terbang)","postcode":"21300","postOffice":"Kuala Terengganu","state":"Terengganu"},{"no":"357","location":"Kampung Batu 14","postcode":"24050","postOffice":"Ayer Puteh","state":"Terengganu"},{"no":"358","location":"Kampung Batu 16","postcode":"24050","postOffice":"Ayer Puteh","state":"Terengganu"},{"no":"359","location":"Kampung Batu 18","postcode":"21800","postOffice":"Ajil","state":"Terengganu"},{"no":"360","location":"Kampung Batu 21","postcode":"21800","postOffice":"Ajil","state":"Terengganu"},{"no":"361","location":"Kampung Batu 23","postcode":"21700","postOffice":"Kuala Berang","state":"Terengganu"},{"no":"362","location":"Kampung Batu 23 (Jalan Kuala Berang)","postcode":"21700","postOffice":"Kuala Berang","state":"Terengganu"},{"no":"363","location":"Kampung Batu 24","postcode":"21700","postOffice":"Kuala Berang","state":"Terengganu"},{"no":"364","location":"Kampung Batu 28","postcode":"21500","postOffice":"Sungai Tong","state":"Terengganu"},{"no":"365","location":"Kampung Batu 30","postcode":"21500","postOffice":"Sungai Tong","state":"Terengganu"},{"no":"366","location":"Kampung Batu 32","postcode":"21820","postOffice":"Ajil","state":"Terengganu"},{"no":"367","location":"Kampung Batu 4 (Binjai)","postcode":"24000","postOffice":"Cukai","state":"Terengganu"},{"no":"368","location":"Kampung Batu 6 1/2 (Ayer Jerneh)","postcode":"24200","postOffice":"Kemasek","state":"Terengganu"},{"no":"369","location":"Kampung Batu Burok","postcode":"20400","postOffice":"Kuala Terengganu","state":"Terengganu"},{"no":"370","location":"Kampung Batu Enam","postcode":"23000","postOffice":"Dungun","state":"Terengganu"},{"no":"371","location":"Kampung Batu Hampar","postcode":"21200","postOffice":"Kuala Terengganu","state":"Terengganu"},{"no":"372","location":"Kampung Batu Hampar (Chalok)","postcode":"21450","postOffice":"Chalok","state":"Terengganu"},{"no":"373","location":"Kampung Batu Lapan","postcode":"21200","postOffice":"Kuala Terengganu","state":"Terengganu"},{"no":"374","location":"Kampung Batu Lima","postcode":"23000","postOffice":"Dungun","state":"Terengganu"},{"no":"375","location":"Kampung Batu Puteh","postcode":"23000","postOffice":"Dungun","state":"Terengganu"},{"no":"376","location":"Kampung Batu Puteh","postcode":"24300","postOffice":"Kerteh","state":"Terengganu"},{"no":"377","location":"Kampung Batu Tiong","postcode":"23000","postOffice":"Dungun","state":"Terengganu"},{"no":"378","location":"Kampung Batu Tujuh","postcode":"23000","postOffice":"Dungun","state":"Terengganu"},{"no":"379","location":"Kampung Baung","postcode":"21700","postOffice":"Kuala Berang","state":"Terengganu"},{"no":"380","location":"Kampung Bawah Atas Tol","postcode":"21070","postOffice":"Kuala Terengganu","state":"Terengganu"},{"no":"381","location":"Kampung Bekok","postcode":"22010","postOffice":"Jerteh","state":"Terengganu"},{"no":"382","location":"Kampung Beladau Kolam","postcode":"21200","postOffice":"Kuala Terengganu","state":"Terengganu"},{"no":"383","location":"Kampung Beladau Selat","postcode":"20050","postOffice":"Kuala Terengganu","state":"Terengganu"},{"no":"384","location":"Kampung Belakang Esso","postcode":"24000","postOffice":"Cukai","state":"Terengganu"},{"no":"385","location":"Kampung Belakang Hospital","postcode":"24000","postOffice":"Cukai","state":"Terengganu"},{"no":"386","location":"Kampung Belaoh","postcode":"22010","postOffice":"Jerteh","state":"Terengganu"},{"no":"387","location":"Kampung Belukar Bukit","postcode":"21800","postOffice":"Ajil","state":"Terengganu"},{"no":"388","location":"Kampung Belukar Jambu","postcode":"21080","postOffice":"Kuala Terengganu","state":"Terengganu"},{"no":"389","location":"Kampung Belukar Sukai","postcode":"20050","postOffice":"Kuala Terengganu","state":"Terengganu"},{"no":"390","location":"Kampung Berhala Tambun","postcode":"22000","postOffice":"Jerteh","state":"Terengganu"},{"no":"391","location":"Kampung Beris Nenas","postcode":"24100","postOffice":"Kijal","state":"Terengganu"},{"no":"392","location":"Kampung Beris Pak Abu","postcode":"22000","postOffice":"Jerteh","state":"Terengganu"},{"no":"393","location":"Kampung Beris Panggong","postcode":"22300","postOffice":"Kuala Besut","state":"Terengganu"},{"no":"394","location":"Kampung Beris Tokku","postcode":"22110","postOffice":"Permaisuri","state":"Terengganu"},{"no":"395","location":"Kampung Besol","postcode":"23200","postOffice":"Bukit Besi","state":"Terengganu"},{"no":"396","location":"Kampung Besut","postcode":"24000","postOffice":"Cukai","state":"Terengganu"},{"no":"397","location":"Kampung Besut","postcode":"22100","postOffice":"Permaisuri","state":"Terengganu"},{"no":"398","location":"Kampung Beting Lintang","postcode":"22200","postOffice":"Kampung Raja","state":"Terengganu"},{"no":"399","location":"Kampung Betong","postcode":"21800","postOffice":"Ajil","state":"Terengganu"},{"no":"400","location":"Kampung Binjai","postcode":"23000","postOffice":"Dungun","state":"Terengganu"},{"no":"401","location":"Kampung Binjai Bongkok","postcode":"21400","postOffice":"Bukit Payong","state":"Terengganu"},{"no":"402","location":"Kampung Binjai Kertas","postcode":"21700","postOffice":"Kuala Berang","state":"Terengganu"},{"no":"403","location":"Kampung Bintang","postcode":"22100","postOffice":"Permaisuri","state":"Terengganu"},{"no":"404","location":"Kampung Bukit Acheh","postcode":"21700","postOffice":"Kuala Berang","state":"Terengganu"},{"no":"405","location":"Kampung Bukit Aman","postcode":"21210","postOffice":"Kuala Terengganu","state":"Terengganu"},{"no":"406","location":"Kampung Bukit Anak Dara","postcode":"24100","postOffice":"Kijal","state":"Terengganu"},{"no":"407","location":"Kampung Bukit Apit","postcode":"21800","postOffice":"Ajil","state":"Terengganu"},{"no":"408","location":"Kampung Bukit Ara","postcode":"21800","postOffice":"Ajil","state":"Terengganu"},{"no":"409","location":"Kampung Bukit Batu Puteh","postcode":"21080","postOffice":"Kuala Terengganu","state":"Terengganu"},{"no":"410","location":"Kampung Bukit Bayas","postcode":"21100","postOffice":"Kuala Terengganu","state":"Terengganu"},{"no":"411","location":"Kampung Bukit Belah","postcode":"23000","postOffice":"Dungun","state":"Terengganu"},{"no":"412","location":"Kampung Bukit Beruang","postcode":"21700","postOffice":"Kuala Berang","state":"Terengganu"},{"no":"413","location":"Kampung Bukit Besar","postcode":"21100","postOffice":"Kuala Terengganu","state":"Terengganu"},{"no":"414","location":"Kampung Bukit Biah","postcode":"21700","postOffice":"Kuala Berang","state":"Terengganu"},{"no":"415","location":"Kampung Bukit Biman","postcode":"21800","postOffice":"Ajil","state":"Terengganu"},{"no":"416","location":"Kampung Bukit Chalok Penarek","postcode":"22120","postOffice":"Permaisuri","state":"Terengganu"},{"no":"417","location":"Kampung Bukit ChemPaka","postcode":"21060","postOffice":"Kuala Terengganu","state":"Terengganu"},{"no":"418","location":"Kampung Bukit Chempedak","postcode":"21040","postOffice":"Kuala Terengganu","state":"Terengganu"},{"no":"419","location":"Kampung Bukit Chendering","postcode":"21080","postOffice":"Kuala Terengganu","state":"Terengganu"},{"no":"420","location":"Kampung Bukit China","postcode":"22000","postOffice":"Jerteh","state":"Terengganu"},{"no":"421","location":"Kampung Bukit Datu","postcode":"21200","postOffice":"Kuala Terengganu","state":"Terengganu"},{"no":"422","location":"Kampung Bukit Depu","postcode":"21100","postOffice":"Kuala Terengganu","state":"Terengganu"},{"no":"423","location":"Kampung Bukit Gasing","postcode":"21600","postOffice":"Marang","state":"Terengganu"},{"no":"424","location":"Kampung Bukit Gemuruh","postcode":"21700","postOffice":"Kuala Berang","state":"Terengganu"},{"no":"425","location":"Kampung Bukit Guntong","postcode":"21060","postOffice":"Kuala Terengganu","state":"Terengganu"},{"no":"426","location":"Kampung Bukit Jambol","postcode":"20300","postOffice":"Kuala Terengganu","state":"Terengganu"},{"no":"427","location":"Kampung Bukit Kandis","postcode":"21200","postOffice":"Kuala Terengganu","state":"Terengganu"},{"no":"428","location":"Kampung Bukit Kechil","postcode":"21100","postOffice":"Kuala Terengganu","state":"Terengganu"},{"no":"429","location":"Kampung Bukit Kecil","postcode":"21450","postOffice":"Chalok","state":"Terengganu"},{"no":"430","location":"Kampung Bukit Kijang","postcode":"24200","postOffice":"Kemasek","state":"Terengganu"},{"no":"431","location":"Kampung Bukit Kolam","postcode":"21040","postOffice":"Kuala Terengganu","state":"Terengganu"},{"no":"432","location":"Kampung Bukit Kuang","postcode":"24000","postOffice":"Cukai","state":"Terengganu"},{"no":"433","location":"Kampung Bukit Kubang Jambu","postcode":"20050","postOffice":"Kuala Terengganu","state":"Terengganu"},{"no":"434","location":"Kampung Bukit Kubor","postcode":"21060","postOffice":"Kuala Terengganu","state":"Terengganu"},{"no":"435","location":"Kampung Bukit Lawan","postcode":"21210","postOffice":"Kuala Terengganu","state":"Terengganu"},{"no":"436","location":"Kampung Bukit Layak","postcode":"21450","postOffice":"Chalok","state":"Terengganu"},{"no":"437","location":"Kampung Bukit Losong","postcode":"21000","postOffice":"Kuala Terengganu","state":"Terengganu"},{"no":"438","location":"Kampung Bukit Mak Jintan","postcode":"21450","postOffice":"Chalok","state":"Terengganu"},{"no":"439","location":"Kampung Bukit Mali","postcode":"22010","postOffice":"Jerteh","state":"Terengganu"},{"no":"440","location":"Kampung Bukit Martiya","postcode":"21700","postOffice":"Kuala Berang","state":"Terengganu"},{"no":"441","location":"Kampung Bukit Mentok","postcode":"24000","postOffice":"Cukai","state":"Terengganu"},{"no":"442","location":"Kampung Bukit Merah","postcode":"21450","postOffice":"Chalok","state":"Terengganu"},{"no":"443","location":"Kampung Bukit Merah","postcode":"23100","postOffice":"Paka","state":"Terengganu"},{"no":"444","location":"Kampung Bukit Merah Padang Pulut","postcode":"23000","postOffice":"Dungun","state":"Terengganu"},{"no":"445","location":"Kampung Bukit Mok Som","postcode":"21450","postOffice":"Chalok","state":"Terengganu"},{"no":"446","location":"Kampung Bukit Mundok","postcode":"21500","postOffice":"Sungai Tong","state":"Terengganu"},{"no":"447","location":"Kampung Bukit Murai","postcode":"23000","postOffice":"Dungun","state":"Terengganu"},{"no":"448","location":"Kampung Bukit Nangka","postcode":"21060","postOffice":"Kuala Terengganu","state":"Terengganu"},{"no":"449","location":"Kampung Bukit Nenas","postcode":"21060","postOffice":"Kuala Terengganu","state":"Terengganu"},{"no":"450","location":"Kampung Bukit Nenas","postcode":"21500","postOffice":"Sungai Tong","state":"Terengganu"},{"no":"451","location":"Kampung Bukit Pahang Estate","postcode":"24300","postOffice":"Kerteh","state":"Terengganu"},{"no":"452","location":"Kampung Bukit Pak Long","postcode":"24200","postOffice":"Kemasek","state":"Terengganu"},{"no":"453","location":"Kampung Bukit Pauh","postcode":"23000","postOffice":"Dungun","state":"Terengganu"},{"no":"454","location":"Kampung Bukit Payong","postcode":"22010","postOffice":"Jerteh","state":"Terengganu"},{"no":"455","location":"Kampung Bukit Pelong","postcode":"22100","postOffice":"Permaisuri","state":"Terengganu"},{"no":"456","location":"Kampung Bukit Perah","postcode":"21800","postOffice":"Ajil","state":"Terengganu"},{"no":"457","location":"Kampung Bukit Perpat","postcode":"21800","postOffice":"Ajil","state":"Terengganu"},{"no":"458","location":"Kampung Bukit Petiti Belara","postcode":"21200","postOffice":"Kuala Terengganu","state":"Terengganu"},{"no":"459","location":"Kampung Bukit Pinang","postcode":"21450","postOffice":"Chalok","state":"Terengganu"},{"no":"460","location":"Kampung Bukit Putera","postcode":"21450","postOffice":"Chalok","state":"Terengganu"},{"no":"461","location":"Kampung Bukit Sembilan","postcode":"24100","postOffice":"Kijal","state":"Terengganu"},{"no":"462","location":"Kampung Bukit Seraman","postcode":"21200","postOffice":"Kuala Terengganu","state":"Terengganu"},{"no":"463","location":"Kampung Bukit Sungai Tong","postcode":"21500","postOffice":"Sungai Tong","state":"Terengganu"},{"no":"464","location":"Kampung Bukit Swee","postcode":"22100","postOffice":"Permaisuri","state":"Terengganu"},{"no":"465","location":"Kampung Bukit Tadok","postcode":"21210","postOffice":"Kuala Terengganu","state":"Terengganu"},{"no":"466","location":"Kampung Bukit Tanah","postcode":"21100","postOffice":"Kuala Terengganu","state":"Terengganu"},{"no":"467","location":"Kampung Bukit Tangki Ayer","postcode":"21000","postOffice":"Kuala Terengganu","state":"Terengganu"},{"no":"468","location":"Kampung Bukit Tempurong","postcode":"22000","postOffice":"Jerteh","state":"Terengganu"},{"no":"469","location":"Kampung Bukit Teruna Payoh","postcode":"24200","postOffice":"Kemasek","state":"Terengganu"},{"no":"470","location":"Kampung Bukit Tok Bat","postcode":"21700","postOffice":"Kuala Berang","state":"Terengganu"},{"no":"471","location":"Kampung Bukit Tok Beng","postcode":"21300","postOffice":"Kuala Terengganu","state":"Terengganu"},{"no":"472","location":"Kampung Bukit Tok Bilal","postcode":"23000","postOffice":"Dungun","state":"Terengganu"},{"no":"473","location":"Kampung Bukit Tok Hat","postcode":"21450","postOffice":"Chalok","state":"Terengganu"},{"no":"474","location":"Kampung Bukit Tok Ris","postcode":"21200","postOffice":"Kuala Terengganu","state":"Terengganu"},{"no":"475","location":"Kampung Bukit Tumboh","postcode":"21200","postOffice":"Kuala Terengganu","state":"Terengganu"},{"no":"476","location":"Kampung Bukit Tunggal","postcode":"21200","postOffice":"Kuala Terengganu","state":"Terengganu"},{"no":"477","location":"Kampung Buloh","postcode":"21700","postOffice":"Kuala Berang","state":"Terengganu"},{"no":"478","location":"Kampung Buloh","postcode":"22100","postOffice":"Permaisuri","state":"Terengganu"},{"no":"479","location":"Kampung Buloh Gading","postcode":"21200","postOffice":"Kuala Terengganu","state":"Terengganu"},{"no":"480","location":"Kampung Buruk","postcode":"22100","postOffice":"Permaisuri","state":"Terengganu"},{"no":"481","location":"Kampung Butut","postcode":"21700","postOffice":"Kuala Berang","state":"Terengganu"},{"no":"482","location":"Kampung Cabang","postcode":"24300","postOffice":"Kerteh","state":"Terengganu"},{"no":"483","location":"Kampung Cacar","postcode":"23100","postOffice":"Paka","state":"Terengganu"},{"no":"484","location":"Kampung Cacar Baru","postcode":"23100","postOffice":"Paka","state":"Terengganu"},{"no":"485","location":"Kampung Capu","postcode":"21700","postOffice":"Kuala Berang","state":"Terengganu"},{"no":"486","location":"Kampung Cawangan","postcode":"22010","postOffice":"Jerteh","state":"Terengganu"},{"no":"487","location":"Kampung Cekering","postcode":"21700","postOffice":"Kuala Berang","state":"Terengganu"},{"no":"488","location":"Kampung Cerang Melintang","postcode":"22000","postOffice":"Jerteh","state":"Terengganu"},{"no":"489","location":"Kampung Ceting","postcode":"21700","postOffice":"Kuala Berang","state":"Terengganu"},{"no":"490","location":"Kampung Chabang Bari","postcode":"21450","postOffice":"Chalok","state":"Terengganu"},{"no":"491","location":"Kampung Chalok Barat","postcode":"21450","postOffice":"Chalok","state":"Terengganu"},{"no":"492","location":"Kampung Che Lijah","postcode":"23000","postOffice":"Dungun","state":"Terengganu"},{"no":"493","location":"Kampung Che Long","postcode":"22100","postOffice":"Permaisuri","state":"Terengganu"},{"no":"494","location":"Kampung Che Mohd","postcode":"22100","postOffice":"Permaisuri","state":"Terengganu"},{"no":"495","location":"Kampung Che Wan","postcode":"24100","postOffice":"Kijal","state":"Terengganu"},{"no":"496","location":"Kampung Chendering","postcode":"21080","postOffice":"Kuala Terengganu","state":"Terengganu"},{"no":"497","location":"Kampung Chenderong Balai","postcode":"21800","postOffice":"Ajil","state":"Terengganu"},{"no":"498","location":"Kampung Chenderong Lebam","postcode":"21800","postOffice":"Ajil","state":"Terengganu"},{"no":"499","location":"Kampung Chepoh","postcode":"21210","postOffice":"Kuala Terengganu","state":"Terengganu"},{"no":"500","location":"Kampung Cherang Gajah","postcode":"21040","postOffice":"Kuala Terengganu","state":"Terengganu"},{"no":"501","location":"Kampung Cik Damat","postcode":"21100","postOffice":"Kuala Terengganu","state":"Terengganu"},{"no":"502","location":"Kampung Cina","postcode":"24000","postOffice":"Cukai","state":"Terengganu"},{"no":"503","location":"Kampung Daik","postcode":"20000","postOffice":"Kuala Terengganu","state":"Terengganu"},{"no":"504","location":"Kampung Dalam Bata","postcode":"20000","postOffice":"Kuala Terengganu","state":"Terengganu"},{"no":"505","location":"Kampung Dalam Huma","postcode":"22000","postOffice":"Jerteh","state":"Terengganu"},{"no":"506","location":"Kampung Darat Air Puteh","postcode":"24100","postOffice":"Kijal","state":"Terengganu"},{"no":"507","location":"Kampung Darat Haji Awang","postcode":"24100","postOffice":"Kijal","state":"Terengganu"},{"no":"508","location":"Kampung Darat Kijal","postcode":"24100","postOffice":"Kijal","state":"Terengganu"},{"no":"509","location":"Kampung Darat Olong","postcode":"24000","postOffice":"Cukai","state":"Terengganu"},{"no":"510","location":"Kampung Darat Penunjuk","postcode":"24100","postOffice":"Kijal","state":"Terengganu"},{"no":"511","location":"Kampung Darat Stesyen Bawah","postcode":"24100","postOffice":"Kijal","state":"Terengganu"},{"no":"512","location":"Kampung Darat Tok Wail","postcode":"21020","postOffice":"Kuala Terengganu","state":"Terengganu"},{"no":"513","location":"Kampung Darau","postcode":"22000","postOffice":"Jerteh","state":"Terengganu"},{"no":"514","location":"Kampung Dato Penglima Perang","postcode":"20000","postOffice":"Kuala Terengganu","state":"Terengganu"},{"no":"515","location":"Kampung Datuk Amar","postcode":"21800","postOffice":"Ajil","state":"Terengganu"},{"no":"516","location":"Kampung Delong","postcode":"23000","postOffice":"Dungun","state":"Terengganu"},{"no":"517","location":"Kampung Denger","postcode":"22000","postOffice":"Jerteh","state":"Terengganu"},{"no":"518","location":"Kampung Dengir Tenang","postcode":"22010","postOffice":"Jerteh","state":"Terengganu"},{"no":"519","location":"Kampung Dura","postcode":"21700","postOffice":"Kuala Berang","state":"Terengganu"},{"no":"520","location":"Kampung Durian Bador","postcode":"21700","postOffice":"Kuala Berang","state":"Terengganu"},{"no":"521","location":"Kampung Durian Burong","postcode":"20050","postOffice":"Kuala Terengganu","state":"Terengganu"},{"no":"522","location":"Kampung Durian Guling","postcode":"21040","postOffice":"Kuala Terengganu","state":"Terengganu"},{"no":"523","location":"Kampung Durian Mas","postcode":"21200","postOffice":"Kuala Terengganu","state":"Terengganu"},{"no":"524","location":"Kampung Durian Mentangau","postcode":"23100","postOffice":"Paka","state":"Terengganu"},{"no":"525","location":"Kampung Durian Merkah","postcode":"22000","postOffice":"Jerteh","state":"Terengganu"},{"no":"526","location":"Kampung Durian Pulut Merchang","postcode":"21610","postOffice":"Marang","state":"Terengganu"},{"no":"527","location":"Kampung Durian Rendang","postcode":"21800","postOffice":"Ajil","state":"Terengganu"},{"no":"528","location":"Kampung Durian Telor","postcode":"22000","postOffice":"Jerteh","state":"Terengganu"},{"no":"529","location":"Kampung Dusun","postcode":"21700","postOffice":"Kuala Berang","state":"Terengganu"},{"no":"530","location":"Kampung Dusun","postcode":"21200","postOffice":"Kuala Terengganu","state":"Terengganu"},{"no":"531","location":"Kampung Dusun Durian","postcode":"21020","postOffice":"Kuala Terengganu","state":"Terengganu"},{"no":"532","location":"Kampung Dusun Melintang","postcode":"20050","postOffice":"Kuala Terengganu","state":"Terengganu"},{"no":"533","location":"Kampung Dusun Nyior","postcode":"24000","postOffice":"Cukai","state":"Terengganu"},{"no":"534","location":"Kampung Dusun Pinang","postcode":"21200","postOffice":"Kuala Terengganu","state":"Terengganu"},{"no":"535","location":"Kampung Dusun Tembakan","postcode":"21200","postOffice":"Kuala Terengganu","state":"Terengganu"},{"no":"536","location":"Kampung Duyong","postcode":"21300","postOffice":"Kuala Terengganu","state":"Terengganu"},{"no":"537","location":"Kampung Duyong Haji Muda","postcode":"21300","postOffice":"Kuala Terengganu","state":"Terengganu"},{"no":"538","location":"Kampung Duyong Kecil","postcode":"21300","postOffice":"Kuala Terengganu","state":"Terengganu"},{"no":"539","location":"Kampung Duyun Haji Umar","postcode":"21300","postOffice":"Kuala Terengganu","state":"Terengganu"},{"no":"540","location":"Kampung Duyung Besar","postcode":"21300","postOffice":"Kuala Terengganu","state":"Terengganu"},{"no":"541","location":"Kampung Fikri","postcode":"24000","postOffice":"Cukai","state":"Terengganu"},{"no":"542","location":"Kampung Fikri","postcode":"22110","postOffice":"Permaisuri","state":"Terengganu"},{"no":"543","location":"Kampung Gaong","postcode":"21700","postOffice":"Kuala Berang","state":"Terengganu"},{"no":"544","location":"Kampung Gegar Batang","postcode":"22000","postOffice":"Jerteh","state":"Terengganu"},{"no":"545","location":"Kampung Gelang Mas","postcode":"22200","postOffice":"Kampung Raja","state":"Terengganu"},{"no":"546","location":"Kampung Geliga","postcode":"24000","postOffice":"Cukai","state":"Terengganu"},{"no":"547","location":"Kampung Geliga Baru","postcode":"24000","postOffice":"Cukai","state":"Terengganu"},{"no":"548","location":"Kampung Geliga Besar","postcode":"24000","postOffice":"Cukai","state":"Terengganu"},{"no":"549","location":"Kampung Geliga Haji Ali","postcode":"24000","postOffice":"Cukai","state":"Terengganu"},{"no":"550","location":"Kampung Geliga Jambatan","postcode":"24000","postOffice":"Cukai","state":"Terengganu"},{"no":"551","location":"Kampung Geliga Mengambang","postcode":"24000","postOffice":"Cukai","state":"Terengganu"},{"no":"552","location":"Kampung Gelong Bilal","postcode":"21100","postOffice":"Kuala Terengganu","state":"Terengganu"},{"no":"553","location":"Kampung Gelong Gajah","postcode":"21020","postOffice":"Kuala Terengganu","state":"Terengganu"},{"no":"554","location":"Kampung Gelugor","postcode":"24300","postOffice":"Kerteh","state":"Terengganu"},{"no":"555","location":"Kampung Gelugor Haji Tahir","postcode":"20050","postOffice":"Kuala Terengganu","state":"Terengganu"},{"no":"556","location":"Kampung Gelugor Kedai","postcode":"20050","postOffice":"Kuala Terengganu","state":"Terengganu"},{"no":"557","location":"Kampung Gelugor Raja","postcode":"20050","postOffice":"Kuala Terengganu","state":"Terengganu"},{"no":"558","location":"Kampung Gemia","postcode":"23100","postOffice":"Paka","state":"Terengganu"},{"no":"559","location":"Kampung Gemuroh","postcode":"21060","postOffice":"Kuala Terengganu","state":"Terengganu"},{"no":"560","location":"Kampung Gerai Muda","postcode":"22000","postOffice":"Jerteh","state":"Terengganu"},{"no":"561","location":"Kampung Gerai Tua","postcode":"22000","postOffice":"Jerteh","state":"Terengganu"},{"no":"562","location":"Kampung Gerdong","postcode":"21700","postOffice":"Kuala Berang","state":"Terengganu"},{"no":"563","location":"Kampung Gertak Seratus","postcode":"22300","postOffice":"Kuala Besut","state":"Terengganu"},{"no":"564","location":"Kampung Getang","postcode":"21210","postOffice":"Kuala Terengganu","state":"Terengganu"},{"no":"565","location":"Kampung Gong Arang","postcode":"21010","postOffice":"Kuala Terengganu","state":"Terengganu"},{"no":"566","location":"Kampung Gong Badak","postcode":"21300","postOffice":"Kuala Terengganu","state":"Terengganu"},{"no":"567","location":"Kampung Gong Badang","postcode":"22000","postOffice":"Jerteh","state":"Terengganu"},{"no":"568","location":"Kampung Gong Balai","postcode":"21610","postOffice":"Marang","state":"Terengganu"},{"no":"569","location":"Kampung Gong Baru","postcode":"21100","postOffice":"Kuala Terengganu","state":"Terengganu"},{"no":"570","location":"Kampung Gong Batu","postcode":"22110","postOffice":"Permaisuri","state":"Terengganu"},{"no":"581","location":"Kampung Gong Katut","postcode":"21300","postOffice":"Kuala Terengganu","state":"Terengganu"},{"no":"582","location":"Kampung Gong Kemunting","postcode":"20400","postOffice":"Kuala Terengganu","state":"Terengganu"},{"no":"583","location":"Kampung Gong Kepas","postcode":"22200","postOffice":"Kampung Raja","state":"Terengganu"},{"no":"584","location":"Kampung Gong Kijang","postcode":"21200","postOffice":"Kuala Terengganu","state":"Terengganu"},{"no":"585","location":"Kampung Gong Kuin","postcode":"21300","postOffice":"Kuala Terengganu","state":"Terengganu"},{"no":"586","location":"Kampung Gong Lilit","postcode":"22020","postOffice":"Jerteh","state":"Terengganu"},{"no":"587","location":"Kampung Gong Limau","postcode":"24000","postOffice":"Cukai","state":"Terengganu"},{"no":"588","location":"Kampung Gong Machang","postcode":"22200","postOffice":"Kampung Raja","state":"Terengganu"},{"no":"589","location":"Kampung Gong Mat Som","postcode":"22000","postOffice":"Jerteh","state":"Terengganu"},{"no":"590","location":"Kampung Gong Nangka","postcode":"22000","postOffice":"Jerteh","state":"Terengganu"},{"no":"591","location":"Kampung Gong Nangka","postcode":"21600","postOffice":"Marang","state":"Terengganu"},{"no":"592","location":"Kampung Gong Nangka","postcode":"21100","postOffice":"Kuala Terengganu","state":"Terengganu"},{"no":"593","location":"Kampung Gong Pak Cheng","postcode":"22000","postOffice":"Jerteh","state":"Terengganu"},{"no":"594","location":"Kampung Gong Pak Damak","postcode":"21200","postOffice":"Kuala Terengganu","state":"Terengganu"},{"no":"595","location":"Kampung Gong Pak Maseh","postcode":"21100","postOffice":"Kuala Terengganu","state":"Terengganu"},{"no":"596","location":"Kampung Gong Parit","postcode":"21100","postOffice":"Kuala Terengganu","state":"Terengganu"},{"no":"597","location":"Kampung Gong Pasir","postcode":"22000","postOffice":"Jerteh","state":"Terengganu"},{"no":"598","location":"Kampung Gong Pasir","postcode":"23000","postOffice":"Dungun","state":"Terengganu"},{"no":"599","location":"Kampung Gong Pasir Jabi","postcode":"22020","postOffice":"Jerteh","state":"Terengganu"},{"no":"600","location":"Kampung Gong Pasir Oh","postcode":"22020","postOffice":"Jerteh","state":"Terengganu"},{"no":"601","location":"Kampung Gong Pauh","postcode":"24000","postOffice":"Cukai","state":"Terengganu"},{"no":"602","location":"Kampung Gong Pauh","postcode":"20050","postOffice":"Kuala Terengganu","state":"Terengganu"},{"no":"603","location":"Kampung Gong Penaga","postcode":"21100","postOffice":"Kuala Terengganu","state":"Terengganu"},{"no":"604","location":"Kampung Gong Penaga","postcode":"22000","postOffice":"Jerteh","state":"Terengganu"},{"no":"605","location":"Kampung Gong Penaga Jabi","postcode":"22020","postOffice":"Jerteh","state":"Terengganu"},{"no":"606","location":"Kampung Gong Pipit","postcode":"20050","postOffice":"Kuala Terengganu","state":"Terengganu"},{"no":"607","location":"Kampung Gong Rengas","postcode":"22000","postOffice":"Jerteh","state":"Terengganu"},{"no":"608","location":"Kampung Gong Sentol","postcode":"21200","postOffice":"Kuala Terengganu","state":"Terengganu"},{"no":"609","location":"Kampung Gong Tanah Merah","postcode":"22000","postOffice":"Jerteh","state":"Terengganu"},{"no":"610","location":"Kampung Gong Terap","postcode":"22000","postOffice":"Jerteh","state":"Terengganu"},{"no":"611","location":"Kampung Gong Terap Chalok","postcode":"21450","postOffice":"Chalok","state":"Terengganu"},{"no":"612","location":"Kampung Gong Tiang Layar","postcode":"22200","postOffice":"Kampung Raja","state":"Terengganu"},{"no":"613","location":"Kampung Gong Tiong","postcode":"22200","postOffice":"Kampung Raja","state":"Terengganu"},{"no":"614","location":"Kampung Gong Tok Nasek","postcode":"21100","postOffice":"Kuala Terengganu","state":"Terengganu"},{"no":"615","location":"Kampung Guchil","postcode":"21300","postOffice":"Kuala Terengganu","state":"Terengganu"},{"no":"616","location":"Kampung Gunong","postcode":"21800","postOffice":"Ajil","state":"Terengganu"},{"no":"617","location":"Kampung Guntong","postcode":"22100","postOffice":"Permaisuri","state":"Terengganu"},{"no":"618","location":"Kampung Guntong Dalam","postcode":"22100","postOffice":"Permaisuri","state":"Terengganu"},{"no":"619","location":"Kampung Guntong Luar","postcode":"22100","postOffice":"Permaisuri","state":"Terengganu"},{"no":"620","location":"Kampung Habib Mohsin","postcode":"24050","postOffice":"Ayer Puteh","state":"Terengganu"},{"no":"621","location":"Kampung Hilir Pasir Gajah","postcode":"24050","postOffice":"Ayer Puteh","state":"Terengganu"},{"no":"622","location":"Kampung Hiliran Binjai Besar","postcode":"21000","postOffice":"Kuala Terengganu","state":"Terengganu"},{"no":"623","location":"Kampung Hiliran Masjid","postcode":"21000","postOffice":"Kuala Terengganu","state":"Terengganu"},{"no":"624","location":"Kampung Hiliran Parit Gali","postcode":"21000","postOffice":"Kuala Terengganu","state":"Terengganu"},{"no":"625","location":"Kampung Hiliran Surau Baru","postcode":"21000","postOffice":"Kuala Terengganu","state":"Terengganu"},{"no":"626","location":"Kampung Hujung Tanjung Luang","postcode":"21300","postOffice":"Kuala Terengganu","state":"Terengganu"},{"no":"627","location":"Kampung Hulu","postcode":"24050","postOffice":"Ayer Puteh","state":"Terengganu"},{"no":"628","location":"Kampung Hulu Pasir Gajah","postcode":"24050","postOffice":"Ayer Puteh","state":"Terengganu"},{"no":"629","location":"Kampung Hulu Sat","postcode":"21700","postOffice":"Kuala Berang","state":"Terengganu"},{"no":"630","location":"Kampung Hulu Seberang Tayor","postcode":"24050","postOffice":"Ayer Puteh","state":"Terengganu"},{"no":"631","location":"Kampung Hulur Takur","postcode":"21300","postOffice":"Kuala Terengganu","state":"Terengganu"},{"no":"632","location":"Kampung Hutan Nangka","postcode":"22000","postOffice":"Jerteh","state":"Terengganu"},{"no":"633","location":"Kampung Ibai","postcode":"24100","postOffice":"Kijal","state":"Terengganu"},{"no":"634","location":"Kampung Ibok","postcode":"24100","postOffice":"Kijal","state":"Terengganu"},{"no":"635","location":"Kampung Jabar","postcode":"21800","postOffice":"Ajil","state":"Terengganu"},{"no":"636","location":"Kampung Jabur Kubur","postcode":"24000","postOffice":"Cukai","state":"Terengganu"},{"no":"637","location":"Kampung Jak","postcode":"21800","postOffice":"Ajil","state":"Terengganu"},{"no":"638","location":"Kampung Jambu Bongkok","postcode":"21610","postOffice":"Marang","state":"Terengganu"},{"no":"639","location":"Kampung Jaya","postcode":"24000","postOffice":"Cukai","state":"Terengganu"},{"no":"640","location":"Kampung Jaya Baru Nasri","postcode":"21810","postOffice":"Ajil","state":"Terengganu"},{"no":"641","location":"Kampung Jaya Sungai Tong","postcode":"21500","postOffice":"Sungai Tong","state":"Terengganu"},{"no":"642","location":"Kampung Jel","postcode":"20100","postOffice":"Kuala Terengganu","state":"Terengganu"},{"no":"643","location":"Kampung Jelapang","postcode":"21500","postOffice":"Sungai Tong","state":"Terengganu"},{"no":"644","location":"Kampung Jelapang","postcode":"21450","postOffice":"Chalok","state":"Terengganu"},{"no":"645","location":"Kampung Jenagor","postcode":"21700","postOffice":"Kuala Berang","state":"Terengganu"},{"no":"646","location":"Kampung Jenang","postcode":"21600","postOffice":"Marang","state":"Terengganu"},{"no":"647","location":"Kampung Jeram","postcode":"21200","postOffice":"Kuala Terengganu","state":"Terengganu"},{"no":"648","location":"Kampung Jeram Hilir","postcode":"21060","postOffice":"Kuala Terengganu","state":"Terengganu"},{"no":"649","location":"Kampung Jeram Hulu","postcode":"21060","postOffice":"Kuala Terengganu","state":"Terengganu"},{"no":"650","location":"Kampung Jerangau","postcode":"23200","postOffice":"Bukit Besi","state":"Terengganu"},{"no":"651","location":"Kampung Jerlang","postcode":"21800","postOffice":"Ajil","state":"Terengganu"},{"no":"652","location":"Kampung Jerong Surau","postcode":"21040","postOffice":"Kuala Terengganu","state":"Terengganu"},{"no":"653","location":"Kampung Jerong Tuan","postcode":"21040","postOffice":"Kuala Terengganu","state":"Terengganu"},{"no":"654","location":"Kampung Jong Berlaboh","postcode":"24100","postOffice":"Kijal","state":"Terengganu"},{"no":"655","location":"Kampung Jongkok Batu","postcode":"23000","postOffice":"Dungun","state":"Terengganu"},{"no":"656","location":"Kampung Kayu Arang","postcode":"21040","postOffice":"Kuala Terengganu","state":"Terengganu"},{"no":"657","location":"Kampung Kayu Kelat","postcode":"21300","postOffice":"Kuala Terengganu","state":"Terengganu"},{"no":"658","location":"Kampung Kayu Kelat","postcode":"21600","postOffice":"Marang","state":"Terengganu"},{"no":"659","location":"Kampung Kayu Kelat","postcode":"22300","postOffice":"Kuala Besut","state":"Terengganu"},{"no":"660","location":"Kampung Kebor Ayer","postcode":"21200","postOffice":"Kuala Terengganu","state":"Terengganu"},{"no":"661","location":"Kampung Kebor Besar","postcode":"21200","postOffice":"Kuala Terengganu","state":"Terengganu"},{"no":"662","location":"Kampung Kebun Melaka","postcode":"21300","postOffice":"Kuala Terengganu","state":"Terengganu"},{"no":"663","location":"Kampung Kedai Buloh","postcode":"21070","postOffice":"Kuala Terengganu","state":"Terengganu"},{"no":"664","location":"Kampung Kedai Kepong","postcode":"20050","postOffice":"Kuala Terengganu","state":"Terengganu"},{"no":"665","location":"Kampung Kedai Manir","postcode":"21200","postOffice":"Kuala Terengganu","state":"Terengganu"},{"no":"666","location":"Kampung Kederang","postcode":"22100","postOffice":"Permaisuri","state":"Terengganu"},{"no":"667","location":"Kampung Kelantan","postcode":"21300","postOffice":"Kuala Terengganu","state":"Terengganu"},{"no":"668","location":"Kampung Keluang","postcode":"22200","postOffice":"Kampung Raja","state":"Terengganu"},{"no":"669","location":"Kampung Kelulut","postcode":"21600","postOffice":"Marang","state":"Terengganu"},{"no":"670","location":"Kampung Kemat","postcode":"21700","postOffice":"Kuala Berang","state":"Terengganu"},{"no":"671","location":"Kampung Kemudi","postcode":"23000","postOffice":"Dungun","state":"Terengganu"},{"no":"672","location":"Kampung Kepah","postcode":"21700","postOffice":"Kuala Berang","state":"Terengganu"},{"no":"673","location":"Kampung Kepala Gajah","postcode":"22020","postOffice":"Jerteh","state":"Terengganu"},{"no":"674","location":"Kampung Kepong","postcode":"20050","postOffice":"Kuala Terengganu","state":"Terengganu"},{"no":"675","location":"Kampung Kertas Pulas","postcode":"23050","postOffice":"Dungun","state":"Terengganu"},{"no":"676","location":"Kampung Keruak","postcode":"22010","postOffice":"Jerteh","state":"Terengganu"},{"no":"677","location":"Kampung Kesom","postcode":"21200","postOffice":"Kuala Terengganu","state":"Terengganu"},{"no":"678","location":"Kampung Kesom Che Nordin","postcode":"21200","postOffice":"Kuala Terengganu","state":"Terengganu"},{"no":"679","location":"Kampung Kesom Padang Tambak","postcode":"21200","postOffice":"Kuala Terengganu","state":"Terengganu"},{"no":"680","location":"Kampung Ketapang","postcode":"21080","postOffice":"Kuala Terengganu","state":"Terengganu"},{"no":"681","location":"Kampung Kijing","postcode":"21600","postOffice":"Marang","state":"Terengganu"},{"no":"682","location":"Kampung Kolam","postcode":"20000","postOffice":"Kuala Terengganu","state":"Terengganu"},{"no":"683","location":"Kampung Kolam Ajil","postcode":"21800","postOffice":"Ajil","state":"Terengganu"},{"no":"684","location":"Kampung Kolam Austasia","postcode":"24300","postOffice":"Kerteh","state":"Terengganu"},{"no":"685","location":"Kampung Kolam Jerteh","postcode":"22000","postOffice":"Jerteh","state":"Terengganu"},{"no":"686","location":"Kampung Kolam Kuala Ibai","postcode":"20400","postOffice":"Kuala Terengganu","state":"Terengganu"},{"no":"687","location":"Kampung Kota","postcode":"21200","postOffice":"Kuala Terengganu","state":"Terengganu"},{"no":"688","location":"Kampung Kua","postcode":"21800","postOffice":"Ajil","state":"Terengganu"},{"no":"689","location":"Kampung Kuala Abang","postcode":"23050","postOffice":"Dungun","state":"Terengganu"},{"no":"690","location":"Kampung Kuala Akub","postcode":"21700","postOffice":"Kuala Berang","state":"Terengganu"},{"no":"691","location":"Kampung Kuala Bekah","postcode":"20050","postOffice":"Kuala Terengganu","state":"Terengganu"},{"no":"692","location":"Kampung Kuala Bekah (Pengkalan Berangan)","postcode":"21040","postOffice":"Kuala Terengganu","state":"Terengganu"},{"no":"693","location":"Kampung Kuala Bekah Pasar","postcode":"20050","postOffice":"Kuala Terengganu","state":"Terengganu"},{"no":"694","location":"Kampung Kuala Belara","postcode":"21200","postOffice":"Kuala Terengganu","state":"Terengganu"},{"no":"695","location":"Kampung Kuala Ibai","postcode":"20400","postOffice":"Kuala Terengganu","state":"Terengganu"},{"no":"696","location":"Kampung Kuala Jeneris","postcode":"21700","postOffice":"Kuala Berang","state":"Terengganu"},{"no":"697","location":"Kampung Kuala Kemaman","postcode":"24000","postOffice":"Cukai","state":"Terengganu"},{"no":"698","location":"Kampung Kuala Lubang","postcode":"22020","postOffice":"Jerteh","state":"Terengganu"},{"no":"699","location":"Kampung Kuala Menjing","postcode":"21700","postOffice":"Kuala Berang","state":"Terengganu"},{"no":"700","location":"Kampung Kuala Ping","postcode":"21700","postOffice":"Kuala Berang","state":"Terengganu"},{"no":"711","location":"Kampung Kubang Bujok","postcode":"21200","postOffice":"Kuala Terengganu","state":"Terengganu"},{"no":"712","location":"Kampung Kubang Bujok","postcode":"20050","postOffice":"Kuala Terengganu","state":"Terengganu"},{"no":"713","location":"Kampung Kubang Buyong","postcode":"21000","postOffice":"Kuala Terengganu","state":"Terengganu"},{"no":"714","location":"Kampung Kubang Ikan","postcode":"21200","postOffice":"Kuala Terengganu","state":"Terengganu"},{"no":"715","location":"Kampung Kubang Ikan","postcode":"21080","postOffice":"Kuala Terengganu","state":"Terengganu"},{"no":"716","location":"Kampung Kubang Jela","postcode":"21200","postOffice":"Kuala Terengganu","state":"Terengganu"},{"no":"717","location":"Kampung Kubang Kura","postcode":"20050","postOffice":"Kuala Terengganu","state":"Terengganu"},{"no":"718","location":"Kampung Kubang Kurus","postcode":"24050","postOffice":"Ayer Puteh","state":"Terengganu"},{"no":"719","location":"Kampung Kubang Palas","postcode":"21210","postOffice":"Kuala Terengganu","state":"Terengganu"},{"no":"720","location":"Kampung Kubang Panjang","postcode":"21400","postOffice":"Bukit Payong","state":"Terengganu"},{"no":"721","location":"Kampung Kubang Parit","postcode":"20050","postOffice":"Kuala Terengganu","state":"Terengganu"},{"no":"722","location":"Kampung Kubang Putat","postcode":"23050","postOffice":"Dungun","state":"Terengganu"},{"no":"723","location":"Kampung Kubang Puyu","postcode":"21450","postOffice":"Chalok","state":"Terengganu"},{"no":"724","location":"Kampung Kubang Tangga","postcode":"20050","postOffice":"Kuala Terengganu","state":"Terengganu"},{"no":"725","location":"Kampung Kubang Temiang","postcode":"23050","postOffice":"Dungun","state":"Terengganu"},{"no":"726","location":"Kampung Kubang Tepak","postcode":"21200","postOffice":"Kuala Terengganu","state":"Terengganu"},{"no":"727","location":"Kampung Kubang Terap","postcode":"20050","postOffice":"Kuala Terengganu","state":"Terengganu"},{"no":"728","location":"Kampung Kubor Kechil","postcode":"21100","postOffice":"Kuala Terengganu","state":"Terengganu"},{"no":"729","location":"Kampung Kubor Timah","postcode":"21020","postOffice":"Kuala Terengganu","state":"Terengganu"},{"no":"730","location":"Kampung Kubur","postcode":"23200","postOffice":"Bukit Besi","state":"Terengganu"},{"no":"731","location":"Kampung La","postcode":"22010","postOffice":"Jerteh","state":"Terengganu"},{"no":"732","location":"Kampung Labohan","postcode":"24300","postOffice":"Kerteh","state":"Terengganu"},{"no":"733","location":"Kampung Ladang Cicar","postcode":"20000","postOffice":"Kuala Terengganu","state":"Terengganu"},{"no":"734","location":"Kampung Ladang Hospital","postcode":"20400","postOffice":"Kuala Terengganu","state":"Terengganu"},{"no":"735","location":"Kampung Ladang Mengabang","postcode":"20000","postOffice":"Kuala Terengganu","state":"Terengganu"},{"no":"736","location":"Kampung Ladang Pasar","postcode":"20000","postOffice":"Kuala Terengganu","state":"Terengganu"},{"no":"737","location":"Kampung Ladang Sekolah","postcode":"20000","postOffice":"Kuala Terengganu","state":"Terengganu"},{"no":"738","location":"Kampung Ladang Sheikh Ibrahim","postcode":"20400","postOffice":"Kuala Terengganu","state":"Terengganu"},{"no":"739","location":"Kampung Ladang Sihat","postcode":"20400","postOffice":"Kuala Terengganu","state":"Terengganu"},{"no":"740","location":"Kampung Ladang Titian","postcode":"20000","postOffice":"Kuala Terengganu","state":"Terengganu"},{"no":"741","location":"Kampung Laha","postcode":"22200","postOffice":"Kampung Raja","state":"Terengganu"},{"no":"742","location":"Kampung Laman","postcode":"22200","postOffice":"Kampung Raja","state":"Terengganu"},{"no":"743","location":"Kampung Lampu","postcode":"22300","postOffice":"Kuala Besut","state":"Terengganu"},{"no":"744","location":"Kampung Landas","postcode":"21810","postOffice":"Ajil","state":"Terengganu"},{"no":"745","location":"Kampung Landas Estate","postcode":"21820","postOffice":"Ajil","state":"Terengganu"},{"no":"746","location":"Kampung Langgar","postcode":"21700","postOffice":"Kuala Berang","state":"Terengganu"},{"no":"747","location":"Kampung Langgar Hilir","postcode":"21700","postOffice":"Kuala Berang","state":"Terengganu"},{"no":"748","location":"Kampung Langgar Hulu","postcode":"21700","postOffice":"Kuala Berang","state":"Terengganu"},{"no":"749","location":"Kampung Langkap","postcode":"21500","postOffice":"Sungai Tong","state":"Terengganu"},{"no":"750","location":"Kampung Lao Lok","postcode":"22000","postOffice":"Jerteh","state":"Terengganu"},{"no":"751","location":"Kampung Lapan Kejor","postcode":"22000","postOffice":"Jerteh","state":"Terengganu"},{"no":"752","location":"Kampung Lapan Kotak","postcode":"22000","postOffice":"Jerteh","state":"Terengganu"},{"no":"753","location":"Kampung Lasir Darat Kijal","postcode":"24100","postOffice":"Kijal","state":"Terengganu"},{"no":"754","location":"Kampung Laut","postcode":"21080","postOffice":"Kuala Terengganu","state":"Terengganu"},{"no":"755","location":"Kampung Laut Pasir Gajah","postcode":"24050","postOffice":"Ayer Puteh","state":"Terengganu"},{"no":"756","location":"Kampung Lay Out (Jabi)","postcode":"22020","postOffice":"Jerteh","state":"Terengganu"},{"no":"757","location":"Kampung Layout Cacar","postcode":"23100","postOffice":"Paka","state":"Terengganu"},{"no":"758","location":"Kampung Lerek","postcode":"21800","postOffice":"Ajil","state":"Terengganu"},{"no":"759","location":"Kampung Limbong","postcode":"23100","postOffice":"Paka","state":"Terengganu"},{"no":"760","location":"Kampung Lohor","postcode":"22200","postOffice":"Kampung Raja","state":"Terengganu"},{"no":"761","location":"Kampung Loke Kod Ayer Jernih","postcode":"24200","postOffice":"Kemasek","state":"Terengganu"},{"no":"762","location":"Kampung Lorong Salak","postcode":"21000","postOffice":"Kuala Terengganu","state":"Terengganu"},{"no":"763","location":"Kampung Losong Atap Zing","postcode":"21000","postOffice":"Kuala Terengganu","state":"Terengganu"},{"no":"764","location":"Kampung Losong Bata","postcode":"21000","postOffice":"Kuala Terengganu","state":"Terengganu"},{"no":"765","location":"Kampung Losong Dato Amar","postcode":"21000","postOffice":"Kuala Terengganu","state":"Terengganu"},{"no":"766","location":"Kampung Losong Ebeng","postcode":"21000","postOffice":"Kuala Terengganu","state":"Terengganu"},{"no":"767","location":"Kampung Losong Haji Awang","postcode":"21000","postOffice":"Kuala Terengganu","state":"Terengganu"},{"no":"768","location":"Kampung Losong Haji Long Hakim","postcode":"21000","postOffice":"Kuala Terengganu","state":"Terengganu"},{"no":"769","location":"Kampung Losong Haji Mohd","postcode":"21000","postOffice":"Kuala Terengganu","state":"Terengganu"},{"no":"770","location":"Kampung Losong Haji Su","postcode":"21000","postOffice":"Kuala Terengganu","state":"Terengganu"},{"no":"771","location":"Kampung Losong Haji Wan Nawang","postcode":"21000","postOffice":"Kuala Terengganu","state":"Terengganu"},{"no":"772","location":"Kampung Losong Masjid","postcode":"21000","postOffice":"Kuala Terengganu","state":"Terengganu"},{"no":"773","location":"Kampung Losong Megat Husain","postcode":"21000","postOffice":"Kuala Terengganu","state":"Terengganu"},{"no":"774","location":"Kampung Losong Pak Bas","postcode":"21000","postOffice":"Kuala Terengganu","state":"Terengganu"},{"no":"775","location":"Kampung Losong Panglima Perang","postcode":"21000","postOffice":"Kuala Terengganu","state":"Terengganu"},{"no":"776","location":"Kampung Losong Pasir","postcode":"21000","postOffice":"Kuala Terengganu","state":"Terengganu"},{"no":"777","location":"Kampung Losong Tangkol Hijau","postcode":"21000","postOffice":"Kuala Terengganu","state":"Terengganu"},{"no":"778","location":"Kampung Lot Seri Jaya","postcode":"24000","postOffice":"Cukai","state":"Terengganu"},{"no":"779","location":"Kampung Lubok Batu (Kuala Telemong)","postcode":"21210","postOffice":"Kuala Terengganu","state":"Terengganu"},{"no":"780","location":"Kampung Lubok Batu (Wakaf Tapai)","postcode":"21040","postOffice":"Kuala Terengganu","state":"Terengganu"},{"no":"781","location":"Kampung Lubok Kawah","postcode":"22000","postOffice":"Jerteh","state":"Terengganu"},{"no":"782","location":"Kampung Lubok Periok","postcode":"21800","postOffice":"Ajil","state":"Terengganu"},{"no":"783","location":"Kampung Lubuk Pait","postcode":"21700","postOffice":"Kuala Berang","state":"Terengganu"},{"no":"784","location":"Kampung Lubuk Panjang","postcode":"21450","postOffice":"Chalok","state":"Terengganu"},{"no":"785","location":"Kampung Machang","postcode":"21800","postOffice":"Ajil","state":"Terengganu"},{"no":"786","location":"Kampung Mak Chili","postcode":"24000","postOffice":"Cukai","state":"Terengganu"},{"no":"787","location":"Kampung Mak Cili Paya","postcode":"24000","postOffice":"Cukai","state":"Terengganu"},{"no":"788","location":"Kampung Mak Dayang","postcode":"24000","postOffice":"Cukai","state":"Terengganu"},{"no":"789","location":"Kampung Mak Kemas","postcode":"21400","postOffice":"Bukit Payong","state":"Terengganu"},{"no":"790","location":"Kampung Makam Lama","postcode":"21000","postOffice":"Kuala Terengganu","state":"Terengganu"},{"no":"791","location":"Kampung Mangkok","postcode":"22120","postOffice":"Permaisuri","state":"Terengganu"},{"no":"792","location":"Kampung Maras","postcode":"21020","postOffice":"Kuala Terengganu","state":"Terengganu"},{"no":"793","location":"Kampung Masjid","postcode":"20100","postOffice":"Kuala Terengganu","state":"Terengganu"},{"no":"794","location":"Kampung Masjid","postcode":"23100","postOffice":"Paka","state":"Terengganu"},{"no":"795","location":"Kampung Masjid (Kijal)","postcode":"24100","postOffice":"Kijal","state":"Terengganu"},{"no":"796","location":"Kampung Masjid Batu Burok","postcode":"20400","postOffice":"Kuala Terengganu","state":"Terengganu"},{"no":"797","location":"Kampung Masjid Haji Hussin","postcode":"21200","postOffice":"Kuala Terengganu","state":"Terengganu"},{"no":"798","location":"Kampung Masjid Haji Said","postcode":"21600","postOffice":"Marang","state":"Terengganu"},{"no":"799","location":"Kampung Masjid Tok Ku","postcode":"21000","postOffice":"Kuala Terengganu","state":"Terengganu"},{"no":"800","location":"Kampung Mata Ayer","postcode":"22010","postOffice":"Jerteh","state":"Terengganu"},{"no":"801","location":"Kampung Matang","postcode":"21800","postOffice":"Ajil","state":"Terengganu"},{"no":"802","location":"Kampung Matang","postcode":"21700","postOffice":"Kuala Berang","state":"Terengganu"},{"no":"803","location":"Kampung Medan Cengal","postcode":"21020","postOffice":"Kuala Terengganu","state":"Terengganu"},{"no":"804","location":"Kampung Melayu Ayer Jerneh","postcode":"24200","postOffice":"Kemasek","state":"Terengganu"},{"no":"805","location":"Kampung Melintang","postcode":"20050","postOffice":"Kuala Terengganu","state":"Terengganu"},{"no":"806","location":"Kampung Menerong","postcode":"21800","postOffice":"Ajil","state":"Terengganu"},{"no":"807","location":"Kampung Mengabang","postcode":"21010","postOffice":"Kuala Terengganu","state":"Terengganu"},{"no":"808","location":"Kampung Mengabang Bakong","postcode":"21020","postOffice":"Kuala Terengganu","state":"Terengganu"},{"no":"809","location":"Kampung Mengabang Lekar","postcode":"21020","postOffice":"Kuala Terengganu","state":"Terengganu"},{"no":"810","location":"Kampung Mengabang Panjang","postcode":"21020","postOffice":"Kuala Terengganu","state":"Terengganu"},{"no":"811","location":"Kampung Mengabang Telong","postcode":"21020","postOffice":"Kuala Terengganu","state":"Terengganu"},{"no":"812","location":"Kampung Mengabang Tengah","postcode":"20400","postOffice":"Kuala Terengganu","state":"Terengganu"},{"no":"813","location":"Kampung Mengabang Tengah Masjid","postcode":"20400","postOffice":"Kuala Terengganu","state":"Terengganu"},{"no":"814","location":"Kampung Mentauh","postcode":"24100","postOffice":"Kijal","state":"Terengganu"},{"no":"815","location":"Kampung Meraga Beris","postcode":"24100","postOffice":"Kijal","state":"Terengganu"},{"no":"816","location":"Kampung Merbau Patah","postcode":"20050","postOffice":"Kuala Terengganu","state":"Terengganu"},{"no":"817","location":"Kampung Naga Mengulor","postcode":"21210","postOffice":"Kuala Terengganu","state":"Terengganu"},{"no":"818","location":"Kampung Nail","postcode":"22300","postOffice":"Kuala Besut","state":"Terengganu"},{"no":"819","location":"Kampung Nangka","postcode":"22300","postOffice":"Kuala Besut","state":"Terengganu"},{"no":"820","location":"Kampung Nasi Dingin","postcode":"21700","postOffice":"Kuala Berang","state":"Terengganu"},{"no":"821","location":"Kampung Nibong","postcode":"21700","postOffice":"Kuala Berang","state":"Terengganu"},{"no":"822","location":"Kampung Nibong","postcode":"21500","postOffice":"Sungai Tong","state":"Terengganu"},{"no":"823","location":"Kampung Nibong","postcode":"21100","postOffice":"Kuala Terengganu","state":"Terengganu"},{"no":"824","location":"Kampung Nibong Sungai Tong","postcode":"21500","postOffice":"Sungai Tong","state":"Terengganu"},{"no":"825","location":"Kampung Nyatok","postcode":"22100","postOffice":"Permaisuri","state":"Terengganu"},{"no":"826","location":"Kampung Nyior","postcode":"23100","postOffice":"Paka","state":"Terengganu"},{"no":"827","location":"Kampung Nyior Tujuh","postcode":"22000","postOffice":"Jerteh","state":"Terengganu"},{"no":"828","location":"Kampung Nyut-Nyut","postcode":"21400","postOffice":"Bukit Payong","state":"Terengganu"},{"no":"829","location":"Kampung Oh","postcode":"22020","postOffice":"Jerteh","state":"Terengganu"},{"no":"830","location":"Kampung Padang","postcode":"22100","postOffice":"Permaisuri","state":"Terengganu"},{"no":"831","location":"Kampung Padang","postcode":"21100","postOffice":"Kuala Terengganu","state":"Terengganu"},{"no":"832","location":"Kampung Padang","postcode":"24200","postOffice":"Kemasek","state":"Terengganu"},{"no":"833","location":"Kampung Padang Ayer Deras","postcode":"21400","postOffice":"Bukit Payong","state":"Terengganu"},{"no":"834","location":"Kampung Padang Baloh","postcode":"21060","postOffice":"Kuala Terengganu","state":"Terengganu"},{"no":"835","location":"Kampung Padang Baloh","postcode":"22200","postOffice":"Kampung Raja","state":"Terengganu"},{"no":"836","location":"Kampung Padang Bola","postcode":"24300","postOffice":"Kerteh","state":"Terengganu"},{"no":"837","location":"Kampung Padang Bual","postcode":"22010","postOffice":"Jerteh","state":"Terengganu"},{"no":"838","location":"Kampung Padang Hangus","postcode":"21060","postOffice":"Kuala Terengganu","state":"Terengganu"},{"no":"839","location":"Kampung Padang Hiliran","postcode":"21000","postOffice":"Kuala Terengganu","state":"Terengganu"},{"no":"840","location":"Kampung Padang Ipoh","postcode":"21700","postOffice":"Kuala Berang","state":"Terengganu"},{"no":"841","location":"Kampung Padang Jambu","postcode":"23000","postOffice":"Dungun","state":"Terengganu"},{"no":"842","location":"Kampung Padang Kabar","postcode":"21400","postOffice":"Bukit Payong","state":"Terengganu"},{"no":"843","location":"Kampung Padang Kemunting","postcode":"21020","postOffice":"Kuala Terengganu","state":"Terengganu"},{"no":"844","location":"Kampung Padang Kemunting","postcode":"24100","postOffice":"Kijal","state":"Terengganu"},{"no":"845","location":"Kampung Padang Lalang","postcode":"23300","postOffice":"Ketengah Jaya","state":"Terengganu"},{"no":"846","location":"Kampung Padang Lalang","postcode":"24000","postOffice":"Cukai","state":"Terengganu"},{"no":"847","location":"Kampung Padang Landak","postcode":"22000","postOffice":"Jerteh","state":"Terengganu"},{"no":"848","location":"Kampung Padang Lebak","postcode":"21700","postOffice":"Kuala Berang","state":"Terengganu"},{"no":"849","location":"Kampung Padang Lengkuas","postcode":"22020","postOffice":"Jerteh","state":"Terengganu"},{"no":"850","location":"Kampung Padang Luas","postcode":"22000","postOffice":"Jerteh","state":"Terengganu"},{"no":"851","location":"Kampung Padang Machang","postcode":"21200","postOffice":"Kuala Terengganu","state":"Terengganu"},{"no":"852","location":"Kampung Padang Mengkuang","postcode":"21400","postOffice":"Bukit Payong","state":"Terengganu"},{"no":"853","location":"Kampung Padang Midin","postcode":"21400","postOffice":"Bukit Payong","state":"Terengganu"},{"no":"854","location":"Kampung Padang Pauh","postcode":"21610","postOffice":"Marang","state":"Terengganu"},{"no":"855","location":"Kampung Padang Pulut","postcode":"23000","postOffice":"Dungun","state":"Terengganu"},{"no":"856","location":"Kampung Padang Sena","postcode":"20050","postOffice":"Kuala Terengganu","state":"Terengganu"},{"no":"857","location":"Kampung Padang Serai","postcode":"22100","postOffice":"Permaisuri","state":"Terengganu"},{"no":"858","location":"Kampung Padang Setebu","postcode":"21700","postOffice":"Kuala Berang","state":"Terengganu"},{"no":"859","location":"Kampung Padang Star","postcode":"21700","postOffice":"Kuala Berang","state":"Terengganu"},{"no":"860","location":"Kampung Padang Tenger","postcode":"21200","postOffice":"Kuala Terengganu","state":"Terengganu"},{"no":"861","location":"Kampung Padang Ujib","postcode":"21200","postOffice":"Kuala Terengganu","state":"Terengganu"},{"no":"862","location":"Kampung Padang Ulu Takir","postcode":"21300","postOffice":"Kuala Terengganu","state":"Terengganu"},{"no":"863","location":"Kampung Pagar Besi","postcode":"21020","postOffice":"Kuala Terengganu","state":"Terengganu"},{"no":"864","location":"Kampung Pagar Ubi","postcode":"21060","postOffice":"Kuala Terengganu","state":"Terengganu"},{"no":"865","location":"Kampung Pak Ba","postcode":"21500","postOffice":"Sungai Tong","state":"Terengganu"},{"no":"866","location":"Kampung Pak Da Malik","postcode":"22000","postOffice":"Jerteh","state":"Terengganu"},{"no":"867","location":"Kampung Pak Kancil","postcode":"22100","postOffice":"Permaisuri","state":"Terengganu"},{"no":"868","location":"Kampung Pak Katak","postcode":"21200","postOffice":"Kuala Terengganu","state":"Terengganu"},{"no":"869","location":"Kampung Pak Kiang","postcode":"22200","postOffice":"Kampung Raja","state":"Terengganu"},{"no":"870","location":"Kampung Pak Madah","postcode":"21400","postOffice":"Bukit Payong","state":"Terengganu"},{"no":"871","location":"Kampung Pak Pa","postcode":"20050","postOffice":"Kuala Terengganu","state":"Terengganu"},{"no":"872","location":"Kampung Pak Sabah","postcode":"23000","postOffice":"Dungun","state":"Terengganu"},{"no":"873","location":"Kampung Pak Tijah","postcode":"21300","postOffice":"Kuala Terengganu","state":"Terengganu"},{"no":"874","location":"Kampung Pak Tuyu","postcode":"21030","postOffice":"Kuala Terengganu","state":"Terengganu"},{"no":"875","location":"Kampung Pak Wong","postcode":"22000","postOffice":"Jerteh","state":"Terengganu"},{"no":"876","location":"Kampung Paloh Masjid","postcode":"20050","postOffice":"Kuala Terengganu","state":"Terengganu"},{"no":"877","location":"Kampung Paloh Sekolah","postcode":"20050","postOffice":"Kuala Terengganu","state":"Terengganu"},{"no":"878","location":"Kampung Paloh Sungai Kiat","postcode":"20050","postOffice":"Kuala Terengganu","state":"Terengganu"},{"no":"879","location":"Kampung Paloh Tok Ku","postcode":"20050","postOffice":"Kuala Terengganu","state":"Terengganu"},{"no":"880","location":"Kampung Paloh Tuan Sulong","postcode":"20050","postOffice":"Kuala Terengganu","state":"Terengganu"},{"no":"881","location":"Kampung Paman","postcode":"24000","postOffice":"Cukai","state":"Terengganu"},{"no":"882","location":"Kampung Panchor","postcode":"22010","postOffice":"Jerteh","state":"Terengganu"},{"no":"883","location":"Kampung Panchor Merah","postcode":"22100","postOffice":"Permaisuri","state":"Terengganu"},{"no":"884","location":"Kampung Pancor","postcode":"24000","postOffice":"Cukai","state":"Terengganu"},{"no":"885","location":"Kampung Pancur Kuin","postcode":"21020","postOffice":"Kuala Terengganu","state":"Terengganu"},{"no":"886","location":"Kampung Pancur Merah","postcode":"22100","postOffice":"Permaisuri","state":"Terengganu"},{"no":"887","location":"Kampung Pandan","postcode":"24000","postOffice":"Cukai","state":"Terengganu"},{"no":"888","location":"Kampung Panggong","postcode":"21800","postOffice":"Ajil","state":"Terengganu"},{"no":"889","location":"Kampung Panji","postcode":"20050","postOffice":"Kuala Terengganu","state":"Terengganu"},{"no":"890","location":"Kampung Pantai Ali","postcode":"21400","postOffice":"Bukit Payong","state":"Terengganu"},{"no":"891","location":"Kampung Pantai Haji Kasim","postcode":"20000","postOffice":"Kuala Terengganu","state":"Terengganu"},{"no":"892","location":"Kampung Pantai Kuala Ibai","postcode":"20400","postOffice":"Kuala Terengganu","state":"Terengganu"},{"no":"893","location":"Kampung Pantai Laut","postcode":"23100","postOffice":"Paka","state":"Terengganu"},{"no":"894","location":"Kampung Pantai Penunjuk","postcode":"24100","postOffice":"Kijal","state":"Terengganu"},{"no":"895","location":"Kampung Pantai Seberang Marang","postcode":"21600","postOffice":"Marang","state":"Terengganu"},{"no":"896","location":"Kampung Parit","postcode":"22200","postOffice":"Kampung Raja","state":"Terengganu"},{"no":"897","location":"Kampung Parit Dicap","postcode":"21200","postOffice":"Kuala Terengganu","state":"Terengganu"},{"no":"898","location":"Kampung Paroh","postcode":"22000","postOffice":"Jerteh","state":"Terengganu"},{"no":"899","location":"Kampung Pasir Akar","postcode":"22000","postOffice":"Jerteh","state":"Terengganu"},{"no":"900","location":"Kampung Pasir Dula","postcode":"21700","postOffice":"Kuala Berang","state":"Terengganu"},{"no":"901","location":"Kampung Pasir Minal","postcode":"24000","postOffice":"Cukai","state":"Terengganu"},{"no":"902","location":"Kampung Pasir Nering","postcode":"21700","postOffice":"Kuala Berang","state":"Terengganu"},{"no":"903","location":"Kampung Pasir Nyior","postcode":"21700","postOffice":"Kuala Berang","state":"Terengganu"},{"no":"904","location":"Kampung Pasir Panjang","postcode":"21100","postOffice":"Kuala Terengganu","state":"Terengganu"},{"no":"905","location":"Kampung Pasir Pelata","postcode":"21700","postOffice":"Kuala Berang","state":"Terengganu"},{"no":"906","location":"Kampung Pasir Puteh","postcode":"21610","postOffice":"Marang","state":"Terengganu"},{"no":"907","location":"Kampung Pasir Sipor","postcode":"21700","postOffice":"Kuala Berang","state":"Terengganu"},{"no":"908","location":"Kampung Pasir Tawar","postcode":"22020","postOffice":"Jerteh","state":"Terengganu"},{"no":"909","location":"Kampung Pasir Tebakang","postcode":"21200","postOffice":"Kuala Terengganu","state":"Terengganu"},{"no":"910","location":"Kampung Pasir Tinggi","postcode":"21400","postOffice":"Bukit Payong","state":"Terengganu"},{"no":"911","location":"Kampung Pauh","postcode":"21700","postOffice":"Kuala Berang","state":"Terengganu"},{"no":"912","location":"Kampung Paya","postcode":"21600","postOffice":"Marang","state":"Terengganu"},{"no":"913","location":"Kampung Paya","postcode":"22300","postOffice":"Kuala Besut","state":"Terengganu"},{"no":"914","location":"Kampung Paya Berenjut","postcode":"24000","postOffice":"Cukai","state":"Terengganu"},{"no":"915","location":"Kampung Paya Bunga","postcode":"20200","postOffice":"Kuala Terengganu","state":"Terengganu"},{"no":"916","location":"Kampung Paya Datu","postcode":"21200","postOffice":"Kuala Terengganu","state":"Terengganu"},{"no":"917","location":"Kampung Paya Jambol","postcode":"21100","postOffice":"Kuala Terengganu","state":"Terengganu"},{"no":"918","location":"Kampung Paya Keladi","postcode":"20100","postOffice":"Kuala Terengganu","state":"Terengganu"},{"no":"919","location":"Kampung Paya Limau Amas","postcode":"21200","postOffice":"Kuala Terengganu","state":"Terengganu"},{"no":"920","location":"Kampung Paya Putat","postcode":"21300","postOffice":"Kuala Terengganu","state":"Terengganu"},{"no":"921","location":"Kampung Paya Rawa","postcode":"22200","postOffice":"Kampung Raja","state":"Terengganu"},{"no":"922","location":"Kampung Paya Tok Ber","postcode":"20300","postOffice":"Kuala Terengganu","state":"Terengganu"},{"no":"923","location":"Kampung Payang Kayu","postcode":"21700","postOffice":"Kuala Berang","state":"Terengganu"},{"no":"924","location":"Kampung Payoh","postcode":"24200","postOffice":"Kemasek","state":"Terengganu"},{"no":"925","location":"Kampung Payong","postcode":"21500","postOffice":"Sungai Tong","state":"Terengganu"},{"no":"926","location":"Kampung Pekakok","postcode":"22000","postOffice":"Jerteh","state":"Terengganu"},{"no":"927","location":"Kampung Peladang","postcode":"23000","postOffice":"Dungun","state":"Terengganu"},{"no":"928","location":"Kampung Pelagat","postcode":"22000","postOffice":"Jerteh","state":"Terengganu"},{"no":"929","location":"Kampung Pelam","postcode":"21200","postOffice":"Kuala Terengganu","state":"Terengganu"},{"no":"930","location":"Kampung Pelandan","postcode":"21700","postOffice":"Kuala Berang","state":"Terengganu"},{"no":"931","location":"Kampung Pelar","postcode":"21810","postOffice":"Ajil","state":"Terengganu"},{"no":"932","location":"Kampung Pelong","postcode":"21500","postOffice":"Sungai Tong","state":"Terengganu"},{"no":"933","location":"Kampung Penarek","postcode":"22120","postOffice":"Permaisuri","state":"Terengganu"},{"no":"934","location":"Kampung Penarik","postcode":"22120","postOffice":"Permaisuri","state":"Terengganu"},{"no":"935","location":"Kampung Penek","postcode":"21800","postOffice":"Ajil","state":"Terengganu"},{"no":"936","location":"Kampung Pengadang Akar","postcode":"20300","postOffice":"Kuala Terengganu","state":"Terengganu"},{"no":"937","location":"Kampung Pengadang Baru","postcode":"20050","postOffice":"Kuala Terengganu","state":"Terengganu"},{"no":"938","location":"Kampung Pengkalan Ajal","postcode":"21800","postOffice":"Ajil","state":"Terengganu"},{"no":"939","location":"Kampung Pengkalan Arang","postcode":"21200","postOffice":"Kuala Terengganu","state":"Terengganu"},{"no":"940","location":"Kampung Pengkalan Atap","postcode":"21020","postOffice":"Kuala Terengganu","state":"Terengganu"},{"no":"941","location":"Kampung Pengkalan Batu","postcode":"21200","postOffice":"Kuala Terengganu","state":"Terengganu"},{"no":"942","location":"Kampung Pengkalan Belat","postcode":"21300","postOffice":"Kuala Terengganu","state":"Terengganu"},{"no":"943","location":"Kampung Pengkalan Berangan","postcode":"21040","postOffice":"Kuala Terengganu","state":"Terengganu"},{"no":"944","location":"Kampung Pengkalan Binjai","postcode":"24000","postOffice":"Cukai","state":"Terengganu"},{"no":"945","location":"Kampung Pengkalan Cicar","postcode":"24000","postOffice":"Cukai","state":"Terengganu"},{"no":"946","location":"Kampung Pengkalan Merbau","postcode":"21500","postOffice":"Sungai Tong","state":"Terengganu"},{"no":"947","location":"Kampung Pengkalan Nyireh","postcode":"22200","postOffice":"Kampung Raja","state":"Terengganu"},{"no":"948","location":"Kampung Pengkalan Pandan","postcode":"24000","postOffice":"Cukai","state":"Terengganu"},{"no":"949","location":"Kampung Pengkalan Raja Wali","postcode":"21080","postOffice":"Kuala Terengganu","state":"Terengganu"},{"no":"950","location":"Kampung Pengkalan Ranggon","postcode":"24300","postOffice":"Kerteh","state":"Terengganu"},{"no":"951","location":"Kampung Pengkalan Setar","postcode":"20050","postOffice":"Kuala Terengganu","state":"Terengganu"},{"no":"952","location":"Kampung Pengkalan Setol","postcode":"22000","postOffice":"Jerteh","state":"Terengganu"},{"no":"953","location":"Kampung Pengkalan Star","postcode":"21700","postOffice":"Kuala Berang","state":"Terengganu"},{"no":"954","location":"Kampung Pengkalan Titian","postcode":"21300","postOffice":"Kuala Terengganu","state":"Terengganu"},{"no":"955","location":"Kampung Penunjuk","postcode":"24100","postOffice":"Kijal","state":"Terengganu"},{"no":"956","location":"Kampung Peradong","postcode":"21200","postOffice":"Kuala Terengganu","state":"Terengganu"},{"no":"957","location":"Kampung Peris","postcode":"21800","postOffice":"Ajil","state":"Terengganu"},{"no":"958","location":"Kampung Permaisuri","postcode":"22100","postOffice":"Permaisuri","state":"Terengganu"},{"no":"959","location":"Kampung Peroh","postcode":"21810","postOffice":"Ajil","state":"Terengganu"},{"no":"960","location":"Kampung Petai Bubus","postcode":"21200","postOffice":"Kuala Terengganu","state":"Terengganu"},{"no":"961","location":"Kampung Petani","postcode":"20000","postOffice":"Kuala Terengganu","state":"Terengganu"},{"no":"962","location":"Kampung Pinang","postcode":"22200","postOffice":"Kampung Raja","state":"Terengganu"},{"no":"963","location":"Kampung Pinang Merah","postcode":"23100","postOffice":"Paka","state":"Terengganu"},{"no":"964","location":"Kampung Pohon Tar","postcode":"22020","postOffice":"Jerteh","state":"Terengganu"},{"no":"965","location":"Kampung Pondok Lalang","postcode":"21060","postOffice":"Kuala Terengganu","state":"Terengganu"},{"no":"966","location":"Kampung Pondok Limau","postcode":"24100","postOffice":"Kijal","state":"Terengganu"},{"no":"967","location":"Kampung Pondok Paku","postcode":"22000","postOffice":"Jerteh","state":"Terengganu"},{"no":"968","location":"Kampung Pondok Paska","postcode":"24100","postOffice":"Kijal","state":"Terengganu"},{"no":"969","location":"Kampung Pujuk","postcode":"21200","postOffice":"Kuala Terengganu","state":"Terengganu"},{"no":"970","location":"Kampung Pulai Api","postcode":"21800","postOffice":"Ajil","state":"Terengganu"},{"no":"971","location":"Kampung Pulai Rimau","postcode":"22000","postOffice":"Jerteh","state":"Terengganu"},{"no":"972","location":"Kampung Pulau Bahagia","postcode":"21200","postOffice":"Kuala Terengganu","state":"Terengganu"},{"no":"973","location":"Kampung Pulau Duyung @ Kampung Pulau Ketam","postcode":"21300","postOffice":"Kuala Terengganu","state":"Terengganu"},{"no":"974","location":"Kampung Pulau Kala","postcode":"22020","postOffice":"Jerteh","state":"Terengganu"},{"no":"975","location":"Kampung Pulau Kambing","postcode":"20300","postOffice":"Kuala Terengganu","state":"Terengganu"},{"no":"976","location":"Kampung Pulau Kudat","postcode":"21700","postOffice":"Kuala Berang","state":"Terengganu"},{"no":"977","location":"Kampung Pulau Manis (Kuala Telemong)","postcode":"21210","postOffice":"Kuala Terengganu","state":"Terengganu"},{"no":"978","location":"Kampung Pulau Musang","postcode":"20050","postOffice":"Kuala Terengganu","state":"Terengganu"},{"no":"979","location":"Kampung Pulau Panjang","postcode":"22000","postOffice":"Jerteh","state":"Terengganu"},{"no":"980","location":"Kampung Pulau Ribu","postcode":"22000","postOffice":"Jerteh","state":"Terengganu"},{"no":"981","location":"Kampung Pulau Rusa","postcode":"20050","postOffice":"Kuala Terengganu","state":"Terengganu"},{"no":"982","location":"Kampung Pulau Rusa Masjid","postcode":"20050","postOffice":"Kuala Terengganu","state":"Terengganu"},{"no":"983","location":"Kampung Pulau Rusa Rang","postcode":"20050","postOffice":"Kuala Terengganu","state":"Terengganu"},{"no":"984","location":"Kampung Pulau Rusa Sekolah","postcode":"20050","postOffice":"Kuala Terengganu","state":"Terengganu"},{"no":"985","location":"Kampung Pulau Rusa Wan Nik","postcode":"20050","postOffice":"Kuala Terengganu","state":"Terengganu"},{"no":"986","location":"Kampung Pulau Sekati","postcode":"21000","postOffice":"Kuala Terengganu","state":"Terengganu"},{"no":"987","location":"Kampung Pulau Serai","postcode":"23000","postOffice":"Dungun","state":"Terengganu"},{"no":"988","location":"Kampung Pulau Tempurong","postcode":"24000","postOffice":"Cukai","state":"Terengganu"},{"no":"989","location":"Kampung Pusu Tinggi","postcode":"22000","postOffice":"Jerteh","state":"Terengganu"},{"no":"990","location":"Kampung Rahmat","postcode":"21700","postOffice":"Kuala Berang","state":"Terengganu"},{"no":"991","location":"Kampung Rahmat","postcode":"21450","postOffice":"Chalok","state":"Terengganu"},{"no":"992","location":"Kampung Raja Besut","postcode":"22200","postOffice":"Kampung Raja","state":"Terengganu"},{"no":"993","location":"Kampung Raja Chendering","postcode":"21080","postOffice":"Kuala Terengganu","state":"Terengganu"},{"no":"994","location":"Kampung Raja Tepoh","postcode":"21060","postOffice":"Kuala Terengganu","state":"Terengganu"},{"no":"995","location":"Kampung Raja Wali","postcode":"23000","postOffice":"Dungun","state":"Terengganu"},{"no":"996","location":"Kampung Rakyat","postcode":"20000","postOffice":"Kuala Terengganu","state":"Terengganu"},{"no":"997","location":"Kampung Ranggon Estate","postcode":"24300","postOffice":"Kerteh","state":"Terengganu"},{"no":"998","location":"Kampung Rantau Abang","postcode":"23000","postOffice":"Dungun","state":"Terengganu"},{"no":"999","location":"Kampung Rawai","postcode":"21400","postOffice":"Bukit Payong","state":"Terengganu"},{"no":"1000","location":"Kampung Renek","postcode":"22020","postOffice":"Jerteh","state":"Terengganu"},{"no":"1001","location":"Kampung Rhu Batil","postcode":"23000","postOffice":"Dungun","state":"Terengganu"},{"no":"1002","location":"Kampung Rhu Sepuluh","postcode":"22200","postOffice":"Kampung Raja","state":"Terengganu"},{"no":"1003","location":"Kampung Rhu Tapai","postcode":"21010","postOffice":"Kuala Terengganu","state":"Terengganu"},{"no":"1004","location":"Kampung Ru Dua","postcode":"21600","postOffice":"Marang","state":"Terengganu"},{"no":"1005","location":"Kampung Ru Muda","postcode":"21600","postOffice":"Marang","state":"Terengganu"},{"no":"1006","location":"Kampung Ru Rendang","postcode":"21600","postOffice":"Marang","state":"Terengganu"},{"no":"1007","location":"Kampung Rusila","postcode":"21080","postOffice":"Kuala Terengganu","state":"Terengganu"},{"no":"1008","location":"Kampung Santong","postcode":"23100","postOffice":"Paka","state":"Terengganu"},{"no":"1009","location":"Kampung Saujana","postcode":"22110","postOffice":"Permaisuri","state":"Terengganu"},{"no":"1010","location":"Kampung Seberang Alor","postcode":"23100","postOffice":"Paka","state":"Terengganu"},{"no":"1011","location":"Kampung Seberang Baroh","postcode":"21000","postOffice":"Kuala Terengganu","state":"Terengganu"},{"no":"1012","location":"Kampung Seberang Baroh Belukar","postcode":"21000","postOffice":"Kuala Terengganu","state":"Terengganu"},{"no":"1013","location":"Kampung Seberang Baroh Taliair","postcode":"21000","postOffice":"Kuala Terengganu","state":"Terengganu"},{"no":"1014","location":"Kampung Seberang Bukit Bayas","postcode":"21100","postOffice":"Kuala Terengganu","state":"Terengganu"},{"no":"1015","location":"Kampung Seberang Bukit Tumboh","postcode":"21200","postOffice":"Kuala Terengganu","state":"Terengganu"},{"no":"1016","location":"Kampung Seberang Lalang","postcode":"22010","postOffice":"Jerteh","state":"Terengganu"},{"no":"1017","location":"Kampung Seberang Lalang","postcode":"24300","postOffice":"Kerteh","state":"Terengganu"},{"no":"1018","location":"Kampung Seberang Panggong","postcode":"22000","postOffice":"Jerteh","state":"Terengganu"},{"no":"1019","location":"Kampung Seberang Payoh","postcode":"24200","postOffice":"Kemasek","state":"Terengganu"},{"no":"1020","location":"Kampung Seberang Tok Abu","postcode":"21300","postOffice":"Kuala Terengganu","state":"Terengganu"},{"no":"1021","location":"Kampung Seberang Tuan Chik Haji","postcode":"21200","postOffice":"Kuala Terengganu","state":"Terengganu"},{"no":"1022","location":"Kampung Sekati","postcode":"21200","postOffice":"Kuala Terengganu","state":"Terengganu"},{"no":"1023","location":"Kampung Sekayu","postcode":"21700","postOffice":"Kuala Berang","state":"Terengganu"},{"no":"1024","location":"Kampung Semanyor","postcode":"24200","postOffice":"Kemasek","state":"Terengganu"},{"no":"1025","location":"Kampung Sendong","postcode":"21080","postOffice":"Kuala Terengganu","state":"Terengganu"},{"no":"1026","location":"Kampung Sentosa","postcode":"22200","postOffice":"Kampung Raja","state":"Terengganu"},{"no":"1027","location":"Kampung Sentul Patah","postcode":"21600","postOffice":"Marang","state":"Terengganu"},{"no":"1028","location":"Kampung Sepetir","postcode":"21300","postOffice":"Kuala Terengganu","state":"Terengganu"},{"no":"1029","location":"Kampung Serada","postcode":"20050","postOffice":"Kuala Terengganu","state":"Terengganu"},{"no":"1030","location":"Kampung Serdang","postcode":"23000","postOffice":"Dungun","state":"Terengganu"},{"no":"1031","location":"Kampung Serdang Baru","postcode":"21200","postOffice":"Kuala Terengganu","state":"Terengganu"},{"no":"1032","location":"Kampung Seri Bayas","postcode":"22100","postOffice":"Permaisuri","state":"Terengganu"},{"no":"1033","location":"Kampung Setia Jaya","postcode":"21800","postOffice":"Ajil","state":"Terengganu"},{"no":"1034","location":"Kampung Simpang Bukit Kemuning","postcode":"24100","postOffice":"Kijal","state":"Terengganu"},{"no":"1035","location":"Kampung Simpang Empat","postcode":"24100","postOffice":"Kijal","state":"Terengganu"},{"no":"1036","location":"Kampung Simpang Langkap","postcode":"21500","postOffice":"Sungai Tong","state":"Terengganu"},{"no":"1037","location":"Kampung Star Kiri","postcode":"21600","postOffice":"Marang","state":"Terengganu"},{"no":"1038","location":"Kampung Sukur","postcode":"23000","postOffice":"Dungun","state":"Terengganu"},{"no":"1039","location":"Kampung Sungai","postcode":"22300","postOffice":"Kuala Besut","state":"Terengganu"},{"no":"1040","location":"Kampung Sungai Bari","postcode":"21500","postOffice":"Sungai Tong","state":"Terengganu"},{"no":"1041","location":"Kampung Sungai Berua","postcode":"21700","postOffice":"Kuala Berang","state":"Terengganu"},{"no":"1042","location":"Kampung Sungai Durhaka","postcode":"21100","postOffice":"Kuala Terengganu","state":"Terengganu"},{"no":"1043","location":"Kampung Sungai Ikan","postcode":"21060","postOffice":"Kuala Terengganu","state":"Terengganu"},{"no":"1044","location":"Kampung Sungai Kerak","postcode":"21600","postOffice":"Marang","state":"Terengganu"},{"no":"1045","location":"Kampung Sungai Lerek","postcode":"21450","postOffice":"Chalok","state":"Terengganu"},{"no":"1046","location":"Kampung Sungai Mas","postcode":"24050","postOffice":"Ayer Puteh","state":"Terengganu"},{"no":"1047","location":"Kampung Sungai Pimpin","postcode":"21020","postOffice":"Kuala Terengganu","state":"Terengganu"},{"no":"1048","location":"Kampung Sungai Pimpin","postcode":"23000","postOffice":"Dungun","state":"Terengganu"},{"no":"1049","location":"Kampung Sungai Pinang","postcode":"24000","postOffice":"Cukai","state":"Terengganu"},{"no":"1050","location":"Kampung Sungai Pinang","postcode":"21450","postOffice":"Chalok","state":"Terengganu"},{"no":"1051","location":"Kampung Sungai Pinang","postcode":"20050","postOffice":"Kuala Terengganu","state":"Terengganu"},{"no":"1052","location":"Kampung Sungai Rakit","postcode":"21450","postOffice":"Chalok","state":"Terengganu"},{"no":"1053","location":"Kampung Sungai Rengas","postcode":"20050","postOffice":"Kuala Terengganu","state":"Terengganu"},{"no":"1054","location":"Kampung Sungai Siput","postcode":"21800","postOffice":"Ajil","state":"Terengganu"},{"no":"1055","location":"Kampung Sungai Ular","postcode":"21700","postOffice":"Kuala Berang","state":"Terengganu"},{"no":"1056","location":"Kampung Surau Haji Ibrahim","postcode":"21600","postOffice":"Marang","state":"Terengganu"},{"no":"1057","location":"Kampung Surau Haji Mat","postcode":"21600","postOffice":"Marang","state":"Terengganu"},{"no":"1058","location":"Kampung Surau Haji Mat Tokey","postcode":"20000","postOffice":"Kuala Terengganu","state":"Terengganu"},{"no":"1059","location":"Kampung Surau Puteh","postcode":"20100","postOffice":"Kuala Terengganu","state":"Terengganu"},{"no":"1060","location":"Kampung Surau Telok","postcode":"20000","postOffice":"Kuala Terengganu","state":"Terengganu"},{"no":"1061","location":"Kampung Surau Tok She","postcode":"20000","postOffice":"Kuala Terengganu","state":"Terengganu"},{"no":"1062","location":"Kampung Surau Wan Su","postcode":"20100","postOffice":"Kuala Terengganu","state":"Terengganu"},{"no":"1063","location":"Kampung Tajin","postcode":"21700","postOffice":"Kuala Berang","state":"Terengganu"},{"no":"1064","location":"Kampung Talong","postcode":"23000","postOffice":"Dungun","state":"Terengganu"},{"no":"1065","location":"Kampung Taman Hijrah","postcode":"21020","postOffice":"Kuala Terengganu","state":"Terengganu"},{"no":"1066","location":"Kampung Tanah Lot (Batu 8)","postcode":"21200","postOffice":"Kuala Terengganu","state":"Terengganu"},{"no":"1067","location":"Kampung Tanah Lot Ayer Puteh","postcode":"24050","postOffice":"Ayer Puteh","state":"Terengganu"},{"no":"1068","location":"Kampung Tanah Lot Geliga","postcode":"24000","postOffice":"Cukai","state":"Terengganu"},{"no":"1069","location":"Kampung Tanah Lot Pasir Gajah","postcode":"24050","postOffice":"Ayer Puteh","state":"Terengganu"},{"no":"1070","location":"Kampung Tanah Lot Telok Ketapang","postcode":"21300","postOffice":"Kuala Terengganu","state":"Terengganu"},{"no":"1071","location":"Kampung Tanah Merah","postcode":"22000","postOffice":"Jerteh","state":"Terengganu"},{"no":"1072","location":"Kampung Tanggol","postcode":"21040","postOffice":"Kuala Terengganu","state":"Terengganu"},{"no":"1073","location":"Kampung Tanjong (Km 1.5)","postcode":"20000","postOffice":"Kuala Terengganu","state":"Terengganu"},{"no":"1074","location":"Kampung Tanjong Alir","postcode":"22000","postOffice":"Jerteh","state":"Terengganu"},{"no":"1075","location":"Kampung Tanjong Baru","postcode":"21700","postOffice":"Kuala Berang","state":"Terengganu"},{"no":"1076","location":"Kampung Tanjong Batu","postcode":"23000","postOffice":"Dungun","state":"Terengganu"},{"no":"1077","location":"Kampung Tanjong Bunut","postcode":"21200","postOffice":"Kuala Terengganu","state":"Terengganu"},{"no":"1078","location":"Kampung Tanjong Gelang","postcode":"21030","postOffice":"Kuala Terengganu","state":"Terengganu"},{"no":"1079","location":"Kampung Tanjong Jaafar","postcode":"21300","postOffice":"Kuala Terengganu","state":"Terengganu"},{"no":"1080","location":"Kampung Tanjong Mesah","postcode":"21210","postOffice":"Kuala Terengganu","state":"Terengganu"},{"no":"1081","location":"Kampung Tanjong Pagar","postcode":"23000","postOffice":"Dungun","state":"Terengganu"},{"no":"1082","location":"Kampung Tanjong Pati","postcode":"23000","postOffice":"Dungun","state":"Terengganu"},{"no":"1083","location":"Kampung Tanjong Paya","postcode":"20000","postOffice":"Kuala Terengganu","state":"Terengganu"},{"no":"1084","location":"Kampung Tanjong Sabtu","postcode":"21200","postOffice":"Kuala Terengganu","state":"Terengganu"},{"no":"1085","location":"Kampung Tanjong Surau Besar","postcode":"20000","postOffice":"Kuala Terengganu","state":"Terengganu"},{"no":"1086","location":"Kampung Tanjong Surau Pasir","postcode":"20000","postOffice":"Kuala Terengganu","state":"Terengganu"},{"no":"1087","location":"Kampung Tanjung Batu Satu","postcode":"20000","postOffice":"Kuala Terengganu","state":"Terengganu"},{"no":"1088","location":"Kampung Tanjung Kedepan","postcode":"21020","postOffice":"Kuala Terengganu","state":"Terengganu"},{"no":"1089","location":"Kampung Tanjung Mengabang","postcode":"20000","postOffice":"Kuala Terengganu","state":"Terengganu"},{"no":"1090","location":"Kampung Tanjung Serdang","postcode":"21200","postOffice":"Kuala Terengganu","state":"Terengganu"},{"no":"1091","location":"Kampung Tapah","postcode":"21450","postOffice":"Chalok","state":"Terengganu"},{"no":"1092","location":"Kampung Tapah","postcode":"21700","postOffice":"Kuala Berang","state":"Terengganu"},{"no":"1093","location":"Kampung Tapu","postcode":"21040","postOffice":"Kuala Terengganu","state":"Terengganu"},{"no":"1094","location":"Kampung Tasek","postcode":"21400","postOffice":"Bukit Payong","state":"Terengganu"},{"no":"1095","location":"Kampung Tasek","postcode":"22100","postOffice":"Permaisuri","state":"Terengganu"},{"no":"1096","location":"Kampung Tasek","postcode":"22000","postOffice":"Jerteh","state":"Terengganu"},{"no":"1097","location":"Kampung Tasek Mengkuang","postcode":"22000","postOffice":"Jerteh","state":"Terengganu"},{"no":"1098","location":"Kampung Tayor Tengah","postcode":"21500","postOffice":"Sungai Tong","state":"Terengganu"},{"no":"1099","location":"Kampung Tebakang","postcode":"21400","postOffice":"Bukit Payong","state":"Terengganu"},{"no":"1100","location":"Kampung Tebauk","postcode":"21200","postOffice":"Kuala Terengganu","state":"Terengganu"},{"no":"1101","location":"Kampung Tebing Tembah","postcode":"23100","postOffice":"Paka","state":"Terengganu"},{"no":"1102","location":"Kampung Telaga","postcode":"21700","postOffice":"Kuala Berang","state":"Terengganu"},{"no":"1103","location":"Kampung Telaga Batin","postcode":"21300","postOffice":"Kuala Terengganu","state":"Terengganu"},{"no":"1104","location":"Kampung Telaga Daing","postcode":"21300","postOffice":"Kuala Terengganu","state":"Terengganu"},{"no":"1105","location":"Kampung Telaga Mengkudu","postcode":"21400","postOffice":"Bukit Payong","state":"Terengganu"},{"no":"1106","location":"Kampung Telaga Nibong","postcode":"22000","postOffice":"Jerteh","state":"Terengganu"},{"no":"1107","location":"Kampung Telaga Panchor","postcode":"20100","postOffice":"Kuala Terengganu","state":"Terengganu"},{"no":"1108","location":"Kampung Telaga Papan","postcode":"21010","postOffice":"Kuala Terengganu","state":"Terengganu"},{"no":"1109","location":"Kampung Telaga Papan","postcode":"24300","postOffice":"Kerteh","state":"Terengganu"},{"no":"1110","location":"Kampung Telaga Putat","postcode":"21020","postOffice":"Kuala Terengganu","state":"Terengganu"},{"no":"1111","location":"Kampung Telari","postcode":"21200","postOffice":"Kuala Terengganu","state":"Terengganu"},{"no":"1112","location":"Kampung Telok","postcode":"22000","postOffice":"Jerteh","state":"Terengganu"},{"no":"1113","location":"Kampung Telok Ketapang","postcode":"21300","postOffice":"Kuala Terengganu","state":"Terengganu"},{"no":"1114","location":"Kampung Telok Menara","postcode":"21200","postOffice":"Kuala Terengganu","state":"Terengganu"},{"no":"1115","location":"Kampung Telok Paku","postcode":"20050","postOffice":"Kuala Terengganu","state":"Terengganu"},{"no":"1116","location":"Kampung Telok Pasu","postcode":"21200","postOffice":"Kuala Terengganu","state":"Terengganu"},{"no":"1117","location":"Kampung Telok Tok Adis","postcode":"20400","postOffice":"Kuala Terengganu","state":"Terengganu"},{"no":"1118","location":"Kampung Temala","postcode":"21040","postOffice":"Kuala Terengganu","state":"Terengganu"},{"no":"1119","location":"Kampung Temir","postcode":"21700","postOffice":"Kuala Berang","state":"Terengganu"},{"no":"1120","location":"Kampung Tempinis","postcode":"22020","postOffice":"Jerteh","state":"Terengganu"},{"no":"1121","location":"Kampung Tempurong","postcode":"24000","postOffice":"Cukai","state":"Terengganu"},{"no":"1122","location":"Kampung Tengah","postcode":"24000","postOffice":"Cukai","state":"Terengganu"},{"no":"1123","location":"Kampung Tengah","postcode":"21200","postOffice":"Kuala Terengganu","state":"Terengganu"},{"no":"1124","location":"Kampung Tengah","postcode":"24300","postOffice":"Kerteh","state":"Terengganu"},{"no":"1125","location":"Kampung Tengah","postcode":"24100","postOffice":"Kijal","state":"Terengganu"},{"no":"1126","location":"Kampung Tengah (Kuala Besut)","postcode":"22300","postOffice":"Kuala Besut","state":"Terengganu"},{"no":"1127","location":"Kampung Tengah Bawah Tebing","postcode":"24100","postOffice":"Kijal","state":"Terengganu"},{"no":"1128","location":"Kampung Tengah Ibok","postcode":"24100","postOffice":"Kijal","state":"Terengganu"},{"no":"1129","location":"Kampung Tengah Pantai","postcode":"24100","postOffice":"Kijal","state":"Terengganu"},{"no":"1130","location":"Kampung Tengah Pasir Gajah","postcode":"24050","postOffice":"Ayer Puteh","state":"Terengganu"},{"no":"1131","location":"Kampung Tengkawang","postcode":"21700","postOffice":"Kuala Berang","state":"Terengganu"},{"no":"1132","location":"Kampung Tepoh","postcode":"21060","postOffice":"Kuala Terengganu","state":"Terengganu"},{"no":"1133","location":"Kampung Teris","postcode":"21700","postOffice":"Kuala Berang","state":"Terengganu"},{"no":"1134","location":"Kampung Tetambah","postcode":"21200","postOffice":"Kuala Terengganu","state":"Terengganu"},{"no":"1135","location":"Kampung Timur","postcode":"22300","postOffice":"Kuala Besut","state":"Terengganu"},{"no":"1136","location":"Kampung Tiong","postcode":"20100","postOffice":"Kuala Terengganu","state":"Terengganu"},{"no":"1137","location":"Kampung Tirok","postcode":"20050","postOffice":"Kuala Terengganu","state":"Terengganu"},{"no":"1138","location":"Kampung Titian Baharu","postcode":"21070","postOffice":"Kuala Terengganu","state":"Terengganu"},{"no":"1139","location":"Kampung Titian Berayong","postcode":"24100","postOffice":"Kijal","state":"Terengganu"},{"no":"1140","location":"Kampung Titian Hangus","postcode":"20050","postOffice":"Kuala Terengganu","state":"Terengganu"},{"no":"1141","location":"Kampung Titian Lembut","postcode":"20300","postOffice":"Kuala Terengganu","state":"Terengganu"},{"no":"1142","location":"Kampung Tok Badir","postcode":"20050","postOffice":"Kuala Terengganu","state":"Terengganu"},{"no":"1143","location":"Kampung Tok Ban","postcode":"21060","postOffice":"Kuala Terengganu","state":"Terengganu"},{"no":"1144","location":"Kampung Tok Bintang","postcode":"21700","postOffice":"Kuala Berang","state":"Terengganu"},{"no":"1145","location":"Kampung Tok Dat","postcode":"22000","postOffice":"Jerteh","state":"Terengganu"},{"no":"1146","location":"Kampung Tok Dor","postcode":"21810","postOffice":"Ajil","state":"Terengganu"},{"no":"1147","location":"Kampung Tok Dor","postcode":"22020","postOffice":"Jerteh","state":"Terengganu"},{"no":"1148","location":"Kampung Tok Fakir Besut","postcode":"22200","postOffice":"Kampung Raja","state":"Terengganu"},{"no":"1149","location":"Kampung Tok Fakir Merchang","postcode":"21610","postOffice":"Marang","state":"Terengganu"},{"no":"1150","location":"Kampung Tok Gebok","postcode":"21800","postOffice":"Ajil","state":"Terengganu"},{"no":"1151","location":"Kampung Tok Harun","postcode":"21200","postOffice":"Kuala Terengganu","state":"Terengganu"},{"no":"1152","location":"Kampung Tok Harun","postcode":"23100","postOffice":"Paka","state":"Terengganu"},{"no":"1153","location":"Kampung Tok Iman Lapar","postcode":"21210","postOffice":"Kuala Terengganu","state":"Terengganu"},{"no":"1154","location":"Kampung Tok Jamal","postcode":"20050","postOffice":"Kuala Terengganu","state":"Terengganu"},{"no":"1155","location":"Kampung Tok Jembal","postcode":"21300","postOffice":"Kuala Terengganu","state":"Terengganu"},{"no":"1156","location":"Kampung Tok Kah","postcode":"23000","postOffice":"Dungun","state":"Terengganu"},{"no":"1157","location":"Kampung Tok Kaya","postcode":"20050","postOffice":"Kuala Terengganu","state":"Terengganu"},{"no":"1158","location":"Kampung Tok Ku","postcode":"21000","postOffice":"Kuala Terengganu","state":"Terengganu"},{"no":"1159","location":"Kampung Tok Lawik","postcode":"21700","postOffice":"Kuala Berang","state":"Terengganu"},{"no":"1160","location":"Kampung Tok Mer","postcode":"21300","postOffice":"Kuala Terengganu","state":"Terengganu"},{"no":"1161","location":"Kampung Tok Motong","postcode":"22000","postOffice":"Jerteh","state":"Terengganu"},{"no":"1162","location":"Kampung Tok Pek","postcode":"22200","postOffice":"Kampung Raja","state":"Terengganu"},{"no":"1163","location":"Kampung Tok Rendok","postcode":"21800","postOffice":"Ajil","state":"Terengganu"},{"no":"1164","location":"Kampung Tualang","postcode":"21200","postOffice":"Kuala Terengganu","state":"Terengganu"},{"no":"1165","location":"Kampung Tuan","postcode":"24000","postOffice":"Cukai","state":"Terengganu"},{"no":"1166","location":"Kampung Tuan Nong","postcode":"20050","postOffice":"Kuala Terengganu","state":"Terengganu"},{"no":"1167","location":"Kampung Tulang Daing","postcode":"21800","postOffice":"Ajil","state":"Terengganu"},{"no":"1168","location":"Kampung Tuman","postcode":"21600","postOffice":"Marang","state":"Terengganu"},{"no":"1169","location":"Kampung Ujung Pasir Puteh","postcode":"21300","postOffice":"Kuala Terengganu","state":"Terengganu"},{"no":"1170","location":"Kampung Ulu Chalok","postcode":"21450","postOffice":"Chalok","state":"Terengganu"},{"no":"1171","location":"Kampung Ulu Kekabu","postcode":"22100","postOffice":"Permaisuri","state":"Terengganu"},{"no":"1172","location":"Kampung Ulu Seladang","postcode":"22100","postOffice":"Permaisuri","state":"Terengganu"},{"no":"1173","location":"Kampung Undang","postcode":"21400","postOffice":"Bukit Payong","state":"Terengganu"},{"no":"1174","location":"Kampung Wakaf  Beruas","postcode":"20050","postOffice":"Kuala Terengganu","state":"Terengganu"},{"no":"1175","location":"Kampung Wakaf Cagak","postcode":"21030","postOffice":"Kuala Terengganu","state":"Terengganu"},{"no":"1176","location":"Kampung Wakaf Che Kapor","postcode":"20050","postOffice":"Kuala Terengganu","state":"Terengganu"},{"no":"1177","location":"Kampung Wakaf Dua","postcode":"21400","postOffice":"Bukit Payong","state":"Terengganu"},{"no":"1178","location":"Kampung Wakaf Gomok","postcode":"21060","postOffice":"Kuala Terengganu","state":"Terengganu"},{"no":"1179","location":"Kampung Wakaf Hijau","postcode":"23100","postOffice":"Paka","state":"Terengganu"},{"no":"1180","location":"Kampung Wakaf Jambu","postcode":"24000","postOffice":"Cukai","state":"Terengganu"},{"no":"1181","location":"Kampung Wakaf Kubor","postcode":"22200","postOffice":"Kampung Raja","state":"Terengganu"},{"no":"1182","location":"Kampung Wakaf Mempelam","postcode":"20050","postOffice":"Kuala Terengganu","state":"Terengganu"},{"no":"1183","location":"Kampung Wakaf Tapai","postcode":"21040","postOffice":"Kuala Terengganu","state":"Terengganu"},{"no":"1184","location":"Kampung Wakaf Tembesu","postcode":"21200","postOffice":"Kuala Terengganu","state":"Terengganu"},{"no":"1185","location":"Kampung Wakaf Tengah","postcode":"21030","postOffice":"Kuala Terengganu","state":"Terengganu"},{"no":"1186","location":"Kampung Wakaf Tok Keh","postcode":"21080","postOffice":"Kuala Terengganu","state":"Terengganu"},{"no":"1187","location":"Kampung Yak Yah","postcode":"24060","postOffice":"Ceneh","state":"Terengganu"},{"no":"1188","location":"Kedai Payang","postcode":"20100","postOffice":"Kuala Terengganu","state":"Terengganu"},{"no":"1189","location":"Kedeper","postcode":"22200","postOffice":"Kampung Raja","state":"Terengganu"},{"no":"1190","location":"Kemasek","postcode":"24200","postOffice":"Kemasek","state":"Terengganu"},{"no":"1191","location":"Kemasek - Beg berkunci","postcode":"24209","postOffice":"Kemasek","state":"Terengganu"},{"no":"1192","location":"Kemasek - Peti surat","postcode":"24207","postOffice":"Kemasek","state":"Terengganu"},{"no":"1193","location":"Kenyir","postcode":"21700","postOffice":"Kuala Berang","state":"Terengganu"},{"no":"1194","location":"Kerandang","postcode":"22000","postOffice":"Jerteh","state":"Terengganu"},{"no":"1195","location":"Kerteh","postcode":"24300","postOffice":"Kerteh","state":"Terengganu"},{"no":"1196","location":"Ketua Audit Negeri","postcode":"20518","postOffice":"Kuala Terengganu","state":"Terengganu"},{"no":"1197","location":"Ketua Nazir Sekolah Persekutuan","postcode":"20604","postOffice":"Kuala Terengganu","state":"Terengganu"},{"no":"1198","location":"Ketua Polis Negeri","postcode":"20560","postOffice":"Kuala Terengganu","state":"Terengganu"},{"no":"1199","location":"Kijal","postcode":"24100","postOffice":"Kijal","state":"Terengganu"},{"no":"1200","location":"Kijal - Beg berkunci","postcode":"24109","postOffice":"Kijal","state":"Terengganu"},{"no":"1201","location":"Kijal - Peti surat","postcode":"24107","postOffice":"Kijal","state":"Terengganu"},{"no":"1202","location":"Kijal Beach Resort","postcode":"24100","postOffice":"Kijal","state":"Terengganu"},{"no":"1203","location":"Komplek Niaga Paya Bunga","postcode":"20100","postOffice":"Kuala Terengganu","state":"Terengganu"},{"no":"1204","location":"Kompleks Perniagaan Sura Gate","postcode":"23000","postOffice":"Dungun","state":"Terengganu"},{"no":"1205","location":"Kompleks Rantau Petronas","postcode":"24300","postOffice":"Kerteh","state":"Terengganu"},{"no":"1206","location":"Kuala Bedah","postcode":"22300","postOffice":"Kuala Besut","state":"Terengganu"},{"no":"1207","location":"Kuala Berang","postcode":"21700","postOffice":"Kuala Berang","state":"Terengganu"},{"no":"1208","location":"Kuala Besut","postcode":"22300","postOffice":"Kuala Besut","state":"Terengganu"},{"no":"1209","location":"Kuala Besut - Beg berkunci","postcode":"22309","postOffice":"Kuala Besut","state":"Terengganu"},{"no":"1210","location":"Kuala Besut - Peti surat","postcode":"22307","postOffice":"Kuala Besut","state":"Terengganu"},{"no":"1211","location":"Kuala Dungun","postcode":"23000","postOffice":"Dungun","state":"Terengganu"},{"no":"1212","location":"Kuala Hiliran","postcode":"21000","postOffice":"Kuala Terengganu","state":"Terengganu"},{"no":"1213","location":"Kuala Jeneris","postcode":"21700","postOffice":"Kuala Berang","state":"Terengganu"},{"no":"1214","location":"Kuala Jengal","postcode":"23000","postOffice":"Dungun","state":"Terengganu"},{"no":"1215","location":"Kuala Kemaman","postcode":"24000","postOffice":"Cukai","state":"Terengganu"},{"no":"1216","location":"Kuala Menjing","postcode":"21700","postOffice":"Kuala Berang","state":"Terengganu"},{"no":"1217","location":"Kuala Ping","postcode":"21700","postOffice":"Kuala Berang","state":"Terengganu"},{"no":"1218","location":"Kuala Pueh","postcode":"21700","postOffice":"Kuala Berang","state":"Terengganu"},{"no":"1219","location":"Kuala Setiu Baru","postcode":"22110","postOffice":"Permaisuri","state":"Terengganu"},{"no":"1220","location":"Kuala Setiu Lama","postcode":"22110","postOffice":"Permaisuri","state":"Terengganu"},{"no":"1221","location":"Kuala Telemong","postcode":"21220","postOffice":"Kuala Terengganu","state":"Terengganu"},{"no":"1222","location":"Kuala Terengganu - Beg berkunci","postcode":"20990","postOffice":"Kuala Terengganu","state":"Terengganu"},{"no":"1223","location":"Kuala Terengganu - Peti surat   1 - 3","postcode":"20700","postOffice":"Kuala Terengganu","state":"Terengganu"},{"no":"1224","location":"Kuala Terengganu - Peti surat  4","postcode":"20900","postOffice":"Kuala Terengganu","state":"Terengganu"},{"no":"1225","location":"Kuala Terengganu - Peti surat 122","postcode":"20926","postOffice":"Kuala Terengganu","state":"Terengganu"},{"no":"1226","location":"Kuala Terengganu - Peti surat 123 - 125","postcode":"20710","postOffice":"Kuala Terengganu","state":"Terengganu"},{"no":"1227","location":"Kuala Terengganu - Peti surat 126","postcode":"20928","postOffice":"Kuala Terengganu","state":"Terengganu"},{"no":"1228","location":"Kuala Terengganu - Peti surat 127","postcode":"20930","postOffice":"Kuala Terengganu","state":"Terengganu"},{"no":"1229","location":"Kuala Terengganu - Peti surat 128 - 160","postcode":"20710","postOffice":"Kuala Terengganu","state":"Terengganu"},{"no":"1230","location":"Kuala Terengganu - Peti surat 161  \u0026 ke atas","postcode":"20720","postOffice":"Kuala Terengganu","state":"Terengganu"},{"no":"1231","location":"Kuala Terengganu - Peti surat 18","postcode":"20902","postOffice":"Kuala Terengganu","state":"Terengganu"},{"no":"1232","location":"Kuala Terengganu - Peti surat 19 - 42","postcode":"20700","postOffice":"Kuala Terengganu","state":"Terengganu"},{"no":"1233","location":"Kuala Terengganu - Peti surat 43","postcode":"20904","postOffice":"Kuala Terengganu","state":"Terengganu"},{"no":"1234","location":"Kuala Terengganu - Peti surat 44 - 49","postcode":"20700","postOffice":"Kuala Terengganu","state":"Terengganu"},{"no":"1235","location":"Kuala Terengganu - Peti surat 5 - 17","postcode":"20700","postOffice":"Kuala Terengganu","state":"Terengganu"},{"no":"1236","location":"Kuala Terengganu - Peti surat 50","postcode":"20906","postOffice":"Kuala Terengganu","state":"Terengganu"},{"no":"1237","location":"Kuala Terengganu - Peti surat 51","postcode":"20908","postOffice":"Kuala Terengganu","state":"Terengganu"},{"no":"1238","location":"Kuala Terengganu - Peti surat 52 - 55","postcode":"20700","postOffice":"Kuala Terengganu","state":"Terengganu"},{"no":"1239","location":"Kuala Terengganu - Peti surat 56","postcode":"20910","postOffice":"Kuala Terengganu","state":"Terengganu"},{"no":"1240","location":"Kuala Terengganu - Peti surat 57","postcode":"20912","postOffice":"Kuala Terengganu","state":"Terengganu"},{"no":"1241","location":"Kuala Terengganu - Peti surat 58 - 62","postcode":"20700","postOffice":"Kuala Terengganu","state":"Terengganu"},{"no":"1242","location":"Kuala Terengganu - Peti surat 63","postcode":"20914","postOffice":"Kuala Terengganu","state":"Terengganu"},{"no":"1243","location":"Kuala Terengganu - Peti surat 64","postcode":"20700","postOffice":"Kuala Terengganu","state":"Terengganu"},{"no":"1244","location":"Kuala Terengganu - Peti surat 65","postcode":"20916","postOffice":"Kuala Terengganu","state":"Terengganu"},{"no":"1245","location":"Kuala Terengganu - Peti surat 66","postcode":"20918","postOffice":"Kuala Terengganu","state":"Terengganu"},{"no":"1246","location":"Kuala Terengganu - Peti surat 67","postcode":"20920","postOffice":"Kuala Terengganu","state":"Terengganu"},{"no":"1247","location":"Kuala Terengganu - Peti surat 68","postcode":"20922","postOffice":"Kuala Terengganu","state":"Terengganu"},{"no":"1248","location":"Kuala Terengganu - Peti surat 69 - 80","postcode":"20700","postOffice":"Kuala Terengganu","state":"Terengganu"},{"no":"1249","location":"Kuala Terengganu - Peti surat 81 - 89","postcode":"20710","postOffice":"Kuala Terengganu","state":"Terengganu"},{"no":"1250","location":"Kuala Terengganu - Peti surat 90","postcode":"20924","postOffice":"Kuala Terengganu","state":"Terengganu"},{"no":"1251","location":"Kuala Terengganu - Peti surat 91- 121","postcode":"20710","postOffice":"Kuala Terengganu","state":"Terengganu"},{"no":"1252","location":"Kubang Badak","postcode":"21300","postOffice":"Kuala Terengganu","state":"Terengganu"},{"no":"1253","location":"Kubang Buyong","postcode":"21000","postOffice":"Kuala Terengganu","state":"Terengganu"},{"no":"1254","location":"Kubang Ikan","postcode":"21080","postOffice":"Kuala Terengganu","state":"Terengganu"},{"no":"1255","location":"Kubang Ikan","postcode":"22200","postOffice":"Kampung Raja","state":"Terengganu"},{"no":"1256","location":"Kubang Puyu","postcode":"21450","postOffice":"Chalok","state":"Terengganu"},{"no":"1257","location":"Kumpal","postcode":"23000","postOffice":"Dungun","state":"Terengganu"},{"no":"1258","location":"Kumpulan Wang Simpanan Pekerja","postcode":"20698","postOffice":"Kuala Terengganu","state":"Terengganu"},{"no":"1259","location":"Ladang Bari","postcode":"21500","postOffice":"Sungai Tong","state":"Terengganu"},{"no":"1260","location":"Ladang Fikri","postcode":"21600","postOffice":"Marang","state":"Terengganu"},{"no":"1261","location":"Ladang Tebak","postcode":"24050","postOffice":"Ayer Puteh","state":"Terengganu"},{"no":"1262","location":"Lapangan Terbang Sultan Mahmud","postcode":"21300","postOffice":"Kuala Terengganu","state":"Terengganu"},{"no":"1263","location":"Lembaga Hasil Dalam Negeri","postcode":"20600","postOffice":"Kuala Terengganu","state":"Terengganu"},{"no":"1264","location":"Lembaga Kemajuan Ikan (LKIM)","postcode":"21080","postOffice":"Kuala Terengganu","state":"Terengganu"},{"no":"1265","location":"Lembaga Kemajuan Perindustrian (MIDA)","postcode":"20200","postOffice":"Kuala Terengganu","state":"Terengganu"},{"no":"1266","location":"Lembaga Pasaran \u0026 Perusahaan Getah","postcode":"20200","postOffice":"Kuala Terengganu","state":"Terengganu"},{"no":"1267","location":"Lembaga Pelesenan Kenderaan (LPKP)","postcode":"20200","postOffice":"Kuala Terengganu","state":"Terengganu"},{"no":"1268","location":"Lembaga Pelesenan Minyak Sawit","postcode":"20200","postOffice":"Kuala Terengganu","state":"Terengganu"},{"no":"1269","location":"Lembaga Pemasaran Pertanian","postcode":"20200","postOffice":"Kuala Terengganu","state":"Terengganu"},{"no":"1270","location":"Lembaga Tabung Haji","postcode":"20200","postOffice":"Kuala Terengganu","state":"Terengganu"},{"no":"1271","location":"Lembaga Tembakau Negara","postcode":"20400","postOffice":"Kuala Terengganu","state":"Terengganu"},{"no":"1272","location":"LKTP Belara","postcode":"21500","postOffice":"Sungai Tong","state":"Terengganu"},{"no":"1273","location":"LKTP Bukit Bading","postcode":"21820","postOffice":"Ajil","state":"Terengganu"},{"no":"1274","location":"LKTP Jerangau","postcode":"22000","postOffice":"Jerteh","state":"Terengganu"},{"no":"1275","location":"LKTP Tenang","postcode":"22020","postOffice":"Jerteh","state":"Terengganu"},{"no":"1276","location":"Lorong Bemban","postcode":"20000","postOffice":"Kuala Terengganu","state":"Terengganu"},{"no":"1277","location":"Lorong Beringin","postcode":"21100","postOffice":"Kuala Terengganu","state":"Terengganu"},{"no":"1278","location":"Lorong Budiman","postcode":"20400","postOffice":"Kuala Terengganu","state":"Terengganu"},{"no":"1279","location":"Lorong Ciku","postcode":"21000","postOffice":"Kuala Terengganu","state":"Terengganu"},{"no":"1280","location":"Lorong Gemia Rendang","postcode":"21100","postOffice":"Kuala Terengganu","state":"Terengganu"},{"no":"1281","location":"Lorong Haji Da","postcode":"20400","postOffice":"Kuala Terengganu","state":"Terengganu"},{"no":"1282","location":"Lorong Haji Jamil","postcode":"20100","postOffice":"Kuala Terengganu","state":"Terengganu"},{"no":"1283","location":"Lorong Jambu","postcode":"21100","postOffice":"Kuala Terengganu","state":"Terengganu"},{"no":"1284","location":"Lorong Kemunting","postcode":"21100","postOffice":"Kuala Terengganu","state":"Terengganu"},{"no":"1285","location":"Lorong Limau","postcode":"21000","postOffice":"Kuala Terengganu","state":"Terengganu"},{"no":"1286","location":"Lorong Makam Lama","postcode":"21000","postOffice":"Kuala Terengganu","state":"Terengganu"},{"no":"1287","location":"Lorong Masjid Haji Kadir","postcode":"21100","postOffice":"Kuala Terengganu","state":"Terengganu"},{"no":"1288","location":"Lorong Masjid Raja","postcode":"21100","postOffice":"Kuala Terengganu","state":"Terengganu"},{"no":"1289","location":"Lorong Pandan","postcode":"20400","postOffice":"Kuala Terengganu","state":"Terengganu"},{"no":"1290","location":"Lorong Paya Jambol","postcode":"21100","postOffice":"Kuala Terengganu","state":"Terengganu"},{"no":"1291","location":"Lorong Radio Malaysia","postcode":"21000","postOffice":"Kuala Terengganu","state":"Terengganu"},{"no":"1292","location":"Lorong Saga","postcode":"22110","postOffice":"Permaisuri","state":"Terengganu"},{"no":"1293","location":"Lorong Saga Saujana","postcode":"22110","postOffice":"Permaisuri","state":"Terengganu"},{"no":"1294","location":"Lorong Sagu","postcode":"21100","postOffice":"Kuala Terengganu","state":"Terengganu"},{"no":"1295","location":"Lorong Seliat Saujana","postcode":"22110","postOffice":"Permaisuri","state":"Terengganu"},{"no":"1296","location":"Lorong Senandong","postcode":"22110","postOffice":"Permaisuri","state":"Terengganu"},{"no":"1297","location":"Lorong Senandong Saujana","postcode":"22110","postOffice":"Permaisuri","state":"Terengganu"},{"no":"1298","location":"Lorong Senayong","postcode":"22110","postOffice":"Permaisuri","state":"Terengganu"},{"no":"1299","location":"Lorong Senayong Saujana","postcode":"22110","postOffice":"Permaisuri","state":"Terengganu"},{"no":"1300","location":"Lorong Siakap","postcode":"22110","postOffice":"Permaisuri","state":"Terengganu"},{"no":"1301","location":"Lorong Siakap Saujana","postcode":"22110","postOffice":"Permaisuri","state":"Terengganu"},{"no":"1302","location":"Lorong Silat","postcode":"22110","postOffice":"Permaisuri","state":"Terengganu"},{"no":"1303","location":"Lorong Stesen Pemancar RTM","postcode":"21000","postOffice":"Kuala Terengganu","state":"Terengganu"},{"no":"1304","location":"Lorong Surau Baharu","postcode":"21100","postOffice":"Kuala Terengganu","state":"Terengganu"},{"no":"1305","location":"Lorong Temasya Pantai","postcode":"20400","postOffice":"Kuala Terengganu","state":"Terengganu"},{"no":"1306","location":"Lorong Tembesu","postcode":"21100","postOffice":"Kuala Terengganu","state":"Terengganu"},{"no":"1307","location":"Lorong Tunku Ahmad","postcode":"21100","postOffice":"Kuala Terengganu","state":"Terengganu"},{"no":"1308","location":"Losong Feri Kiri","postcode":"21000","postOffice":"Kuala Terengganu","state":"Terengganu"},{"no":"1309","location":"Losong Haji Long","postcode":"21000","postOffice":"Kuala Terengganu","state":"Terengganu"},{"no":"1310","location":"Losong Haji Mat Shafie","postcode":"21000","postOffice":"Kuala Terengganu","state":"Terengganu"},{"no":"1311","location":"Losong Lebai Salleh","postcode":"21000","postOffice":"Kuala Terengganu","state":"Terengganu"},{"no":"1312","location":"Losong Sekolah","postcode":"21000","postOffice":"Kuala Terengganu","state":"Terengganu"},{"no":"1313","location":"Losong Tepas Mahmud","postcode":"21000","postOffice":"Kuala Terengganu","state":"Terengganu"},{"no":"1314","location":"Lot 144","postcode":"24060","postOffice":"Ceneh","state":"Terengganu"},{"no":"1315","location":"Mahkamah Tinggi","postcode":"20506","postOffice":"Kuala Terengganu","state":"Terengganu"},{"no":"1316","location":"Majlis Agama Islam Terengganu","postcode":"20519","postOffice":"Kuala Terengganu","state":"Terengganu"},{"no":"1317","location":"Majlis Perbandaran Kuala Terengganu","postcode":"20200","postOffice":"Kuala Terengganu","state":"Terengganu"},{"no":"1318","location":"Majlis Sukan Negeri","postcode":"20503","postOffice":"Kuala Terengganu","state":"Terengganu"},{"no":"1319","location":"Maktab Perguruan Kuala Terengganu","postcode":"21030","postOffice":"Kuala Terengganu","state":"Terengganu"},{"no":"1320","location":"Maktab Perguruan Pasir Panjang","postcode":"21100","postOffice":"Kuala Terengganu","state":"Terengganu"},{"no":"1321","location":"Maktab Rendah Sains Mara","postcode":"21030","postOffice":"Kuala Terengganu","state":"Terengganu"},{"no":"1322","location":"Manir","postcode":"21200","postOffice":"Kuala Terengganu","state":"Terengganu"},{"no":"1323","location":"Manir - Beg berkunci","postcode":"21209","postOffice":"Kuala Terengganu","state":"Terengganu"},{"no":"1324","location":"Marang","postcode":"21600","postOffice":"Marang","state":"Terengganu"},{"no":"1325","location":"Matang","postcode":"21700","postOffice":"Kuala Berang","state":"Terengganu"},{"no":"1326","location":"Menerung","postcode":"21800","postOffice":"Ajil","state":"Terengganu"},{"no":"1327","location":"Mengabang Telipot","postcode":"21030","postOffice":"Kuala Terengganu","state":"Terengganu"},{"no":"1328","location":"Merchang","postcode":"21610","postOffice":"Marang","state":"Terengganu"},{"no":"1329","location":"Muasasah Gadaian Islam","postcode":"20200","postOffice":"Kuala Terengganu","state":"Terengganu"},{"no":"1330","location":"Neram","postcode":"24060","postOffice":"Ceneh","state":"Terengganu"},{"no":"1331","location":"Neram I","postcode":"24060","postOffice":"Ceneh","state":"Terengganu"},{"no":"1332","location":"Nyor Matel","postcode":"24300","postOffice":"Kerteh","state":"Terengganu"},{"no":"1333","location":"Pacakan","postcode":"22300","postOffice":"Kuala Besut","state":"Terengganu"},{"no":"1334","location":"Padang Kubu","postcode":"24050","postOffice":"Ayer Puteh","state":"Terengganu"},{"no":"1335","location":"Padang Lalang","postcode":"24000","postOffice":"Cukai","state":"Terengganu"},{"no":"1336","location":"Padang Pulut","postcode":"23000","postOffice":"Dungun","state":"Terengganu"},{"no":"1337","location":"Padi \u0026 Beras Nasional (Bernas)","postcode":"20661","postOffice":"Kuala Terengganu","state":"Terengganu"},{"no":"1338","location":"Pak Mentosa","postcode":"22200","postOffice":"Kampung Raja","state":"Terengganu"},{"no":"1339","location":"Paka","postcode":"23100","postOffice":"Paka","state":"Terengganu"},{"no":"1340","location":"Pakoh Jaya","postcode":"21500","postOffice":"Sungai Tong","state":"Terengganu"},{"no":"1341","location":"Pasir Akar","postcode":"22000","postOffice":"Jerteh","state":"Terengganu"},{"no":"1342","location":"Pasir Gajah","postcode":"24050","postOffice":"Ayer Puteh","state":"Terengganu"},{"no":"1343","location":"Pasir Minar","postcode":"24000","postOffice":"Cukai","state":"Terengganu"},{"no":"1344","location":"Pasir Raja","postcode":"23000","postOffice":"Dungun","state":"Terengganu"},{"no":"1345","location":"Pegawai Kemajuan Negeri","postcode":"20674","postOffice":"Kuala Terengganu","state":"Terengganu"},{"no":"1346","location":"Pegawai Kewangan Negeri","postcode":"20592","postOffice":"Kuala Terengganu","state":"Terengganu"},{"no":"1347","location":"Pejabat Felda","postcode":"20300","postOffice":"Kuala Terengganu","state":"Terengganu"},{"no":"1348","location":"Pejabat Mara Negeri","postcode":"20609","postOffice":"Kuala Terengganu","state":"Terengganu"},{"no":"1349","location":"Pejabat Pelancungan Malaysia  (TDC)","postcode":"20200","postOffice":"Kuala Terengganu","state":"Terengganu"},{"no":"1350","location":"Pejabat Rela Negeri","postcode":"20546","postOffice":"Kuala Terengganu","state":"Terengganu"},{"no":"1351","location":"Pejabat Shah Bandar Pantai Timur","postcode":"20300","postOffice":"Kuala Terengganu","state":"Terengganu"},{"no":"1352","location":"Pekan Sehari Tembila","postcode":"22200","postOffice":"Kampung Raja","state":"Terengganu"},{"no":"1353","location":"Penasihat Undang-Undang Negeri","postcode":"20512","postOffice":"Kuala Terengganu","state":"Terengganu"},{"no":"1354","location":"Pendaftar Kesatuan Sekerja","postcode":"20542","postOffice":"Kuala Terengganu","state":"Terengganu"},{"no":"1355","location":"Pengkalan Binjai","postcode":"24000","postOffice":"Cukai","state":"Terengganu"},{"no":"1356","location":"Pengkalan Cicar","postcode":"24000","postOffice":"Cukai","state":"Terengganu"},{"no":"1357","location":"Pengkalan Kubor","postcode":"22200","postOffice":"Kampung Raja","state":"Terengganu"},{"no":"1358","location":"Pengkalan Kuin","postcode":"21600","postOffice":"Marang","state":"Terengganu"},{"no":"1359","location":"Pengkalan Sir","postcode":"24000","postOffice":"Cukai","state":"Terengganu"},{"no":"1360","location":"Pengkalan Teras","postcode":"22200","postOffice":"Kampung Raja","state":"Terengganu"},{"no":"1361","location":"Penguatkuasa Akta Penanaman Padi","postcode":"20100","postOffice":"Kuala Terengganu","state":"Terengganu"},{"no":"1362","location":"Penguatkuasa Kementerian Perdagangan Dalam Negeri","postcode":"20622","postOffice":"Kuala Terengganu","state":"Terengganu"},{"no":"1363","location":"Perbadanan Kemajuan Iktisad Negeri Terengganu","postcode":"20200","postOffice":"Kuala Terengganu","state":"Terengganu"},{"no":"1364","location":"Perbadanan Pembangunan Bandar","postcode":"20000","postOffice":"Kuala Terengganu","state":"Terengganu"},{"no":"1365","location":"Percetakan Nasional Berhad","postcode":"20554","postOffice":"Kuala Terengganu","state":"Terengganu"},{"no":"1366","location":"Percetakan Yayasan Islam","postcode":"21300","postOffice":"Kuala Terengganu","state":"Terengganu"},{"no":"1367","location":"Permaisuri - Beg berkunci","postcode":"22109","postOffice":"Permaisuri","state":"Terengganu"},{"no":"1368","location":"Permaisuri - Peti surat","postcode":"22107","postOffice":"Permaisuri","state":"Terengganu"},{"no":"1369","location":"Perpustakaan Awam Negeri","postcode":"20572","postOffice":"Kuala Terengganu","state":"Terengganu"},{"no":"1370","location":"Perumahan Binjai Manis","postcode":"22100","postOffice":"Permaisuri","state":"Terengganu"},{"no":"1371","location":"Pinang","postcode":"23200","postOffice":"Bukit Besi","state":"Terengganu"},{"no":"1372","location":"Pos Malaysia Berhad","postcode":"20670","postOffice":"Kuala Terengganu","state":"Terengganu"},{"no":"1373","location":"PPRT Ru Tapai","postcode":"21020","postOffice":"Kuala Terengganu","state":"Terengganu"},{"no":"1374","location":"Pulau Berangan","postcode":"22000","postOffice":"Jerteh","state":"Terengganu"},{"no":"1375","location":"Pulau Kerengga","postcode":"21600","postOffice":"Marang","state":"Terengganu"},{"no":"1376","location":"Pulau Pak Mat","postcode":"21000","postOffice":"Kuala Terengganu","state":"Terengganu"},{"no":"1377","location":"Pulau Perhentian","postcode":"22300","postOffice":"Kuala Besut","state":"Terengganu"},{"no":"1378","location":"Pulau Redang","postcode":"21090","postOffice":"Kuala Terengganu","state":"Terengganu"},{"no":"1379","location":"Pulau Salim","postcode":"22300","postOffice":"Kuala Besut","state":"Terengganu"},{"no":"1380","location":"Pulau Tempurong","postcode":"24000","postOffice":"Cukai","state":"Terengganu"},{"no":"1381","location":"Pulau Wan Man","postcode":"21000","postOffice":"Kuala Terengganu","state":"Terengganu"},{"no":"1382","location":"Pusat  Perikanan \u0026 Sains","postcode":"21040","postOffice":"Kuala Terengganu","state":"Terengganu"},{"no":"1383","location":"Pusat Khidmat Kontraktor","postcode":"20200","postOffice":"Kuala Terengganu","state":"Terengganu"},{"no":"1384","location":"Pusat Latihan Belia Negeri","postcode":"20570","postOffice":"Kuala Terengganu","state":"Terengganu"},{"no":"1385","location":"Pusat Membeli Belah Giant","postcode":"21100","postOffice":"Kuala Terengganu","state":"Terengganu"},{"no":"1386","location":"Pusat Penyelidikan Ikan","postcode":"21080","postOffice":"Kuala Terengganu","state":"Terengganu"},{"no":"1387","location":"Pusat Perniagaan Paya Keladi","postcode":"20100","postOffice":"Kuala Terengganu","state":"Terengganu"},{"no":"1388","location":"Rambai Jantan","postcode":"21600","postOffice":"Marang","state":"Terengganu"},{"no":"1389","location":"Rantau Abang","postcode":"23000","postOffice":"Dungun","state":"Terengganu"},{"no":"1390","location":"Rantau Petronas","postcode":"24300","postOffice":"Kerteh","state":"Terengganu"},{"no":"1391","location":"Rasau","postcode":"23200","postOffice":"Bukit Besi","state":"Terengganu"},{"no":"1392","location":"Rejimen 512 - Askar Wataniah","postcode":"21400","postOffice":"Bukit Payong","state":"Terengganu"},{"no":"1393","location":"RKT Seberang Tayor","postcode":"24050","postOffice":"Ayer Puteh","state":"Terengganu"},{"no":"1394","location":"Rumah Murah 100","postcode":"21300","postOffice":"Kuala Terengganu","state":"Terengganu"},{"no":"1395","location":"Rumah Murah 62","postcode":"21300","postOffice":"Kuala Terengganu","state":"Terengganu"},{"no":"1396","location":"Rumah Murah Gong Badak","postcode":"21300","postOffice":"Kuala Terengganu","state":"Terengganu"},{"no":"1397","location":"Rumah Murah Telaga Daing","postcode":"21300","postOffice":"Kuala Terengganu","state":"Terengganu"},{"no":"1398","location":"Rusila","postcode":"21080","postOffice":"Kuala Terengganu","state":"Terengganu"},{"no":"1399","location":"Seberang Kastam","postcode":"22200","postOffice":"Kampung Raja","state":"Terengganu"},{"no":"1400","location":"Seberang Limbongan","postcode":"22200","postOffice":"Kampung Raja","state":"Terengganu"},{"no":"1401","location":"Seberang Pintasan","postcode":"23000","postOffice":"Dungun","state":"Terengganu"},{"no":"1402","location":"Seberang Takir","postcode":"21300","postOffice":"Kuala Terengganu","state":"Terengganu"},{"no":"1403","location":"Seberang Takir - Beg berkunci","postcode":"21309","postOffice":"Kuala Terengganu","state":"Terengganu"},{"no":"1404","location":"Seberang Tayor","postcode":"24050","postOffice":"Ayer Puteh","state":"Terengganu"},{"no":"1405","location":"Seri Bandi","postcode":"24200","postOffice":"Kemasek","state":"Terengganu"},{"no":"1406","location":"Seri Langkap","postcode":"21500","postOffice":"Sungai Tong","state":"Terengganu"},{"no":"1407","location":"Setar Kanan","postcode":"21600","postOffice":"Marang","state":"Terengganu"},{"no":"1408","location":"Setiausaha Kerajaan Negeri","postcode":"20503","postOffice":"Kuala Terengganu","state":"Terengganu"},{"no":"1409","location":"Setiu","postcode":"22120","postOffice":"Permaisuri","state":"Terengganu"},{"no":"1410","location":"Simpang Pelatoh","postcode":"24100","postOffice":"Kijal","state":"Terengganu"},{"no":"1411","location":"Simpang Tiga Kubang Badak","postcode":"21030","postOffice":"Kuala Terengganu","state":"Terengganu"},{"no":"1412","location":"Simpang Tok Ku","postcode":"21000","postOffice":"Kuala Terengganu","state":"Terengganu"},{"no":"1413","location":"Sukur","postcode":"23000","postOffice":"Dungun","state":"Terengganu"},{"no":"1414","location":"Sungai Gawi","postcode":"21700","postOffice":"Kuala Berang","state":"Terengganu"},{"no":"1415","location":"Sungai Lerak","postcode":"21500","postOffice":"Sungai Tong","state":"Terengganu"},{"no":"1416","location":"Sungai Tong","postcode":"21500","postOffice":"Sungai Tong","state":"Terengganu"},{"no":"1417","location":"Sura Gate","postcode":"23000","postOffice":"Dungun","state":"Terengganu"},{"no":"1418","location":"Sura Hujong","postcode":"23000","postOffice":"Dungun","state":"Terengganu"},{"no":"1419","location":"SuruhanJaya Perkhidmatan Awam","postcode":"20520","postOffice":"Kuala Terengganu","state":"Terengganu"},{"no":"1420","location":"Suruhanjaya Pilihan Raya Negeri","postcode":"20690","postOffice":"Kuala Terengganu","state":"Terengganu"},{"no":"1421","location":"Talong","postcode":"23000","postOffice":"Dungun","state":"Terengganu"},{"no":"1422","location":"Taman Air Puteh","postcode":"24000","postOffice":"Cukai","state":"Terengganu"},{"no":"1423","location":"Taman Alina","postcode":"23000","postOffice":"Dungun","state":"Terengganu"},{"no":"1424","location":"Taman Anggerik","postcode":"23000","postOffice":"Dungun","state":"Terengganu"},{"no":"1425","location":"Taman Anggerik","postcode":"24000","postOffice":"Cukai","state":"Terengganu"},{"no":"1426","location":"Taman Anjaria","postcode":"23000","postOffice":"Dungun","state":"Terengganu"},{"no":"1427","location":"Taman Aquarius","postcode":"21080","postOffice":"Kuala Terengganu","state":"Terengganu"},{"no":"1428","location":"Taman Bahagia","postcode":"24000","postOffice":"Cukai","state":"Terengganu"},{"no":"1429","location":"Taman Baiduri","postcode":"24000","postOffice":"Cukai","state":"Terengganu"},{"no":"1430","location":"Taman Baiduri","postcode":"21030","postOffice":"Kuala Terengganu","state":"Terengganu"},{"no":"1431","location":"Taman Bakar Daud","postcode":"24000","postOffice":"Cukai","state":"Terengganu"},{"no":"1432","location":"Taman Bakti","postcode":"22000","postOffice":"Jerteh","state":"Terengganu"},{"no":"1433","location":"Taman Berjaya","postcode":"24000","postOffice":"Cukai","state":"Terengganu"},{"no":"1434","location":"Taman Bersekutu","postcode":"24000","postOffice":"Cukai","state":"Terengganu"},{"no":"1435","location":"Taman Bersekutu","postcode":"23000","postOffice":"Dungun","state":"Terengganu"},{"no":"1436","location":"Taman Bijaya Sura","postcode":"23000","postOffice":"Dungun","state":"Terengganu"},{"no":"1437","location":"Taman Budaya","postcode":"21100","postOffice":"Kuala Terengganu","state":"Terengganu"},{"no":"1438","location":"Taman Bukit Bauk 1,2","postcode":"23000","postOffice":"Dungun","state":"Terengganu"},{"no":"1439","location":"Taman Bukit Catak","postcode":"23000","postOffice":"Dungun","state":"Terengganu"},{"no":"1440","location":"Taman Bukit Mentok","postcode":"24000","postOffice":"Cukai","state":"Terengganu"},{"no":"1441","location":"Taman Bunga Raya","postcode":"23000","postOffice":"Dungun","state":"Terengganu"},{"no":"1442","location":"Taman Bunga Tanjung","postcode":"24000","postOffice":"Cukai","state":"Terengganu"},{"no":"1443","location":"Taman Cempaka","postcode":"24000","postOffice":"Cukai","state":"Terengganu"},{"no":"1444","location":"Taman Cempaka","postcode":"23000","postOffice":"Dungun","state":"Terengganu"},{"no":"1445","location":"Taman Cendana","postcode":"24000","postOffice":"Cukai","state":"Terengganu"},{"no":"1446","location":"Taman Cenderawasih","postcode":"23000","postOffice":"Dungun","state":"Terengganu"},{"no":"1447","location":"Taman Chua Ah Kee","postcode":"24000","postOffice":"Cukai","state":"Terengganu"},{"no":"1448","location":"Taman Cukai","postcode":"24000","postOffice":"Cukai","state":"Terengganu"},{"no":"1449","location":"Taman Cukai Utama","postcode":"24000","postOffice":"Cukai","state":"Terengganu"},{"no":"1450","location":"Taman Dahlia","postcode":"24000","postOffice":"Cukai","state":"Terengganu"},{"no":"1451","location":"Taman Dalya","postcode":"20300","postOffice":"Kuala Terengganu","state":"Terengganu"},{"no":"1452","location":"Taman Darul Iman","postcode":"24000","postOffice":"Cukai","state":"Terengganu"},{"no":"1453","location":"Taman Darul Iman 1","postcode":"24000","postOffice":"Cukai","state":"Terengganu"},{"no":"1454","location":"Taman Darul Iman 2","postcode":"24000","postOffice":"Cukai","state":"Terengganu"},{"no":"1455","location":"Taman Darul Iman 3","postcode":"24000","postOffice":"Cukai","state":"Terengganu"},{"no":"1456","location":"Taman Dataran Geliga","postcode":"24000","postOffice":"Cukai","state":"Terengganu"},{"no":"1457","location":"Taman Delima","postcode":"24000","postOffice":"Cukai","state":"Terengganu"},{"no":"1458","location":"Taman Delima","postcode":"23000","postOffice":"Dungun","state":"Terengganu"},{"no":"1459","location":"Taman Desa Aman","postcode":"22000","postOffice":"Jerteh","state":"Terengganu"},{"no":"1460","location":"Taman Desa Awana","postcode":"24000","postOffice":"Cukai","state":"Terengganu"},{"no":"1461","location":"Taman Desa Cukai","postcode":"24000","postOffice":"Cukai","state":"Terengganu"},{"no":"1462","location":"Taman Desa Impian","postcode":"24000","postOffice":"Cukai","state":"Terengganu"},{"no":"1463","location":"Taman Desa Jaya","postcode":"21080","postOffice":"Kuala Terengganu","state":"Terengganu"},{"no":"1464","location":"Taman Desa Permai","postcode":"21300","postOffice":"Kuala Terengganu","state":"Terengganu"},{"no":"1465","location":"Taman Desa Permai 1","postcode":"24000","postOffice":"Cukai","state":"Terengganu"},{"no":"1466","location":"Taman Desa Permai 2","postcode":"24000","postOffice":"Cukai","state":"Terengganu"},{"no":"1467","location":"Taman Desa Saujana","postcode":"22000","postOffice":"Jerteh","state":"Terengganu"},{"no":"1468","location":"Taman Desa Sentosa","postcode":"24000","postOffice":"Cukai","state":"Terengganu"},{"no":"1469","location":"Taman Desa Sepakat","postcode":"22000","postOffice":"Jerteh","state":"Terengganu"},{"no":"1470","location":"Taman Desa Seri Geliga","postcode":"24000","postOffice":"Cukai","state":"Terengganu"},{"no":"1471","location":"Taman Desa Tani","postcode":"22000","postOffice":"Jerteh","state":"Terengganu"},{"no":"1472","location":"Taman Desa Tanjung","postcode":"22000","postOffice":"Jerteh","state":"Terengganu"},{"no":"1473","location":"Taman Geliga","postcode":"24000","postOffice":"Cukai","state":"Terengganu"},{"no":"1474","location":"Taman Geliga Besar","postcode":"24000","postOffice":"Cukai","state":"Terengganu"},{"no":"1475","location":"Taman Geliga Maju","postcode":"24000","postOffice":"Cukai","state":"Terengganu"},{"no":"1476","location":"Taman Geliga Sakti","postcode":"24000","postOffice":"Cukai","state":"Terengganu"},{"no":"1477","location":"Taman Gemilang","postcode":"23000","postOffice":"Dungun","state":"Terengganu"},{"no":"1478","location":"Taman Ghulam","postcode":"24000","postOffice":"Cukai","state":"Terengganu"},{"no":"1479","location":"Taman Gong Badak","postcode":"21300","postOffice":"Kuala Terengganu","state":"Terengganu"},{"no":"1480","location":"Taman Gong Pasir","postcode":"23000","postOffice":"Dungun","state":"Terengganu"},{"no":"1481","location":"Taman Gong Pauh","postcode":"24000","postOffice":"Cukai","state":"Terengganu"},{"no":"1482","location":"Taman Had","postcode":"21100","postOffice":"Kuala Terengganu","state":"Terengganu"},{"no":"1483","location":"Taman Haji Hamzah","postcode":"24000","postOffice":"Cukai","state":"Terengganu"},{"no":"1484","location":"Taman Haji Idris","postcode":"23000","postOffice":"Dungun","state":"Terengganu"},{"no":"1485","location":"Taman Haji Wan Ngah","postcode":"24000","postOffice":"Cukai","state":"Terengganu"},{"no":"1486","location":"Taman Haji Yaacob","postcode":"24000","postOffice":"Cukai","state":"Terengganu"},{"no":"1487","location":"Taman Hajjah Kelsom","postcode":"20300","postOffice":"Kuala Terengganu","state":"Terengganu"},{"no":"1488","location":"Taman Harmoni","postcode":"23000","postOffice":"Dungun","state":"Terengganu"},{"no":"1489","location":"Taman Hidayah","postcode":"21600","postOffice":"Marang","state":"Terengganu"},{"no":"1490","location":"Taman Himiran","postcode":"23000","postOffice":"Dungun","state":"Terengganu"},{"no":"1501","location":"Taman Jaya","postcode":"20400","postOffice":"Kuala Terengganu","state":"Terengganu"},{"no":"1502","location":"Taman Jaya (Seberang Takir)","postcode":"21300","postOffice":"Kuala Terengganu","state":"Terengganu"},{"no":"1503","location":"Taman Jejawi","postcode":"23000","postOffice":"Dungun","state":"Terengganu"},{"no":"1504","location":"Taman Kalongan Melor","postcode":"21600","postOffice":"Marang","state":"Terengganu"},{"no":"1505","location":"Taman Kediaman Indah","postcode":"24000","postOffice":"Cukai","state":"Terengganu"},{"no":"1506","location":"Taman Kekwa","postcode":"24000","postOffice":"Cukai","state":"Terengganu"},{"no":"1507","location":"Taman Kemaman","postcode":"24000","postOffice":"Cukai","state":"Terengganu"},{"no":"1508","location":"Taman Kenari","postcode":"24000","postOffice":"Cukai","state":"Terengganu"},{"no":"1509","location":"Taman Kernia Jaya","postcode":"21600","postOffice":"Marang","state":"Terengganu"},{"no":"1510","location":"Taman Koperasi","postcode":"21400","postOffice":"Bukit Payong","state":"Terengganu"},{"no":"1511","location":"Taman Kurnia Jaya","postcode":"23000","postOffice":"Dungun","state":"Terengganu"},{"no":"1512","location":"Taman Laila","postcode":"21600","postOffice":"Marang","state":"Terengganu"},{"no":"1513","location":"Taman Lembah Geliga","postcode":"24000","postOffice":"Cukai","state":"Terengganu"},{"no":"1514","location":"Taman LGL","postcode":"24000","postOffice":"Cukai","state":"Terengganu"},{"no":"1515","location":"Taman Lim Guan Lim","postcode":"24000","postOffice":"Cukai","state":"Terengganu"},{"no":"1516","location":"Taman Maheran","postcode":"24000","postOffice":"Cukai","state":"Terengganu"},{"no":"1517","location":"Taman Mak Cili","postcode":"24000","postOffice":"Cukai","state":"Terengganu"},{"no":"1518","location":"Taman Mas Intan","postcode":"23000","postOffice":"Dungun","state":"Terengganu"},{"no":"1519","location":"Taman Mas Murni (Fasa 1 \u0026 2)","postcode":"21600","postOffice":"Marang","state":"Terengganu"},{"no":"1520","location":"Taman Mat Nor","postcode":"24000","postOffice":"Cukai","state":"Terengganu"},{"no":"1521","location":"Taman Mawar","postcode":"24000","postOffice":"Cukai","state":"Terengganu"},{"no":"1522","location":"Taman Mawar","postcode":"23000","postOffice":"Dungun","state":"Terengganu"},{"no":"1523","location":"Taman Medan Jaya","postcode":"21080","postOffice":"Kuala Terengganu","state":"Terengganu"},{"no":"1524","location":"Taman Melati","postcode":"23000","postOffice":"Dungun","state":"Terengganu"},{"no":"1525","location":"Taman Melor","postcode":"23000","postOffice":"Dungun","state":"Terengganu"},{"no":"1526","location":"Taman Melor","postcode":"24000","postOffice":"Cukai","state":"Terengganu"},{"no":"1527","location":"Taman Melor 2","postcode":"24000","postOffice":"Cukai","state":"Terengganu"},{"no":"1528","location":"Taman Melor 4 Fasa 2","postcode":"23000","postOffice":"Dungun","state":"Terengganu"},{"no":"1529","location":"Taman Merpati","postcode":"24000","postOffice":"Cukai","state":"Terengganu"},{"no":"1530","location":"Taman Mesra","postcode":"23000","postOffice":"Dungun","state":"Terengganu"},{"no":"1531","location":"Taman Mewah","postcode":"21400","postOffice":"Bukit Payong","state":"Terengganu"},{"no":"1532","location":"Taman Mohd Nor","postcode":"24000","postOffice":"Cukai","state":"Terengganu"},{"no":"1533","location":"Taman Muda","postcode":"24000","postOffice":"Cukai","state":"Terengganu"},{"no":"1534","location":"Taman Muhibbah","postcode":"24000","postOffice":"Cukai","state":"Terengganu"},{"no":"1535","location":"Taman Murni","postcode":"23000","postOffice":"Dungun","state":"Terengganu"},{"no":"1536","location":"Taman Mutiara","postcode":"23000","postOffice":"Dungun","state":"Terengganu"},{"no":"1537","location":"Taman Norlida","postcode":"23000","postOffice":"Dungun","state":"Terengganu"},{"no":"1538","location":"Taman Omar Al Khatab","postcode":"23000","postOffice":"Dungun","state":"Terengganu"},{"no":"1539","location":"Taman Padang Midin","postcode":"21400","postOffice":"Bukit Payong","state":"Terengganu"},{"no":"1540","location":"Taman Pantai","postcode":"24000","postOffice":"Cukai","state":"Terengganu"},{"no":"1541","location":"Taman Pantai Sura","postcode":"23000","postOffice":"Dungun","state":"Terengganu"},{"no":"1542","location":"Taman Peladang","postcode":"24000","postOffice":"Cukai","state":"Terengganu"},{"no":"1543","location":"Taman Pelagat","postcode":"22000","postOffice":"Jerteh","state":"Terengganu"},{"no":"1544","location":"Taman Pelangi","postcode":"24000","postOffice":"Cukai","state":"Terengganu"},{"no":"1545","location":"Taman Pelangi 1 \u0026 2","postcode":"23000","postOffice":"Dungun","state":"Terengganu"},{"no":"1546","location":"Taman Perdana Bukit Catak","postcode":"23000","postOffice":"Dungun","state":"Terengganu"},{"no":"1547","location":"Taman Permai Jaya","postcode":"24000","postOffice":"Cukai","state":"Terengganu"},{"no":"1548","location":"Taman Permin Jaya","postcode":"21080","postOffice":"Kuala Terengganu","state":"Terengganu"},{"no":"1549","location":"Taman Permint Indah","postcode":"23000","postOffice":"Dungun","state":"Terengganu"},{"no":"1550","location":"Taman Perpindahan Sungai Kerak","postcode":"21600","postOffice":"Marang","state":"Terengganu"},{"no":"1551","location":"Taman Perumahan Haji Ismail","postcode":"24000","postOffice":"Cukai","state":"Terengganu"},{"no":"1552","location":"Taman Perumahan Kelulut","postcode":"21600","postOffice":"Marang","state":"Terengganu"},{"no":"1553","location":"Taman Perumahan Lembah Bidong","postcode":"21020","postOffice":"Kuala Terengganu","state":"Terengganu"},{"no":"1554","location":"Taman Perumahan Perkaya","postcode":"21600","postOffice":"Marang","state":"Terengganu"},{"no":"1555","location":"Taman Perumahan Perwaja","postcode":"24000","postOffice":"Cukai","state":"Terengganu"},{"no":"1556","location":"Taman Petani","postcode":"20000","postOffice":"Kuala Terengganu","state":"Terengganu"},{"no":"1557","location":"Taman Purnama","postcode":"20400","postOffice":"Kuala Terengganu","state":"Terengganu"},{"no":"1558","location":"Taman Rahmat","postcode":"24000","postOffice":"Cukai","state":"Terengganu"},{"no":"1559","location":"Taman Rakyat","postcode":"23000","postOffice":"Dungun","state":"Terengganu"},{"no":"1560","location":"Taman Raya","postcode":"23000","postOffice":"Dungun","state":"Terengganu"},{"no":"1561","location":"Taman Ros","postcode":"23000","postOffice":"Dungun","state":"Terengganu"},{"no":"1562","location":"Taman Rumbia","postcode":"23000","postOffice":"Dungun","state":"Terengganu"},{"no":"1563","location":"Taman Saeda","postcode":"23000","postOffice":"Dungun","state":"Terengganu"},{"no":"1564","location":"Taman Salimor 1","postcode":"21100","postOffice":"Kuala Terengganu","state":"Terengganu"},{"no":"1565","location":"Taman Salimor 2","postcode":"20400","postOffice":"Kuala Terengganu","state":"Terengganu"},{"no":"1566","location":"Taman Salwa","postcode":"21300","postOffice":"Kuala Terengganu","state":"Terengganu"},{"no":"1567","location":"Taman Samudra","postcode":"24000","postOffice":"Cukai","state":"Terengganu"},{"no":"1568","location":"Taman Sangsura","postcode":"24000","postOffice":"Cukai","state":"Terengganu"},{"no":"1569","location":"Taman Saujana","postcode":"22000","postOffice":"Jerteh","state":"Terengganu"},{"no":"1570","location":"Taman Selasih Perdana","postcode":"23000","postOffice":"Dungun","state":"Terengganu"},{"no":"1571","location":"Taman Selera","postcode":"24000","postOffice":"Cukai","state":"Terengganu"},{"no":"1572","location":"Taman Seri Cukai","postcode":"24000","postOffice":"Cukai","state":"Terengganu"},{"no":"1573","location":"Taman Seri Dungun","postcode":"23000","postOffice":"Dungun","state":"Terengganu"},{"no":"1574","location":"Taman Seri Geliga","postcode":"24000","postOffice":"Cukai","state":"Terengganu"},{"no":"1575","location":"Taman Seri Indah","postcode":"24000","postOffice":"Cukai","state":"Terengganu"},{"no":"1576","location":"Taman Seri Jakar","postcode":"24000","postOffice":"Cukai","state":"Terengganu"},{"no":"1577","location":"Taman Seri Jaya","postcode":"24000","postOffice":"Cukai","state":"Terengganu"},{"no":"1578","location":"Taman Seri Kalongan","postcode":"24000","postOffice":"Cukai","state":"Terengganu"},{"no":"1579","location":"Taman Seri Kalongan 2","postcode":"24000","postOffice":"Cukai","state":"Terengganu"},{"no":"1580","location":"Taman Seri Kemaman","postcode":"24000","postOffice":"Cukai","state":"Terengganu"},{"no":"1581","location":"Taman Seri Nenas","postcode":"21030","postOffice":"Kuala Terengganu","state":"Terengganu"},{"no":"1582","location":"Taman Seri Nering","postcode":"22000","postOffice":"Jerteh","state":"Terengganu"},{"no":"1583","location":"Taman Seri Paloh","postcode":"20050","postOffice":"Kuala Terengganu","state":"Terengganu"},{"no":"1584","location":"Taman Seri Pandan","postcode":"24000","postOffice":"Cukai","state":"Terengganu"},{"no":"1585","location":"Taman Seri Pandan 2","postcode":"24000","postOffice":"Cukai","state":"Terengganu"},{"no":"1586","location":"Taman Seri Pantai","postcode":"20400","postOffice":"Kuala Terengganu","state":"Terengganu"},{"no":"1587","location":"Taman Seri Pauh","postcode":"24000","postOffice":"Cukai","state":"Terengganu"},{"no":"1588","location":"Taman Seri Sepakat","postcode":"22000","postOffice":"Jerteh","state":"Terengganu"},{"no":"1589","location":"Taman Setia","postcode":"23000","postOffice":"Dungun","state":"Terengganu"},{"no":"1590","location":"Taman Setia Damai","postcode":"21300","postOffice":"Kuala Terengganu","state":"Terengganu"},{"no":"1591","location":"Taman Setia Durian Burong","postcode":"20050","postOffice":"Kuala Terengganu","state":"Terengganu"},{"no":"1592","location":"Taman Si Buyung","postcode":"24000","postOffice":"Cukai","state":"Terengganu"},{"no":"1593","location":"Taman Sri Bayu","postcode":"23000","postOffice":"Dungun","state":"Terengganu"},{"no":"1594","location":"Taman Sri Intan","postcode":"23000","postOffice":"Dungun","state":"Terengganu"},{"no":"1595","location":"Taman Sri Tanjung","postcode":"23000","postOffice":"Dungun","state":"Terengganu"},{"no":"1596","location":"Taman Sura","postcode":"23000","postOffice":"Dungun","state":"Terengganu"},{"no":"1597","location":"Taman Sura Jaya","postcode":"23000","postOffice":"Dungun","state":"Terengganu"},{"no":"1598","location":"Taman Sura Jetty","postcode":"23000","postOffice":"Dungun","state":"Terengganu"},{"no":"1599","location":"Taman Sura Perdana","postcode":"23000","postOffice":"Dungun","state":"Terengganu"},{"no":"1600","location":"Taman Sura Permai","postcode":"23000","postOffice":"Dungun","state":"Terengganu"},{"no":"1601","location":"Taman Sura Tengah 1","postcode":"23000","postOffice":"Dungun","state":"Terengganu"},{"no":"1602","location":"Taman Sutera","postcode":"23000","postOffice":"Dungun","state":"Terengganu"},{"no":"1603","location":"Taman Taja","postcode":"24000","postOffice":"Cukai","state":"Terengganu"},{"no":"1604","location":"Taman Tasek","postcode":"21450","postOffice":"Chalok","state":"Terengganu"},{"no":"1605","location":"Taman Telok Lipat","postcode":"23000","postOffice":"Dungun","state":"Terengganu"},{"no":"1606","location":"Taman Teratur","postcode":"22000","postOffice":"Jerteh","state":"Terengganu"},{"no":"1607","location":"Taman Terkukur","postcode":"20300","postOffice":"Kuala Terengganu","state":"Terengganu"},{"no":"1608","location":"Taman Tuah","postcode":"22000","postOffice":"Jerteh","state":"Terengganu"},{"no":"1609","location":"Taman Wahyu","postcode":"23000","postOffice":"Dungun","state":"Terengganu"},{"no":"1610","location":"Taman Wan Adnan","postcode":"24200","postOffice":"Kemasek","state":"Terengganu"},{"no":"1611","location":"Taman Zaharah","postcode":"23000","postOffice":"Dungun","state":"Terengganu"},{"no":"1612","location":"Tanah Lot Batu 10","postcode":"21300","postOffice":"Kuala Terengganu","state":"Terengganu"},{"no":"1613","location":"Tanjung Berhala","postcode":"24000","postOffice":"Cukai","state":"Terengganu"},{"no":"1614","location":"Tanjung Jara Beach Resort","postcode":"23000","postOffice":"Dungun","state":"Terengganu"},{"no":"1615","location":"Tapah","postcode":"21020","postOffice":"Kuala Terengganu","state":"Terengganu"},{"no":"1616","location":"Teladas","postcode":"24100","postOffice":"Kijal","state":"Terengganu"},{"no":"1617","location":"Telekom Malaysia Berhad","postcode":"20672","postOffice":"Kuala Terengganu","state":"Terengganu"},{"no":"1618","location":"Teluk Budu","postcode":"22300","postOffice":"Kuala Besut","state":"Terengganu"},{"no":"1619","location":"Teluk Kalong","postcode":"24000","postOffice":"Cukai","state":"Terengganu"},{"no":"1620","location":"Teluk Kubor","postcode":"22200","postOffice":"Kampung Raja","state":"Terengganu"},{"no":"1621","location":"Teluk Puchong","postcode":"24000","postOffice":"Cukai","state":"Terengganu"},{"no":"1622","location":"Tembila","postcode":"22200","postOffice":"Kampung Raja","state":"Terengganu"},{"no":"1623","location":"Temiang Ulu","postcode":"21600","postOffice":"Marang","state":"Terengganu"},{"no":"1624","location":"Tenaga Nasional Berhad","postcode":"20673","postOffice":"Kuala Terengganu","state":"Terengganu"},{"no":"1625","location":"Tepoh","postcode":"21060","postOffice":"Kuala Terengganu","state":"Terengganu"},{"no":"1626","location":"Teratak Batu","postcode":"21600","postOffice":"Marang","state":"Terengganu"},{"no":"1627","location":"Tok Kapor","postcode":"24000","postOffice":"Cukai","state":"Terengganu"},{"no":"1628","location":"Tok Kundur","postcode":"22000","postOffice":"Jerteh","state":"Terengganu"},{"no":"1629","location":"Tok Saboh","postcode":"22300","postOffice":"Kuala Besut","state":"Terengganu"},{"no":"1630","location":"TUDM Bukit Putri","postcode":"22000","postOffice":"Jerteh","state":"Terengganu"},{"no":"1631","location":"Ulu Sat","postcode":"21700","postOffice":"Kuala Berang","state":"Terengganu"},{"no":"1632","location":"Unit Kontrak Penyelenggaraan \u0026 Bumiputera","postcode":"20200","postOffice":"Kuala Terengganu","state":"Terengganu"},{"no":"1633","location":"Unit Perancang Ekonomi","postcode":"20503","postOffice":"Kuala Terengganu","state":"Terengganu"},{"no":"1634","location":"Unit Perpaduan Ummah","postcode":"20200","postOffice":"Kuala Terengganu","state":"Terengganu"},{"no":"1635","location":"Wisma Persekutuan","postcode":"20200","postOffice":"Kuala Terengganu","state":"Terengganu"},{"no":"1636","location":"YAB Menteri Besar Terengganu","postcode":"20502","postOffice":"Kuala Terengganu","state":"Terengganu"},{"no":"1637","location":"Yayasan Terengganu","postcode":"20300","postOffice":"Kuala Terengganu","state":"Terengganu"},{"no":"1638","location":"Zon Perindustrian Gong Badak","postcode":"21300","postOffice":"Kuala Terengganu","state":"Terengganu"},{"no":"1639","location":"Zon Perindustrian Jakar (1 \u0026 2)","postcode":"24000","postOffice":"Cukai","state":"Terengganu"}]