[{"no":"1","location":"Badan Pencegah Rasuah","postcode":"62007","postOffice":"Putrajaya","state":"WP Putrajaya"},{"no":"2","location":"Bahagian Biasiswa Kementerian Pelajaran","postcode":"62602","postOffice":"Putrajaya","state":"WP Putrajaya"},{"no":"3","location":"Bahagian Hal Ehwal Undang-undang","postcode":"62692","postOffice":"Putrajaya","state":"WP Putrajaya"},{"no":"4","location":"Bahagian Kemajuan Wilayah Persekutuan","postcode":"62670","postOffice":"Putrajaya","state":"WP Putrajaya"},{"no":"5","location":"Bahagian Kerja Tanah Jabatan Perdana Menteri","postcode":"62300","postOffice":"Putrajaya","state":"WP Putrajaya"},{"no":"6","location":"Bahagian Keselamatan Negara Jabatan Perdana Menteri","postcode":"62502","postOffice":"Putrajaya","state":"WP Putrajaya"},{"no":"7","location":"Bahagian Kewangan Kementerian Pelajaran","postcode":"62604","postOffice":"Putrajaya","state":"WP Putrajaya"},{"no":"8","location":"Bahagian Pendidikan Guru","postcode":"62604","postOffice":"Putrajaya","state":"WP Putrajaya"},{"no":"9","location":"Bahagian Pengurusan Harta Tanah Jabatan Perdana Menteri","postcode":"62502","postOffice":"Putrajaya","state":"WP Putrajaya"},{"no":"10","location":"Bahagian Penyelidikan Jabatan Perdana Menteri","postcode":"62502","postOffice":"Putrajaya","state":"WP Putrajaya"},{"no":"11","location":"Bahagian Pilihanraya Parlimen P125 Putrajaya","postcode":"62050","postOffice":"Putrajaya","state":"WP Putrajaya"},{"no":"12","location":"Bahagian Sumber Manusia Kementerian Pelajaran","postcode":"62604","postOffice":"Putrajaya","state":"WP Putrajaya"},{"no":"13","location":"Biro Bantuan Guaman Malaysia","postcode":"62692","postOffice":"Putrajaya","state":"WP Putrajaya"},{"no":"14","location":"Biro Pengaduan Awam","postcode":"62504","postOffice":"Putrajaya","state":"WP Putrajaya"},{"no":"15","location":"Biro Tatanegara","postcode":"62502","postOffice":"Putrajaya","state":"WP Putrajaya"},{"no":"16","location":"Cyberjaya","postcode":"62988","postOffice":"Putrajaya","state":"WP Putrajaya"},{"no":"17","location":"Former Prime Minister of Malaysia","postcode":"62200","postOffice":"Putrajaya","state":"WP Putrajaya"},{"no":"18","location":"Ibu Pejabat Jabatan Kastam DiRaja Malaysia","postcode":"62594","postOffice":"Putrajaya","state":"WP Putrajaya"},{"no":"19","location":"Jabatan Agama Islam Wilayah Putrajaya","postcode":"62675","postOffice":"Putrajaya","state":"WP Putrajaya"},{"no":"20","location":"Jabatan Akauntan Negara","postcode":"62592","postOffice":"Putrajaya","state":"WP Putrajaya"},{"no":"21","location":"Jabatan Alam Sekitar","postcode":"62570","postOffice":"Putrajaya","state":"WP Putrajaya"},{"no":"22","location":"Jabatan Bekalan Air","postcode":"62662","postOffice":"Putrajaya","state":"WP Putrajaya"},{"no":"23","location":"Jabatan Belia dan Sukan Negara","postcode":"62551","postOffice":"Putrajaya","state":"WP Putrajaya"},{"no":"24","location":"Jabatan Haiwan","postcode":"62628","postOffice":"Putrajaya","state":"WP Putrajaya"},{"no":"25","location":"Jabatan Hal Ehwal Kesatuan Sekerja","postcode":"62530","postOffice":"Putrajaya","state":"WP Putrajaya"},{"no":"26","location":"Jabatan Insolvensi Malaysia/Jabatan Pemegang Harta","postcode":"62514","postOffice":"Putrajaya","state":"WP Putrajaya"},{"no":"27","location":"Jabatan Kawalan Penyakit Bawaan Vektor","postcode":"62582","postOffice":"Putrajaya","state":"WP Putrajaya"},{"no":"28","location":"Jabatan Kehakiman Syariah Malaysia","postcode":"62676","postOffice":"Putrajaya","state":"WP Putrajaya"},{"no":"29","location":"Jabatan Kemajuan Islam Malaysia (JAKIM)","postcode":"62518","postOffice":"Putrajaya","state":"WP Putrajaya"},{"no":"30","location":"Jabatan Kemajuan Masayarakat ","postcode":"62605","postOffice":"Putrajaya","state":"WP Putrajaya"},{"no":"31","location":"Jabatan Kerja Raya Wilayah Persekutuan Putrajaya","postcode":"62582","postOffice":"Putrajaya","state":"WP Putrajaya"},{"no":"32","location":"Jabatan Kerjasama Asean","postcode":"62596","postOffice":"Putrajaya","state":"WP Putrajaya"},{"no":"33","location":"Jabatan Peguam Negara","postcode":"62510","postOffice":"Putrajaya","state":"WP Putrajaya"},{"no":"34","location":"Jabatan Pembangunan Kemahiran","postcode":"62527","postOffice":"Putrajaya","state":"WP Putrajaya"},{"no":"35","location":"Jabatan Pendaftaran Pertubuhan","postcode":"62542","postOffice":"Putrajaya","state":"WP Putrajaya"},{"no":"36","location":"Jabatan Pendidikan Teknikal","postcode":"62604","postOffice":"Putrajaya","state":"WP Putrajaya"},{"no":"37","location":"Jabatan Pendidikan Tinggi","postcode":"62604","postOffice":"Putrajaya","state":"WP Putrajaya"},{"no":"38","location":"Jabatan Penerbangan Awam","postcode":"62616","postOffice":"Putrajaya","state":"WP Putrajaya"},{"no":"39","location":"Jabatan Perangkaan Malaysia","postcode":"62512","postOffice":"Putrajaya","state":"WP Putrajaya"},{"no":"40","location":"Jabatan Perdana Menteri","postcode":"62502","postOffice":"Putrajaya","state":"WP Putrajaya"},{"no":"41","location":"Jabatan Perhubungan Perusahaan","postcode":"62532","postOffice":"Putrajaya","state":"WP Putrajaya"},{"no":"42","location":"Jabatan Perikanan","postcode":"62624","postOffice":"Putrajaya","state":"WP Putrajaya"},{"no":"43","location":"Jabatan Perkhidmatan Awam","postcode":"62506","postOffice":"Putrajaya","state":"WP Putrajaya"},{"no":"44","location":"Jabatan Perpaduan Negara dan Integrasi Nasional","postcode":"62516","postOffice":"Putrajaya","state":"WP Putrajaya"},{"no":"45","location":"Jabatan Pertanian","postcode":"62630","postOffice":"Putrajaya","state":"WP Putrajaya"},{"no":"46","location":"Jabatan Politeknik dan Kolej Komuniti","postcode":"62604","postOffice":"Putrajaya","state":"WP Putrajaya"},{"no":"47","location":"Jabatan Standard Malaysia","postcode":"62654","postOffice":"Putrajaya","state":"WP Putrajaya"},{"no":"48","location":"Jabatan Tenaga Kerja","postcode":"62532","postOffice":"Putrajaya","state":"WP Putrajaya"},{"no":"49","location":"Jabatan Tenaga Manusia","postcode":"62536","postOffice":"Putrajaya","state":"WP Putrajaya"},{"no":"50","location":"Jabatan Ukur \u0026 Pemetaan","postcode":"62576","postOffice":"Putrajaya","state":"WP Putrajaya"},{"no":"51","location":"Jabatan Wakaf Zakat dan Haji ","postcode":"62519","postOffice":"Putrajaya","state":"WP Putrajaya"},{"no":"52","location":"Jalan P10/4","postcode":"62250","postOffice":"Putrajaya","state":"WP Putrajaya"},{"no":"53","location":"Jalan P18C 1/2","postcode":"62100","postOffice":"Putrajaya","state":"WP Putrajaya"},{"no":"54","location":"Jalan P7E","postcode":"62250","postOffice":"Putrajaya","state":"WP Putrajaya"},{"no":"55","location":"Jalan P8E 2/5-2","postcode":"62250","postOffice":"Putrajaya","state":"WP Putrajaya"},{"no":"56","location":"Jalan P9C/1 Presint 9 ","postcode":"62250","postOffice":"Putrajaya","state":"WP Putrajaya"},{"no":"57","location":"Jemaah Nazir","postcode":"62604","postOffice":"Putrajaya","state":"WP Putrajaya"},{"no":"58","location":"Kementerian Belia Dan Sukan","postcode":"62570","postOffice":"Putrajaya","state":"WP Putrajaya"},{"no":"59","location":"Kementerian Hal Ehwal Dalam Negeri","postcode":"62546","postOffice":"Putrajaya","state":"WP Putrajaya"},{"no":"60","location":"Kementerian Kemajuan Luar Bandar dan Wilayah","postcode":"62606","postOffice":"Putrajaya","state":"WP Putrajaya"},{"no":"61","location":"Kementerian Keselamatan Dalam Negeri","postcode":"62546","postOffice":"Putrajaya","state":"WP Putrajaya"},{"no":"62","location":"Kementerian Kesihatan","postcode":"62584","postOffice":"Putrajaya","state":"WP Putrajaya"},{"no":"63","location":"Kementerian Kewangan","postcode":"62590","postOffice":"Putrajaya","state":"WP Putrajaya"},{"no":"64","location":"Kementerian Luar Negeri","postcode":"62602","postOffice":"Putrajaya","state":"WP Putrajaya"},{"no":"65","location":"Kementerian Pelajaran","postcode":"62604","postOffice":"Putrajaya","state":"WP Putrajaya"},{"no":"66","location":"Kementerian Pembangunan Usahawan dan Koperasi ","postcode":"62648","postOffice":"Putrajaya","state":"WP Putrajaya"},{"no":"67","location":"Kementerian Pengajian Tinggi","postcode":"62604","postOffice":"Putrajaya","state":"WP Putrajaya"},{"no":"68","location":"Kementerian Pengangkutan","postcode":"62606","postOffice":"Putrajaya","state":"WP Putrajaya"},{"no":"69","location":"Kementerian Perdagangan Dalam Negeri dan Hal Ehwal Pengguna","postcode":"62620","postOffice":"Putrajaya","state":"WP Putrajaya"},{"no":"70","location":"Kementerian Pertanian dan Industri Asas Tani","postcode":"62623","postOffice":"Putrajaya","state":"WP Putrajaya"},{"no":"71","location":"Kementerian Perusahaan Perladangan dan Komoditi","postcode":"62652","postOffice":"Putrajaya","state":"WP Putrajaya"},{"no":"72","location":"Kementerian Sains Teknologi dan Inovasi","postcode":"62662","postOffice":"Putrajaya","state":"WP Putrajaya"},{"no":"73","location":"Kementerian Sumber Asli dan Alam Sekitar","postcode":"62574","postOffice":"Putrajaya","state":"WP Putrajaya"},{"no":"74","location":"Kementerian Sumber Manusia","postcode":"62530","postOffice":"Putrajaya","state":"WP Putrajaya"},{"no":"75","location":"Kementerian Tenaga, Air dan Komunikasi","postcode":"62668","postOffice":"Putrajaya","state":"WP Putrajaya"},{"no":"76","location":"Kementerian Wilayah Persekutuan","postcode":"62100","postOffice":"Putrajaya","state":"WP Putrajaya"},{"no":"77","location":"Ketua Pengarah Agensi Anti Dadah Kebangsaan ","postcode":"62546","postOffice":"Putrajaya","state":"WP Putrajaya"},{"no":"78","location":"Ketua Pengarah Jabatan Bomba Malaysia ","postcode":"62632","postOffice":"Putrajaya","state":"WP Putrajaya"},{"no":"79","location":"Ketua Pengarah Jabatan Imigresen Malaysia","postcode":"62550","postOffice":"Putrajaya","state":"WP Putrajaya"},{"no":"80","location":"Ketua Pengarah Jabatan Pengangkutan Jalan","postcode":"62618","postOffice":"Putrajaya","state":"WP Putrajaya"},{"no":"81","location":"Ketua Pengarah Jabatan Penilaian dan Perkhidmatan Harta","postcode":"62592","postOffice":"Putrajaya","state":"WP Putrajaya"},{"no":"82","location":"Ketua Pengarah Jabatan RELA","postcode":"62546","postOffice":"Putrajaya","state":"WP Putrajaya"},{"no":"83","location":"Ketua Pengarah Jabatan Tanah dan Galian Persekutuan","postcode":"62574","postOffice":"Putrajaya","state":"WP Putrajaya"},{"no":"84","location":"Ketua Pengarah Pendaftaran Negara","postcode":"62550","postOffice":"Putrajaya","state":"WP Putrajaya"},{"no":"85","location":"Ketua Setiausaha Negara","postcode":"62502","postOffice":"Putrajaya","state":"WP Putrajaya"},{"no":"86","location":"Ketua Setiausaha Sulit Kanan Jabatan Perdana Menteri","postcode":"62502","postOffice":"Putrajaya","state":"WP Putrajaya"},{"no":"87","location":"Ketua Unit Kawal Selia Felda","postcode":"62502","postOffice":"Putrajaya","state":"WP Putrajaya"},{"no":"88","location":"Koperasi Pekerja-Pekerja Jabatan Perdana Menteri Berhad","postcode":"62502","postOffice":"Putrajaya","state":"WP Putrajaya"},{"no":"89","location":"Lembaga Penasihat Jabatan Perdana Menteri","postcode":"62502","postOffice":"Putrajaya","state":"WP Putrajaya"},{"no":"90","location":"Lembaga Peperiksaan Malaysia","postcode":"62604","postOffice":"Putrajaya","state":"WP Putrajaya"},{"no":"91","location":"Mahkamah Majistret Kajang","postcode":"62505","postOffice":"Putrajaya","state":"WP Putrajaya"},{"no":"92","location":"Mahkamah Rayuan Malaysia","postcode":"62506","postOffice":"Putrajaya","state":"WP Putrajaya"},{"no":"93","location":"Majlis Latihan Vokasional Kebangsaan","postcode":"62532","postOffice":"Putrajaya","state":"WP Putrajaya"},{"no":"94","location":"Pejabat Ketua Audit Negara","postcode":"62517","postOffice":"Putrajaya","state":"WP Putrajaya"},{"no":"95","location":"Pejabat Ketua Pegawai Keselamatan Kerajaan ","postcode":"62522","postOffice":"Putrajaya","state":"WP Putrajaya"},{"no":"96","location":"Pejabat Ketua Pendaftar Mahkamah Persekutuan","postcode":"62506","postOffice":"Putrajaya","state":"WP Putrajaya"},{"no":"97","location":"Pejabat Menteri di Jabatan Perdana Menteri","postcode":"62502","postOffice":"Putrajaya","state":"WP Putrajaya"},{"no":"98","location":"Pejabat Menteri di Jabatan Perdana Menteri Hal Ehwal Agama","postcode":"62519","postOffice":"Putrajaya","state":"WP Putrajaya"},{"no":"99","location":"Pejabat Perdana Menteri ","postcode":"62502","postOffice":"Putrajaya","state":"WP Putrajaya"},{"no":"100","location":"Pejabat Timbalan Menteri di Jabatan Perdana Menteri","postcode":"62502","postOffice":"Putrajaya","state":"WP Putrajaya"},{"no":"101","location":"Pejabat Timbalan Perdana Menteri ","postcode":"62502","postOffice":"Putrajaya","state":"WP Putrajaya"},{"no":"102","location":"Penasihat Agama Islam kepada Yang Amat Berhormat Perdana Menteri ","postcode":"62502","postOffice":"Putrajaya","state":"WP Putrajaya"},{"no":"103","location":"Pendaftar Kesatuan Sekerja","postcode":"62540","postOffice":"Putrajaya","state":"WP Putrajaya"},{"no":"104","location":"Perbadanan Putrajaya","postcode":"62674","postOffice":"Putrajaya","state":"WP Putrajaya"},{"no":"105","location":"Pusat Mel Kerajaan Putrajaya","postcode":"62668","postOffice":"Putrajaya","state":"WP Putrajaya"},{"no":"106","location":"Pusat Pengajian Pembangunan Malaysia","postcode":"62520","postOffice":"Putrajaya","state":"WP Putrajaya"},{"no":"107","location":"Pusat Perkembangan Kurikulum","postcode":"62604","postOffice":"Putrajaya","state":"WP Putrajaya"},{"no":"108","location":"Putrajaya - (Presint 1, 12, 14 \u0026 15)","postcode":"62000","postOffice":"Putrajaya","state":"WP Putrajaya"},{"no":"109","location":"Putrajaya - (Presint 11 \u0026 13)","postcode":"62250","postOffice":"Putrajaya","state":"WP Putrajaya"},{"no":"110","location":"Putrajaya - (Presint 16 \u0026 17)","postcode":"62100","postOffice":"Putrajaya","state":"WP Putrajaya"},{"no":"111","location":"Putrajaya - (Presint 2, 3, 4 \u0026 18)","postcode":"62100","postOffice":"Putrajaya","state":"WP Putrajaya"},{"no":"112","location":"Putrajaya - (Presint 5, 6, 19 \u0026 20)","postcode":"62150","postOffice":"Putrajaya","state":"WP Putrajaya"},{"no":"113","location":"Putrajaya - (Presint 7, 8, 9 \u0026 10)","postcode":"62250","postOffice":"Putrajaya","state":"WP Putrajaya"},{"no":"114","location":"Seketrial Permata Jabatan Perdana Menteri","postcode":"62502","postOffice":"Putrajaya","state":"WP Putrajaya"},{"no":"115","location":"Setiausaha Parlimen di Jabatan Perdana Menteri","postcode":"62502","postOffice":"Putrajaya","state":"WP Putrajaya"},{"no":"116","location":"Suruhanjaya Kehakiman ","postcode":"62677","postOffice":"Putrajaya","state":"WP Putrajaya"},{"no":"117","location":"Suruhanjaya Perkhidmatan Awam Malaysia","postcode":"62519","postOffice":"Putrajaya","state":"WP Putrajaya"},{"no":"118","location":"Suruhanjaya Perkhidmatan Pelajaran","postcode":"62524","postOffice":"Putrajaya","state":"WP Putrajaya"},{"no":"119","location":"Suruhanjaya Pilihan Raya Malaysia","postcode":"62686","postOffice":"Putrajaya","state":"WP Putrajaya"},{"no":"120","location":"Suruhanjaya Tenaga","postcode":"62100","postOffice":"Putrajaya","state":"WP Putrajaya"},{"no":"121","location":"Unit Pemodenan Tadbiran Malaysia","postcode":"62502","postOffice":"Putrajaya","state":"WP Putrajaya"},{"no":"122","location":"Unit Pemodenan Tadbiran Perancangan \u0026 Pengurusan Malaysia(MAMPU)","postcode":"62526","postOffice":"Putrajaya","state":"WP Putrajaya"},{"no":"123","location":"Unit Penyelarasan dan Perlaksanaan Jabatan Perdana Menteri","postcode":"62502","postOffice":"Putrajaya","state":"WP Putrajaya"},{"no":"124","location":"Unit Perancang Ekonomi Jabatan Perdana Menteri","postcode":"62502","postOffice":"Putrajaya","state":"WP Putrajaya"},{"no":"125","location":"Yayasan Tekun Nasional","postcode":"62652","postOffice":"Putrajaya","state":"WP Putrajaya"}]